{"type":"FeatureCollection","features":[{"type":"Feature","id":29,"geometry":{"type":"Polygon","coordinates":[[[-75.616449,5.7963707],[-75.616136,5.7963434],[-75.6161264,5.7964535],[-75.6161909,5.7964591],[-75.6161885,5.7964864],[-75.6159161,5.7964627],[-75.6159076,5.7965598],[-75.6162541,5.7965899],[-75.6162643,5.7964719],[-75.6163252,5.7964772],[-75.6163141,5.7966047],[-75.6164323,5.7966149],[-75.616449,5.7963707]]]},"properties":{"OBJECTID":29,"CIdentif":"053902001447","CTipo":2,"RuleID":2}},{"type":"Feature","id":30,"geometry":{"type":"Polygon","coordinates":[[[-75.6155176,5.7965232],[-75.6155488,5.7965255],[-75.6155542,5.7964514],[-75.6153889,5.7964393],[-75.6153873,5.7964958],[-75.6153867,5.7965163],[-75.6155176,5.7965232]]]},"properties":{"OBJECTID":30,"CIdentif":"053902001448","CTipo":2,"RuleID":2}},{"type":"Feature","id":31,"geometry":{"type":"Polygon","coordinates":[[[-75.6024599,5.7952716],[-75.6024332,5.7952701],[-75.6024333,5.7952692],[-75.6024333,5.795269],[-75.6024337,5.7952498],[-75.602341,5.7952432],[-75.6023375,5.7952928],[-75.6023359,5.7953257],[-75.602424,5.7953343],[-75.6024239,5.7953266],[-75.6024583,5.7953265],[-75.6024599,5.7952716]]]},"properties":{"OBJECTID":31,"CIdentif":"053902001449","CTipo":2,"RuleID":2}},{"type":"Feature","id":33,"geometry":{"type":"Polygon","coordinates":[[[-75.6034526,5.797653],[-75.6034154,5.797669],[-75.6034212,5.7976833],[-75.6033283,5.7977412],[-75.6033746,5.7978328],[-75.6035061,5.7977662],[-75.6034526,5.797653]]]},"properties":{"OBJECTID":33,"CIdentif":"053902001451","CTipo":2,"RuleID":2}}]}