{"type":"FeatureCollection","features":[{"type":"Feature","id":41,"geometry":{"type":"Point","coordinates":[-75.6175465,5.7946996]},"properties":{"OBJECTID":41,"CIdentif":"05390200141","CTipo":1,"RuleID":1}},{"type":"Feature","id":42,"geometry":{"type":"Point","coordinates":[-75.614261,5.7961661]},"properties":{"OBJECTID":42,"CIdentif":"05390200142","CTipo":1,"RuleID":1}},{"type":"Feature","id":43,"geometry":{"type":"Point","coordinates":[-75.6063437,5.7962146]},"properties":{"OBJECTID":43,"CIdentif":"05390200143","CTipo":1,"RuleID":1}},{"type":"Feature","id":44,"geometry":{"type":"Point","coordinates":[-75.6048187,5.7937548]},"properties":{"OBJECTID":44,"CIdentif":"05390200144","CTipo":1,"RuleID":1}},{"type":"Feature","id":45,"geometry":{"type":"Point","coordinates":[-75.6024913,5.7953359]},"properties":{"OBJECTID":45,"CIdentif":"05390200145","CTipo":1,"RuleID":1}},{"type":"Feature","id":48,"geometry":{"type":"Point","coordinates":[-75.6030113,5.7976867]},"properties":{"OBJECTID":48,"CIdentif":"05390200148","CTipo":1,"RuleID":1}},{"type":"Feature","id":49,"geometry":{"type":"Point","coordinates":[-75.6084678,5.8006878]},"properties":{"OBJECTID":49,"CIdentif":"05390200149","CTipo":1,"RuleID":1}},{"type":"Feature","id":50,"geometry":{"type":"Point","coordinates":[-75.6107788,5.8013619]},"properties":{"OBJECTID":50,"CIdentif":"05390200150","CTipo":1,"RuleID":1}},{"type":"Feature","id":51,"geometry":{"type":"Point","coordinates":[-75.6109901,5.80253]},"properties":{"OBJECTID":51,"CIdentif":"05390200151","CTipo":1,"RuleID":1}},{"type":"Feature","id":52,"geometry":{"type":"Point","coordinates":[-75.6123433,5.8020483]},"properties":{"OBJECTID":52,"CIdentif":"05390200152","CTipo":1,"RuleID":1}},{"type":"Feature","id":53,"geometry":{"type":"Point","coordinates":[-75.6126611,5.8003754]},"properties":{"OBJECTID":53,"CIdentif":"05390200153","CTipo":1,"RuleID":1}},{"type":"Feature","id":54,"geometry":{"type":"Point","coordinates":[-75.6144294,5.8005766]},"properties":{"OBJECTID":54,"CIdentif":"05390200154","CTipo":1,"RuleID":1}},{"type":"Feature","id":55,"geometry":{"type":"Point","coordinates":[-75.6169684,5.7995662]},"properties":{"OBJECTID":55,"CIdentif":"05390200155","CTipo":1,"RuleID":1}},{"type":"Feature","id":59,"geometry":{"type":"Point","coordinates":[-75.6143868,5.7966689]},"properties":{"OBJECTID":59,"CIdentif":"05390200159","CTipo":1,"RuleID":1}},{"type":"Feature","id":61,"geometry":{"type":"Point","coordinates":[-75.608848,5.7979434]},"properties":{"OBJECTID":61,"CIdentif":"05390200161","CTipo":1,"RuleID":1}},{"type":"Feature","id":67,"geometry":{"type":"Point","coordinates":[-75.6176846,5.7976949]},"properties":{"OBJECTID":67,"CIdentif":"05390200167","CTipo":1,"RuleID":1}},{"type":"Feature","id":335,"geometry":{"type":"Point","coordinates":[-75.6023913,5.7952886]},"properties":{"OBJECTID":335,"CIdentif":"053902001332","CTipo":2,"RuleID":2}}]}