{"type":"FeatureCollection","features":[{"type":"Feature","id":23,"geometry":{"type":"Polygon","coordinates":[[[-75.605182,5.7945378],[-75.6052585,5.7945711],[-75.6053384,5.7945649],[-75.6056353,5.7945657],[-75.6057237,5.7945422],[-75.6058181,5.7944922],[-75.6058721,5.7944556],[-75.6059671,5.7943493],[-75.6060047,5.7942836],[-75.606034,5.794239],[-75.6060386,5.7942219],[-75.6060103,5.7941822],[-75.6059547,5.7941889],[-75.6057739,5.7941613],[-75.6056819,5.7941175],[-75.60563,5.7940885],[-75.6055679,5.7940113],[-75.6054912,5.7938713],[-75.6054688,5.7938369],[-75.6054288,5.7938222],[-75.6053649,5.7938144],[-75.6053382,5.7938402],[-75.6052566,5.7938839],[-75.6051449,5.79389],[-75.605139,5.7938847],[-75.6051012,5.7938755],[-75.6049916,5.7938514],[-75.6049702,5.7938357],[-75.6048931,5.7938268],[-75.6048753,5.7938427],[-75.6048379,5.7938766],[-75.6048192,5.7939094],[-75.6048171,5.7939395],[-75.6048033,5.7939946],[-75.6047591,5.7940756],[-75.6047308,5.7941389],[-75.6047119,5.794168],[-75.6047198,5.7942107],[-75.6047253,5.7942441],[-75.6047525,5.7942969],[-75.6048155,5.7943572],[-75.6048779,5.7944063],[-75.6049682,5.7944519],[-75.6050356,5.7944558],[-75.605087,5.7944736],[-75.6051435,5.7945174],[-75.605182,5.7945378]]]},"properties":{"OBJECTID":23,"DAIdentif":"05390400226","DATipo":3,"RuleID":3}},{"type":"Feature","id":26,"geometry":{"type":"Polygon","coordinates":[[[-75.6051163,5.7970803],[-75.6051332,5.7970806],[-75.6051713,5.7970366],[-75.6051865,5.7969976],[-75.6052239,5.7968945],[-75.605293,5.7967902],[-75.6053427,5.7966991],[-75.6053849,5.7966275],[-75.6054123,5.7965798],[-75.6054271,5.7965061],[-75.605435,5.7963973],[-75.6054439,5.7963307],[-75.6054575,5.7962749],[-75.6054642,5.7961841],[-75.6054577,5.796072],[-75.6054491,5.795977],[-75.6054405,5.7959543],[-75.6054108,5.7959261],[-75.605378,5.7959057],[-75.6052276,5.7958886],[-75.6051794,5.7958831],[-75.6050547,5.7959117],[-75.6050357,5.7959389],[-75.6050249,5.7959747],[-75.6050086,5.7960317],[-75.6049899,5.7960729],[-75.6049651,5.796109],[-75.6049211,5.7961602],[-75.6048952,5.7962453],[-75.6048943,5.796267],[-75.6049119,5.7962988],[-75.604919,5.7963116],[-75.6049382,5.796338],[-75.6049624,5.7963874],[-75.6049793,5.796429],[-75.6049874,5.7964564],[-75.604991,5.7964749],[-75.6049883,5.7965174],[-75.6049719,5.7965434],[-75.6049512,5.7965726],[-75.6049443,5.7965892],[-75.6049438,5.7966353],[-75.6049626,5.7966767],[-75.6049798,5.7967117],[-75.6049957,5.7967422],[-75.6050092,5.7967775],[-75.6050301,5.7968122],[-75.6050372,5.7968491],[-75.6050081,5.7969505],[-75.6050066,5.7969854],[-75.605008,5.7970003],[-75.6050292,5.797018],[-75.6050628,5.7970374],[-75.6050797,5.7970584],[-75.6050922,5.7970688],[-75.605102,5.7970769],[-75.6051163,5.7970803]]]},"properties":{"OBJECTID":26,"DAIdentif":"05390400229","DATipo":3,"RuleID":3}},{"type":"Feature","id":27,"geometry":{"type":"Polygon","coordinates":[[[-75.6024453,5.7980101],[-75.6024923,5.7980223],[-75.6025196,5.7980134],[-75.6025456,5.7979804],[-75.6025609,5.7979378],[-75.6025744,5.7979129],[-75.602577,5.7978747],[-75.6025527,5.7978371],[-75.6025075,5.7978072],[-75.6024725,5.7977952],[-75.602434,5.7978011],[-75.6023996,5.797816],[-75.6023763,5.7978655],[-75.6023702,5.79789],[-75.602365,5.7979135],[-75.6024156,5.7979923],[-75.6024453,5.7980101]]]},"properties":{"OBJECTID":27,"DAIdentif":"05390400230","DATipo":6,"RuleID":6}},{"type":"Feature","id":28,"geometry":{"type":"Polygon","coordinates":[[[-75.6029667,5.7981062],[-75.6029859,5.7981199],[-75.6030053,5.7981179],[-75.6030169,5.7980932],[-75.6030232,5.7980037],[-75.6030166,5.7979503],[-75.6029938,5.7978894],[-75.6029686,5.7978528],[-75.6029485,5.79784],[-75.6029206,5.7978379],[-75.602912,5.7978513],[-75.6029065,5.7978869],[-75.6028939,5.7979442],[-75.6028908,5.7979713],[-75.6029333,5.7980728],[-75.6029484,5.7980933],[-75.6029667,5.7981062]]]},"properties":{"OBJECTID":28,"DAIdentif":"05390400231","DATipo":3,"RuleID":3}}]}