{"type":"FeatureCollection","features":[{"type":"Feature","id":71,"geometry":{"type":"LineString","coordinates":[[-75.6052276,5.7958886],[-75.6052276,5.7958886],[-75.605246,5.7957816],[-75.6052726,5.7956833],[-75.6053436,5.7955995],[-75.6053591,5.7955855],[-75.6054171,5.7955334],[-75.6054713,5.7954907],[-75.605547,5.7953661],[-75.6055952,5.7952892],[-75.6056206,5.7952398],[-75.6056683,5.7951469],[-75.6057344,5.7950712],[-75.6057975,5.7950032],[-75.6058687,5.7949626],[-75.6059293,5.7949287],[-75.6060031,5.7948457],[-75.6060733,5.7947526],[-75.6061411,5.7946748],[-75.606221,5.7946278],[-75.6062836,5.7945955],[-75.6063666,5.7945717],[-75.6064432,5.7945288],[-75.6065411,5.7944726],[-75.6065934,5.7944094],[-75.6066455,5.7943236],[-75.6066979,5.79419],[-75.6067319,5.7941012],[-75.6067543,5.7940597],[-75.6067983,5.7939672],[-75.6068123,5.7939255],[-75.6068507,5.7938232],[-75.6068664,5.7937897],[-75.6068979,5.7936317],[-75.6069209,5.7935149],[-75.6069588,5.793407],[-75.6070057,5.7933152],[-75.6070514,5.7932414],[-75.6071431,5.7931594],[-75.6071909,5.7931286],[-75.6072425,5.7931096],[-75.60735,5.7930873],[-75.607423,5.7930672],[-75.6074684,5.793062],[-75.6075057,5.7930707],[-75.6075827,5.7930831],[-75.6076278,5.7931052],[-75.6076441,5.7931097],[-75.6076835,5.7931206],[-75.6077814,5.7931987],[-75.6078356,5.7931974],[-75.6078978,5.7931924],[-75.6079606,5.7931724],[-75.6080291,5.7931227],[-75.6080977,5.7930852],[-75.6081804,5.7930577],[-75.6082447,5.7930338],[-75.60834,5.7929806],[-75.60846,5.7928998],[-75.6084957,5.792871],[-75.6086052,5.79284],[-75.6087028,5.7928214],[-75.6087949,5.7928258],[-75.6088962,5.7928275],[-75.6090151,5.7927769],[-75.6090811,5.7927406],[-75.6091526,5.7927141],[-75.6092425,5.7926943],[-75.6092893,5.7926936],[-75.6093716,5.792683],[-75.6094398,5.792671],[-75.6095763,5.7926487],[-75.6096239,5.7926367],[-75.6097368,5.7926533],[-75.609832,5.7926499],[-75.6099348,5.7926581],[-75.6100051,5.7926495],[-75.6101123,5.7926338],[-75.6101908,5.7926217],[-75.6102667,5.7926023],[-75.6102954,5.7925883],[-75.6103453,5.7925714],[-75.610419,5.7925381],[-75.6104686,5.7925174],[-75.6105287,5.7924883],[-75.610597,5.7924781],[-75.6107187,5.7924365],[-75.6107892,5.7923988],[-75.6108614,5.7923384],[-75.6109162,5.7922929],[-75.6110098,5.7922004],[-75.6110871,5.7921339],[-75.6111335,5.7921089],[-75.6112116,5.7921034],[-75.6113088,5.7921224],[-75.6114428,5.792196],[-75.6116015,5.792229],[-75.6117612,5.7922311],[-75.6118685,5.7922285],[-75.6120144,5.7922474],[-75.6121775,5.7922876],[-75.6123133,5.7923016],[-75.6125125,5.7924001],[-75.6126989,5.7924631],[-75.6129909,5.7925046],[-75.6131551,5.792514],[-75.6132659,5.7925284],[-75.613408,5.7925476],[-75.6135954,5.7925798],[-75.6138098,5.7925921],[-75.6139709,5.7926307],[-75.6140942,5.7926978],[-75.614212,5.7927463],[-75.6144067,5.7928374],[-75.6144725,5.7928812],[-75.6145786,5.7929519],[-75.6147075,5.793059],[-75.6148426,5.7931077],[-75.6148799,5.7931076],[-75.6149867,5.7931074],[-75.6151634,5.7931483],[-75.6152853,5.7932214],[-75.6153349,5.7932802],[-75.6153515,5.7933575],[-75.6153533,5.7933978],[-75.6153832,5.7935143],[-75.6154217,5.7936203],[-75.6154779,5.7937304],[-75.6155801,5.79384],[-75.6157398,5.7939057],[-75.615852,5.7939142],[-75.6159878,5.7939071],[-75.616063,5.7939095],[-75.6162749,5.7938739],[-75.6162892,5.7938703],[-75.6163989,5.7938429],[-75.6164831,5.7938175],[-75.6165845,5.7937924],[-75.6167127,5.7937648],[-75.6168467,5.7937386],[-75.6168903,5.7937325],[-75.617068,5.7937213],[-75.6171404,5.7937356],[-75.6172703,5.7937271],[-75.6173607,5.7937069],[-75.6174562,5.7936593],[-75.6175764,5.7935863],[-75.6176681,5.7935179],[-75.6177807,5.7934667],[-75.6178679,5.7934334],[-75.6179627,5.7934172],[-75.6179755,5.7934096],[-75.6180435,5.7933985],[-75.6181403,5.793416],[-75.6182049,5.7934444],[-75.6182802,5.7934584],[-75.6183089,5.7934619],[-75.6183698,5.793458],[-75.6184342,5.7934326],[-75.6185342,5.7933977],[-75.618562,5.7933961],[-75.6188002,5.7933182],[-75.6188407,5.7932831],[-75.6188457,5.7932787],[-75.6189718,5.7930099]]},"properties":{"OBJECTID":71,"DIdentif":"05390400171","DEstado":2,"DDisperso":"2","RuleID":1}},{"type":"Feature","id":220,"geometry":{"type":"LineString","coordinates":[[-75.5994789,5.8014241],[-75.5995598,5.801449],[-75.5995728,5.8014483],[-75.5996065,5.8014399],[-75.5996663,5.8014493],[-75.5997204,5.8014749],[-75.5997735,5.801482],[-75.5998357,5.8014849],[-75.5998723,5.8014772],[-75.599899,5.801459],[-75.5999513,5.8014338],[-75.6000403,5.8013695],[-75.6001011,5.8013308],[-75.6001528,5.8012945],[-75.600197,5.8012392],[-75.6002667,5.8012102],[-75.6003112,5.8011956],[-75.6003509,5.801161],[-75.6003705,5.801096],[-75.6004006,5.8010545],[-75.6004624,5.8009483],[-75.6005003,5.8008962],[-75.6005458,5.8008649],[-75.6005944,5.8008399],[-75.6006575,5.8008279],[-75.6006976,5.8008163],[-75.6007555,5.8007751],[-75.6007915,5.8007563],[-75.6008319,5.8007503],[-75.6008857,5.8007527],[-75.6009213,5.8007442],[-75.6009608,5.8007391],[-75.6010337,5.8007359],[-75.6010863,5.8007337],[-75.6011881,5.8007667],[-75.6012628,5.8007809],[-75.6013457,5.8008232],[-75.6013946,5.8008389],[-75.6014434,5.8008509],[-75.6014711,5.8008642],[-75.6015111,5.8009114],[-75.6015337,5.8009131],[-75.6015757,5.8009205],[-75.6015869,5.8009195],[-75.601636,5.800964],[-75.6016794,5.8010487],[-75.6017041,5.8010936],[-75.6017336,5.8011286],[-75.6018335,5.8012155],[-75.6018532,5.8012665],[-75.6018847,5.8013447],[-75.6019413,5.8014093],[-75.6019792,5.8014341],[-75.6020199,5.8014681],[-75.6020395,5.8014776],[-75.6021435,5.8015472],[-75.6022908,5.8015977],[-75.602457,5.8016087],[-75.6025528,5.8015885],[-75.6026662,5.8015346],[-75.6027735,5.8015172],[-75.6028649,5.8015106],[-75.602915,5.8015248],[-75.6029584,5.8015265],[-75.6030538,5.8015233],[-75.6031067,5.8015259],[-75.6032008,5.8015493],[-75.6032685,5.8015713],[-75.6033995,5.8016083],[-75.603537,5.8016333],[-75.6035949,5.8016505],[-75.6037002,5.8016521],[-75.6037587,5.8016146],[-75.6038345,5.8015189],[-75.6038836,5.8014597],[-75.6039919,5.8013912],[-75.6040758,5.8013645],[-75.6041801,5.8013549],[-75.604303,5.8013642],[-75.6043859,5.8013886],[-75.6045096,5.8014885],[-75.6046162,5.801505],[-75.6047455,5.8015025],[-75.6048627,5.8015105],[-75.6049903,5.8015515],[-75.6050983,5.801583],[-75.605185,5.8015863],[-75.6053248,5.8015753],[-75.6053732,5.8015708],[-75.605449,5.8015373],[-75.6055628,5.8014664],[-75.6056589,5.8014085],[-75.6057878,5.8013607],[-75.6059476,5.8013836],[-75.6060844,5.8014427],[-75.6062375,5.8014738],[-75.6063634,5.8015168],[-75.6064705,5.8015786],[-75.6065399,5.8016401],[-75.6066821,5.8017382],[-75.6067033,5.801751],[-75.6069862,5.8019221],[-75.607016,5.8019194],[-75.6070624,5.8019351],[-75.6071528,5.801986],[-75.6071947,5.802049],[-75.6072308,5.8021107],[-75.6072646,5.8021878],[-75.607323,5.8022436],[-75.6074003,5.8022976],[-75.607469,5.80232],[-75.6075188,5.802323],[-75.6076716,5.8023701],[-75.6076978,5.8023849],[-75.6077345,5.8024331],[-75.6077435,5.8024896],[-75.607724,5.8025468],[-75.6076849,5.8026402],[-75.6076478,5.8027353],[-75.6076582,5.802807],[-75.6077788,5.8029182],[-75.6078757,5.802978],[-75.6079355,5.80307],[-75.6079957,5.8031867],[-75.6080263,5.8032718],[-75.6080628,5.8034002],[-75.608092,5.8034912],[-75.6081157,5.8035425],[-75.6081579,5.8035777],[-75.60819,5.8036045],[-75.6082803,5.8036554],[-75.6083422,5.803707],[-75.6083535,5.803727],[-75.6083731,5.8037748],[-75.6083866,5.8038386],[-75.6083811,5.803862],[-75.6083691,5.8039395],[-75.6083595,5.8040015],[-75.6083874,5.8040353],[-75.6084413,5.8041048],[-75.6084922,5.8041613],[-75.6085527,5.8042398],[-75.6085957,5.8043142],[-75.6086211,5.8043844],[-75.6086263,5.8044833],[-75.608578,5.8046425],[-75.6084459,5.8049068],[-75.6083162,5.8050715],[-75.6082263,5.8052135],[-75.6081453,5.8053069],[-75.6080667,5.8053848],[-75.6079696,5.8055103],[-75.6079206,5.8056619],[-75.6079127,5.8057849],[-75.6079129,5.8057856],[-75.6079265,5.8058734],[-75.608019,5.8060101],[-75.6080696,5.8061258],[-75.6080885,5.8062081],[-75.6080844,5.8062467],[-75.6080931,5.8063625],[-75.608102,5.80644],[-75.6081295,5.806512],[-75.6081334,5.8067007],[-75.6081177,5.8067576],[-75.6081308,5.8068175],[-75.6081408,5.8069064],[-75.6081226,5.8069998],[-75.6080739,5.8070711],[-75.6080664,5.8071558],[-75.6080898,5.8072664],[-75.6081321,5.8073542],[-75.6082085,5.807565],[-75.6082903,5.8077313],[-75.6083412,5.8078508],[-75.6083471,5.8079153],[-75.6083451,5.8079976],[-75.6083342,5.8080759],[-75.6083522,5.8081339],[-75.6083814,5.808245],[-75.6083745,5.8083096],[-75.6083606,5.8083958],[-75.6083523,5.8084077],[-75.6083359,5.8084712],[-75.608322,5.8085825],[-75.6083223,5.8086364],[-75.6083262,5.8087189],[-75.6083409,5.8087977],[-75.6083235,5.8088947],[-75.6083238,5.8089665],[-75.6083457,5.8090489],[-75.6083639,5.8091134],[-75.6083786,5.8091483],[-75.6084506,5.80925],[-75.6084651,5.8092704],[-75.6085499,5.8093658],[-75.6086118,5.8094594],[-75.6086147,5.8094672],[-75.6086421,5.8095407],[-75.6086743,5.8096541]]},"properties":{"OBJECTID":220,"DIdentif":"053904001219","DEstado":2,"DDisperso":"2","RuleID":1}},{"type":"Feature","id":688,"geometry":{"type":"LineString","coordinates":[[-75.605624,5.7985238],[-75.6056448,5.7985775],[-75.6056471,5.7986329],[-75.6056451,5.7986933],[-75.6056478,5.798744],[-75.6056691,5.7987825],[-75.6056996,5.7988079],[-75.6057291,5.7988324],[-75.6057467,5.7988817],[-75.6057588,5.7989418],[-75.6057712,5.7990056],[-75.6057815,5.7990574],[-75.6058376,5.7991473],[-75.6059197,5.7992244],[-75.6059649,5.7992466],[-75.6060444,5.7992646],[-75.6061092,5.7992444],[-75.6062107,5.7992151],[-75.6062698,5.7991936],[-75.6063195,5.7991626],[-75.6063765,5.79916],[-75.606452,5.7991643],[-75.6064806,5.7991692],[-75.6065448,5.7991829],[-75.6065822,5.7992124],[-75.6066299,5.7992419],[-75.6066807,5.7992531],[-75.6067333,5.7992642],[-75.6068377,5.7992771],[-75.6068823,5.7993021],[-75.6069819,5.7993352],[-75.6070336,5.7993765],[-75.60707,5.7994051],[-75.607198,5.7995222],[-75.6072823,5.7995822],[-75.6073812,5.7996474],[-75.6075176,5.7997335],[-75.6076532,5.799818],[-75.6077032,5.7998352],[-75.6077436,5.7998724],[-75.6077706,5.7999193],[-75.6078334,5.799963],[-75.6078642,5.7999677],[-75.6078952,5.7999639],[-75.6079523,5.7999662],[-75.6080018,5.7999568],[-75.6080898,5.7999344],[-75.6081136,5.7999141],[-75.6081264,5.7998986],[-75.6081538,5.7998656],[-75.6081707,5.7998222],[-75.6082069,5.7997617],[-75.6082587,5.7997055],[-75.6083008,5.7996778],[-75.6083263,5.7996689],[-75.6083569,5.7996583],[-75.6084426,5.7996408],[-75.6085114,5.7996458],[-75.6086031,5.7996525],[-75.6086869,5.7996457],[-75.6087536,5.799649],[-75.6088992,5.7997268],[-75.6089979,5.7997481],[-75.6090503,5.7997394],[-75.6091382,5.799715],[-75.6092051,5.7996888],[-75.6092562,5.7996774],[-75.6093248,5.7996596],[-75.6093508,5.7996534],[-75.6094098,5.7996765],[-75.6094472,5.7997111],[-75.6094947,5.7997751],[-75.6095362,5.7998027],[-75.6095649,5.7998371],[-75.6096515,5.7999024],[-75.6097177,5.7999314],[-75.6097961,5.7999374],[-75.6099309,5.7999382],[-75.6100465,5.799937],[-75.6100856,5.7999486],[-75.610152,5.7999691],[-75.6102281,5.799982],[-75.6102738,5.7999939],[-75.6103338,5.8000073],[-75.6103687,5.8000155],[-75.6104111,5.800023],[-75.6104934,5.8000305],[-75.6105614,5.8000261],[-75.6105981,5.8000342],[-75.6107314,5.8000257],[-75.6107911,5.8000086],[-75.6108877,5.7999344],[-75.6109449,5.7998274],[-75.6109605,5.7997489],[-75.6109869,5.7996163],[-75.6109862,5.7995031],[-75.6110282,5.7993975],[-75.6111072,5.7993192],[-75.6111904,5.7992654],[-75.611316,5.7992154],[-75.6114296,5.799201],[-75.6115683,5.7992111],[-75.6116267,5.7992211],[-75.6117379,5.7992223],[-75.6118241,5.7992027],[-75.6119301,5.799168],[-75.6120477,5.7990304],[-75.6121761,5.7989053],[-75.6122899,5.7988314],[-75.6124746,5.7987567],[-75.6126399,5.7987221],[-75.6127155,5.7987113],[-75.6127707,5.7987292],[-75.6128554,5.7987962],[-75.6129286,5.7988642],[-75.6129742,5.7988811],[-75.6130556,5.7988716],[-75.6132524,5.7988667],[-75.6133964,5.7988917],[-75.6135472,5.7989295],[-75.6136705,5.7989373],[-75.6137671,5.7989475],[-75.6138904,5.7989341],[-75.6139721,5.798844],[-75.614029,5.7987754],[-75.6141022,5.7987168],[-75.6142144,5.7987294],[-75.6142904,5.7987857],[-75.6144112,5.7988512],[-75.6145114,5.7988784],[-75.614636,5.7988803],[-75.6147682,5.7988814],[-75.6149019,5.7988853],[-75.6149256,5.798886],[-75.6150198,5.7988484],[-75.6150771,5.7988259],[-75.615211,5.7987827],[-75.6152818,5.7987819],[-75.615394,5.7987523],[-75.6154899,5.7986916],[-75.615573,5.7985956],[-75.6156506,5.7984598],[-75.6156878,5.7983432],[-75.6157368,5.7982504],[-75.615784,5.7981824],[-75.6158134,5.7981454],[-75.6158863,5.7980693],[-75.615892,5.7980633],[-75.6159182,5.7980359],[-75.6160221,5.7979994],[-75.6161374,5.798004],[-75.6162579,5.7980446],[-75.6163784,5.7980853],[-75.6165545,5.7981687],[-75.6166875,5.7982408],[-75.6168722,5.7983138],[-75.6169761,5.7983406],[-75.6171491,5.7983476],[-75.6173538,5.7983458],[-75.6174763,5.7983459],[-75.6176513,5.7983335],[-75.6178066,5.7982731],[-75.6179833,5.7981953],[-75.6181279,5.7981646],[-75.618286,5.7981345],[-75.618422,5.7981142],[-75.6185377,5.7981227],[-75.6186619,5.7980785],[-75.6188631,5.7979819]]},"properties":{"OBJECTID":688,"DIdentif":"053904001677","DEstado":2,"DDisperso":"2","RuleID":1}},{"type":"Feature","id":899,"geometry":{"type":"LineString","coordinates":[[-75.5918241,5.7933869],[-75.5921198,5.7932874],[-75.5922269,5.793275],[-75.5924456,5.7932539],[-75.5925906,5.7932453],[-75.5927109,5.7932659],[-75.5927778,5.7932677],[-75.5928479,5.7932451],[-75.5929263,5.7932248],[-75.5929668,5.7932218],[-75.5929965,5.7932211],[-75.5930602,5.7932132],[-75.5931289,5.7931979],[-75.5932113,5.7931845],[-75.5932723,5.7931777],[-75.5933518,5.7931941],[-75.5934262,5.7932334],[-75.5934934,5.79329],[-75.5935105,5.7933224],[-75.5935217,5.7933461],[-75.5935182,5.7934623],[-75.5935092,5.7935293],[-75.5935077,5.7935689],[-75.5935253,5.7936102],[-75.5935605,5.7936587],[-75.5935947,5.7937216],[-75.5936343,5.793769],[-75.593691,5.7938163],[-75.5937157,5.7938384],[-75.5937747,5.7938757],[-75.5938243,5.7939253],[-75.5938489,5.7939608],[-75.5939689,5.7940749],[-75.594029,5.7941338],[-75.5940909,5.7941755],[-75.5941458,5.7941887],[-75.5941817,5.794185],[-75.5942185,5.7941804],[-75.5942689,5.7941606],[-75.594315,5.7941609],[-75.5944038,5.794184],[-75.5945015,5.794186],[-75.5945536,5.7941815],[-75.594607,5.7941679],[-75.5946774,5.7941659],[-75.5947478,5.7941658],[-75.5947909,5.7941617],[-75.5948512,5.7941576],[-75.5949908,5.7942005],[-75.5951019,5.7942333],[-75.5952219,5.7942638],[-75.595349,5.7942769],[-75.5954446,5.7943077],[-75.5955428,5.7943187],[-75.5956418,5.7943306],[-75.5957724,5.7943722],[-75.5958361,5.7943814],[-75.5958741,5.794383],[-75.595903,5.7943778],[-75.5959488,5.7943635],[-75.5959665,5.7943534],[-75.5960332,5.7943043],[-75.5960804,5.7942653],[-75.5961094,5.7942291],[-75.5962079,5.79411],[-75.5962565,5.7940637],[-75.5963257,5.7940099],[-75.5963763,5.7939671],[-75.5964698,5.7939074],[-75.5965109,5.7938578],[-75.5965453,5.7937868],[-75.5965922,5.793725],[-75.5966559,5.7936715],[-75.5966826,5.7936576],[-75.5967386,5.7936409],[-75.5968059,5.7936434],[-75.5968719,5.793658],[-75.5969677,5.7936547],[-75.5970148,5.793654],[-75.5970449,5.7936587],[-75.5970708,5.7936528],[-75.5971726,5.7936257],[-75.5972259,5.7935913],[-75.597263,5.7935577],[-75.5973046,5.793523],[-75.597351,5.7934772],[-75.5973919,5.7934299],[-75.597467,5.7933873],[-75.5975103,5.7933627],[-75.597613,5.7933538],[-75.5976791,5.7933576],[-75.5979724,5.7933365],[-75.5980659,5.7933414],[-75.5981526,5.7933541],[-75.5982498,5.7934606],[-75.5983161,5.793588],[-75.5983787,5.7936523],[-75.5984404,5.7937352],[-75.5984737,5.7937754],[-75.5985364,5.7938178],[-75.5986122,5.7938338],[-75.5987251,5.7938241],[-75.5988893,5.7937843],[-75.5989716,5.7937507],[-75.599025,5.7937223],[-75.5991067,5.7937125],[-75.5991286,5.7937113],[-75.5992291,5.7937425],[-75.5993028,5.7937532],[-75.5993974,5.7937445],[-75.5995203,5.793716],[-75.5996335,5.7937136],[-75.5997288,5.7937158],[-75.5997902,5.7937363],[-75.5998819,5.7937734],[-75.5999812,5.7938174],[-75.6000567,5.7938609],[-75.6001996,5.7939647],[-75.6002496,5.7940442],[-75.6003251,5.7941534],[-75.6003657,5.7941932],[-75.6004271,5.7942137],[-75.6004721,5.7942332],[-75.6005874,5.7943019],[-75.6006768,5.794299],[-75.6007542,5.7942748],[-75.6008631,5.794227],[-75.6009061,5.7942101],[-75.6009737,5.7942083],[-75.601052,5.7942023],[-75.6011486,5.7941953],[-75.6011814,5.7941936],[-75.6013195,5.7941442],[-75.6014043,5.7941232],[-75.6014782,5.7941029],[-75.6015829,5.7940443],[-75.6016431,5.7940082],[-75.6017318,5.7939722],[-75.6017866,5.7939525],[-75.6019434,5.793921],[-75.6019512,5.7939281],[-75.6020177,5.7939489],[-75.602061,5.7939559],[-75.6021345,5.7939688],[-75.602193,5.7939787],[-75.6022763,5.7940005],[-75.6023426,5.7940175],[-75.6024406,5.7940347],[-75.6025341,5.7940371],[-75.602606,5.7940201],[-75.602692,5.7939874],[-75.6028412,5.7939156],[-75.6029203,5.7938945],[-75.6030062,5.7938936],[-75.6030511,5.793895],[-75.6031247,5.793876],[-75.6031821,5.7938317],[-75.6032357,5.7937876],[-75.6033101,5.793748],[-75.6033739,5.7937202],[-75.6034405,5.7936736],[-75.6034739,5.7936362],[-75.6035277,5.7935602],[-75.6035414,5.793537],[-75.6035918,5.7934688],[-75.6036524,5.7933812],[-75.6037465,5.7932919],[-75.6038336,5.7932104],[-75.6039281,5.7931285],[-75.6039994,5.7930329],[-75.6040406,5.7929314],[-75.6041091,5.7927479],[-75.6041794,5.7926337],[-75.6042458,5.7925158],[-75.6042812,5.7924446],[-75.6043806,5.792282],[-75.6044921,5.7921336],[-75.6045398,5.7920487],[-75.6045757,5.7919887],[-75.6046964,5.791838],[-75.6048253,5.7917374],[-75.6049332,5.7916604],[-75.6050138,5.791598],[-75.6051171,5.7914707],[-75.6052169,5.7913829],[-75.6052999,5.7913297],[-75.6054156,5.7912598],[-75.6055819,5.7912283],[-75.6057266,5.7911775],[-75.6058228,5.7911254],[-75.6058958,5.7910953],[-75.6060372,5.7910521],[-75.6061689,5.791],[-75.6063035,5.790901],[-75.6063949,5.7908305],[-75.6064864,5.7907956],[-75.6066124,5.7907776],[-75.6067025,5.7907521],[-75.6067906,5.7907249],[-75.6069478,5.790714],[-75.6070645,5.7907301],[-75.6071061,5.7907391],[-75.6071627,5.7907511],[-75.6072576,5.7907441],[-75.607312,5.7907149],[-75.607357,5.7906844],[-75.607405,5.7906387],[-75.607469,5.7906147],[-75.6075095,5.790605],[-75.6075712,5.7905717],[-75.6076031,5.79054],[-75.607659,5.7904696],[-75.6077024,5.7904092],[-75.6077641,5.7903759],[-75.6078288,5.790363],[-75.6078818,5.7903433],[-75.6079495,5.7902835],[-75.6080169,5.7902518],[-75.6080623,5.7902287],[-75.6081133,5.7902391],[-75.6081584,5.7902441],[-75.6082303,5.7902271],[-75.6082796,5.790172],[-75.6083124,5.7901234],[-75.6083409,5.7900638],[-75.6084309,5.7899672],[-75.6085098,5.7899068],[-75.6085587,5.7898798],[-75.6086401,5.7898998],[-75.6086899,5.7899233],[-75.6087689,5.7900014],[-75.6088567,5.7900379],[-75.6089923,5.7901279],[-75.6091085,5.790154],[-75.6091722,5.790165],[-75.6092575,5.7901835],[-75.6093499,5.7901765],[-75.6094389,5.7901737],[-75.6095128,5.7901513],[-75.6096077,5.7901289],[-75.6096535,5.7901112],[-75.6096956,5.7900729],[-75.6098372,5.7898765],[-75.6099286,5.7897325],[-75.6100086,5.7896315],[-75.6100171,5.7895793],[-75.6100564,5.7894689],[-75.6101895,5.7893457],[-75.610219,5.7893143],[-75.6102549,5.789208],[-75.6102678,5.7891211],[-75.6102808,5.7890551],[-75.6102968,5.7889603],[-75.6103392,5.7888629],[-75.6103997,5.7887562],[-75.6104647,5.7886357],[-75.6105143,5.7885338],[-75.6105334,5.788473],[-75.6105994,5.788301],[-75.6106151,5.7882861],[-75.6106521,5.7881912],[-75.6107533,5.788073],[-75.6108402,5.7880056],[-75.6109364,5.7879773],[-75.611046,5.7879496],[-75.6111182,5.7879294],[-75.6111788,5.7878855],[-75.6112383,5.7878093],[-75.6112882,5.7876693],[-75.6112991,5.7875807],[-75.6113134,5.787467],[-75.611326,5.7872925],[-75.611332,5.787151],[-75.6113347,5.7870556],[-75.6113584,5.7869665],[-75.6113965,5.7868471],[-75.6114088,5.7867748],[-75.6114299,5.7867088],[-75.6114477,5.7866525],[-75.6114973,5.7865688],[-75.6115734,5.7864635],[-75.6116358,5.7863491],[-75.6116868,5.7862718],[-75.6117277,5.7861815],[-75.6116996,5.7860506],[-75.6116806,5.7859461],[-75.6116759,5.7858581],[-75.6116439,5.78576],[-75.6115622,5.7856241],[-75.6115006,5.7855428],[-75.611474,5.7854413],[-75.6114499,5.7853499]]},"properties":{"OBJECTID":899,"DIdentif":"053904001865","DEstado":1,"DDisperso":"2","DNombre":"Cañada Bocachico","RuleID":3}}]}