{"type":"FeatureCollection","features":[{"type":"Feature","id":71,"geometry":{"type":"LineString","coordinates":[[-75.6052276,5.7958886],[-75.6052276,5.7958886],[-75.605246,5.7957816],[-75.6052726,5.7956833],[-75.6053436,5.7955995],[-75.6053591,5.7955855],[-75.6054171,5.7955334],[-75.6054713,5.7954907],[-75.605547,5.7953661],[-75.6055952,5.7952892],[-75.6056206,5.7952398],[-75.6056683,5.7951469],[-75.6057344,5.7950712],[-75.6057975,5.7950032],[-75.6058687,5.7949626],[-75.6059293,5.7949287],[-75.6060031,5.7948457],[-75.6060733,5.7947526],[-75.6061411,5.7946748],[-75.606221,5.7946278],[-75.6062836,5.7945955],[-75.6063666,5.7945717],[-75.6064432,5.7945288],[-75.6065411,5.7944726],[-75.6065934,5.7944094],[-75.6066455,5.7943236],[-75.6066979,5.79419],[-75.6067319,5.7941012],[-75.6067543,5.7940597],[-75.6067983,5.7939672],[-75.6068123,5.7939255],[-75.6068507,5.7938232],[-75.6068664,5.7937897],[-75.6068979,5.7936317],[-75.6069209,5.7935149],[-75.6069588,5.793407],[-75.6070057,5.7933152],[-75.6070514,5.7932414],[-75.6071431,5.7931594],[-75.6071909,5.7931286],[-75.6072425,5.7931096],[-75.60735,5.7930873],[-75.607423,5.7930672],[-75.6074684,5.793062],[-75.6075057,5.7930707],[-75.6075827,5.7930831],[-75.6076278,5.7931052],[-75.6076441,5.7931097],[-75.6076835,5.7931206],[-75.6077814,5.7931987],[-75.6078356,5.7931974],[-75.6078978,5.7931924],[-75.6079606,5.7931724],[-75.6080291,5.7931227],[-75.6080977,5.7930852],[-75.6081804,5.7930577],[-75.6082447,5.7930338],[-75.60834,5.7929806],[-75.60846,5.7928998],[-75.6084957,5.792871],[-75.6086052,5.79284],[-75.6087028,5.7928214],[-75.6087949,5.7928258],[-75.6088962,5.7928275],[-75.6090151,5.7927769],[-75.6090811,5.7927406],[-75.6091526,5.7927141],[-75.6092425,5.7926943],[-75.6092893,5.7926936],[-75.6093716,5.792683],[-75.6094398,5.792671],[-75.6095763,5.7926487],[-75.6096239,5.7926367],[-75.6097368,5.7926533],[-75.609832,5.7926499],[-75.6099348,5.7926581],[-75.6100051,5.7926495],[-75.6101123,5.7926338],[-75.6101908,5.7926217],[-75.6102667,5.7926023],[-75.6102954,5.7925883],[-75.6103453,5.7925714],[-75.610419,5.7925381],[-75.6104686,5.7925174],[-75.6105287,5.7924883],[-75.610597,5.7924781],[-75.6107187,5.7924365],[-75.6107892,5.7923988],[-75.6108614,5.7923384],[-75.6109162,5.7922929],[-75.6110098,5.7922004],[-75.6110871,5.7921339],[-75.6111335,5.7921089],[-75.6112116,5.7921034],[-75.6113088,5.7921224],[-75.6114428,5.792196],[-75.6116015,5.792229],[-75.6117612,5.7922311],[-75.6118685,5.7922285],[-75.6120144,5.7922474],[-75.6121775,5.7922876],[-75.6123133,5.7923016],[-75.6125125,5.7924001],[-75.6126989,5.7924631],[-75.6129909,5.7925046],[-75.6131551,5.792514],[-75.6132659,5.7925284],[-75.613408,5.7925476],[-75.6135954,5.7925798],[-75.6138098,5.7925921],[-75.6139709,5.7926307],[-75.6140942,5.7926978],[-75.614212,5.7927463],[-75.6144067,5.7928374],[-75.6144725,5.7928812],[-75.6145786,5.7929519],[-75.6147075,5.793059],[-75.6148426,5.7931077],[-75.6148799,5.7931076],[-75.6149867,5.7931074],[-75.6151634,5.7931483],[-75.6152853,5.7932214],[-75.6153349,5.7932802],[-75.6153515,5.7933575],[-75.6153533,5.7933978],[-75.6153832,5.7935143],[-75.6154217,5.7936203],[-75.6154779,5.7937304],[-75.6155801,5.79384],[-75.6157398,5.7939057],[-75.615852,5.7939142],[-75.6159878,5.7939071],[-75.616063,5.7939095],[-75.6162749,5.7938739],[-75.6162892,5.7938703],[-75.6163989,5.7938429],[-75.6164831,5.7938175],[-75.6165845,5.7937924],[-75.6167127,5.7937648],[-75.6168467,5.7937386],[-75.6168903,5.7937325],[-75.617068,5.7937213],[-75.6171404,5.7937356],[-75.6172703,5.7937271],[-75.6173607,5.7937069],[-75.6174562,5.7936593],[-75.6175764,5.7935863],[-75.6176681,5.7935179],[-75.6177807,5.7934667],[-75.6178679,5.7934334],[-75.6179627,5.7934172],[-75.6179755,5.7934096],[-75.6180435,5.7933985],[-75.6181403,5.793416],[-75.6182049,5.7934444],[-75.6182802,5.7934584],[-75.6183089,5.7934619],[-75.6183698,5.793458],[-75.6184342,5.7934326],[-75.6185342,5.7933977],[-75.618562,5.7933961],[-75.6188002,5.7933182],[-75.6188407,5.7932831],[-75.6188457,5.7932787],[-75.6189718,5.7930099]]},"properties":{"OBJECTID":71,"DIdentif":"05390400171","DEstado":2,"DDisperso":"2","RuleID":1}},{"type":"Feature","id":72,"geometry":{"type":"LineString","coordinates":[[-75.6075658,5.796976],[-75.6075458,5.7970747],[-75.6075536,5.7971398],[-75.6075502,5.7971956],[-75.6075554,5.7972516],[-75.6075645,5.7973109],[-75.6075906,5.7973912],[-75.6075979,5.79743],[-75.6075996,5.7974901],[-75.6076001,5.797537],[-75.6076169,5.7976492],[-75.6076178,5.7977103],[-75.6076055,5.797781],[-75.6076034,5.7978602],[-75.6075929,5.7978998],[-75.6075842,5.7979373],[-75.607591,5.7979925],[-75.6075913,5.7979949],[-75.6075993,5.7980308],[-75.6076213,5.7980767],[-75.6076602,5.7981229],[-75.6076997,5.7981766],[-75.6077689,5.798298],[-75.6077968,5.7983264],[-75.6078269,5.7983583],[-75.6078566,5.7984158],[-75.607864,5.7984564],[-75.6078645,5.798493],[-75.6078962,5.7985315],[-75.6079278,5.7985906],[-75.6079606,5.7986627],[-75.6079771,5.7987195],[-75.6079898,5.7987559],[-75.608041,5.7988244],[-75.608105,5.7989397],[-75.6081517,5.7989993],[-75.6081992,5.7990785],[-75.6082545,5.7991505],[-75.6082572,5.7991545],[-75.6082686,5.799172],[-75.6083195,5.7992129],[-75.6083335,5.7992445],[-75.60834,5.7992748],[-75.6083427,5.7993076],[-75.6083378,5.799343],[-75.6083144,5.7993894],[-75.6083049,5.799425],[-75.6082953,5.7994636],[-75.6082857,5.7995124],[-75.6083004,5.7996022],[-75.6083263,5.7996689]]},"properties":{"OBJECTID":72,"DIdentif":"05390400172","DEstado":2,"DDisperso":"2","RuleID":1}},{"type":"Feature","id":73,"geometry":{"type":"LineString","coordinates":[[-75.6065839,5.7981083],[-75.6066947,5.7980885],[-75.6067996,5.7980552],[-75.6069031,5.7980173],[-75.6070012,5.7980024],[-75.607035,5.798003],[-75.6071318,5.7980043],[-75.6072189,5.7980027],[-75.6073108,5.797981],[-75.6073923,5.7979592],[-75.6074456,5.7979467],[-75.6074725,5.7979432],[-75.6075029,5.7979583],[-75.6075735,5.7979808],[-75.607591,5.7979925]]},"properties":{"OBJECTID":73,"DIdentif":"05390400173","DEstado":2,"DDisperso":"2","RuleID":1}},{"type":"Feature","id":74,"geometry":{"type":"LineString","coordinates":[[-75.6097312,5.7973886],[-75.6098083,5.7974354],[-75.6098791,5.7974544],[-75.6099553,5.7974709],[-75.6100184,5.7974887],[-75.6100825,5.7975282],[-75.6101059,5.7975668],[-75.6101319,5.7976231],[-75.6101962,5.7977583],[-75.6102242,5.797806],[-75.6102957,5.7978742],[-75.6103276,5.7979129],[-75.6103572,5.7979566],[-75.6103674,5.7979859],[-75.6103719,5.7980765],[-75.610366,5.7981567],[-75.6103512,5.7982226],[-75.61032,5.7982852],[-75.6102873,5.7983935],[-75.6102609,5.7984671],[-75.6102499,5.7985118],[-75.6102525,5.7985712],[-75.6102981,5.7987082],[-75.6103244,5.7987892],[-75.610335,5.7988432],[-75.6103619,5.7990862],[-75.6103622,5.7991715],[-75.6103573,5.799263],[-75.6103556,5.7993798],[-75.6103562,5.7994271],[-75.6103884,5.79948],[-75.6104328,5.79951],[-75.6105198,5.7995616],[-75.6105704,5.7995985],[-75.6106482,5.7996529],[-75.6107027,5.7996999],[-75.6107823,5.7997436],[-75.6108591,5.7997658],[-75.6109605,5.7997489]]},"properties":{"OBJECTID":74,"DIdentif":"05390400174","DEstado":2,"DDisperso":"2","RuleID":1}},{"type":"Feature","id":75,"geometry":{"type":"LineString","coordinates":[[-75.6110699,5.8027729],[-75.6112276,5.8028939],[-75.6113678,5.8030108],[-75.6116189,5.8031328],[-75.6117144,5.8032194],[-75.6117831,5.8033047],[-75.6118007,5.8033717],[-75.6118327,5.8034509],[-75.6118433,5.8034842],[-75.6118849,5.8035224],[-75.6120309,5.8036197],[-75.6121628,5.8036667],[-75.6122782,5.803679],[-75.6124039,5.8036789],[-75.6125437,5.803729],[-75.6126649,5.8037847],[-75.6127206,5.8038311],[-75.6128741,5.8039067],[-75.6129792,5.8039524],[-75.6130335,5.8039417],[-75.6132096,5.8038683],[-75.6132947,5.8037784],[-75.6133726,5.803693],[-75.613456,5.8036262],[-75.6135642,5.8035544],[-75.6135727,5.8035487],[-75.6136888,5.8035686],[-75.6137695,5.8036394],[-75.6138143,5.8037746],[-75.613838,5.8038468],[-75.6138916,5.8038915],[-75.6140383,5.8039963],[-75.614119,5.8040881],[-75.6142005,5.8041665],[-75.6142695,5.8042346],[-75.6144245,5.8043043],[-75.6144305,5.8043048],[-75.6145223,5.8043125],[-75.6146617,5.8043169],[-75.614763,5.804321],[-75.6148283,5.8043894],[-75.6148826,5.8044836],[-75.6149205,5.8045431],[-75.6149706,5.8046339],[-75.6150095,5.8047467],[-75.615048,5.8047928],[-75.6151487,5.8048942],[-75.6152555,5.8049378],[-75.6153596,5.8049722],[-75.6155035,5.8050467],[-75.6156141,5.80509],[-75.6157112,5.805156],[-75.6157937,5.8052121],[-75.6157937,5.8052121]]},"properties":{"OBJECTID":75,"DIdentif":"05390400175","DEstado":2,"DDisperso":"2","RuleID":1}},{"type":"Feature","id":76,"geometry":{"type":"LineString","coordinates":[[-75.6129054,5.8054137],[-75.6130411,5.8052737],[-75.6131467,5.8051383],[-75.6132002,5.805095],[-75.6132564,5.8050486],[-75.6133098,5.8050034],[-75.6134036,5.8049391],[-75.6134546,5.8049307],[-75.6135135,5.8049253],[-75.6135609,5.8049085],[-75.61363,5.8048887],[-75.6137258,5.8048877],[-75.6138108,5.8048742],[-75.6138412,5.8048714],[-75.6138785,5.8048392],[-75.613901,5.8048122],[-75.6139233,5.8047938],[-75.613975,5.8047718],[-75.6139843,5.8047585],[-75.6139948,5.8047163],[-75.6139911,5.8046657],[-75.6140312,5.8045901],[-75.6140711,5.8045336],[-75.6141654,5.804454]]},"properties":{"OBJECTID":76,"DIdentif":"05390400176","DEstado":2,"DDisperso":"2","RuleID":1}},{"type":"Feature","id":77,"geometry":{"type":"LineString","coordinates":[[-75.6113428,5.8063858],[-75.6114902,5.8064432],[-75.6117046,5.8064838],[-75.6118757,5.8066001],[-75.6119302,5.8066562],[-75.6119787,5.8067215],[-75.6120101,5.8067584],[-75.6120237,5.8068336],[-75.6120722,5.8069522],[-75.6121133,5.8070309],[-75.6121815,5.8071215],[-75.6123086,5.8072437],[-75.612463,5.8073992],[-75.6125311,5.8075093],[-75.612555,5.8075381],[-75.6125852,5.8075828],[-75.6126228,5.8076462],[-75.6126327,5.8077219],[-75.6126734,5.8078605],[-75.6127011,5.8079103],[-75.6127742,5.8079696],[-75.6128239,5.8079951],[-75.6128474,5.8080094],[-75.6129552,5.8080462],[-75.6130263,5.808063],[-75.6131124,5.8080745],[-75.6132049,5.8080613],[-75.6132332,5.8080572]]},"properties":{"OBJECTID":77,"DIdentif":"05390400177","DEstado":2,"DDisperso":"2","RuleID":1}},{"type":"Feature","id":78,"geometry":{"type":"LineString","coordinates":[[-75.610062,5.8075475],[-75.6101001,5.8076708],[-75.6101358,5.8077887],[-75.6102382,5.8079447],[-75.6102767,5.808093],[-75.6103106,5.8082129],[-75.6103739,5.8082975],[-75.6104556,5.8084635],[-75.6105142,5.8085119],[-75.6105754,5.808547],[-75.6106034,5.8085725],[-75.6106237,5.8085767],[-75.6106894,5.8085611],[-75.6107378,5.8085452],[-75.6108045,5.80852],[-75.6108829,5.8084552],[-75.6109593,5.8084099],[-75.6110526,5.8083822],[-75.6111411,5.8083858],[-75.6111633,5.8083972],[-75.6112342,5.8084388],[-75.6112919,5.8084836],[-75.6113438,5.8085692],[-75.6113539,5.8085952],[-75.6113954,5.808651],[-75.6114241,5.8087138],[-75.6114421,5.8087426],[-75.6114746,5.8087949]]},"properties":{"OBJECTID":78,"DIdentif":"05390400178","DEstado":2,"DDisperso":"2","RuleID":1}},{"type":"Feature","id":79,"geometry":{"type":"LineString","coordinates":[[-75.6033862,5.7998537],[-75.6034844,5.7999427],[-75.6035247,5.7999936],[-75.6036233,5.8000449],[-75.6037161,5.8000948],[-75.6038079,5.8001335],[-75.6038715,5.8001313],[-75.6039433,5.800136],[-75.6040096,5.8001431],[-75.6041166,5.8001634],[-75.6041725,5.8001789],[-75.6042555,5.8002033],[-75.6043184,5.8001937],[-75.6044281,5.8001817],[-75.6045388,5.8001394],[-75.6047077,5.8000766],[-75.6048827,5.8000396],[-75.604992,5.8000238],[-75.6051261,5.8000322],[-75.6053874,5.8000363],[-75.6054907,5.8000984],[-75.6056106,5.8001779],[-75.6057068,5.8002444],[-75.6058125,5.800312],[-75.605929,5.800354],[-75.6059943,5.8003706],[-75.6061284,5.8003997],[-75.6062083,5.8003904],[-75.6063156,5.8003937],[-75.6063647,5.8004175],[-75.6064158,5.8004637],[-75.6064653,5.8005534],[-75.6065003,5.8006483],[-75.6065847,5.8008744],[-75.6066105,5.8009513],[-75.606643,5.8009992],[-75.6066871,5.8010914],[-75.606677,5.8012696],[-75.6066683,5.8013799],[-75.6066612,5.8014673],[-75.6066623,5.8016031],[-75.6067033,5.801751],[-75.6067033,5.801751]]},"properties":{"OBJECTID":79,"DIdentif":"05390400179","DEstado":2,"DDisperso":"2","RuleID":1}},{"type":"Feature","id":80,"geometry":{"type":"LineString","coordinates":[[-75.6085643,5.7968815],[-75.6085645,5.7969145],[-75.6085783,5.7969622],[-75.6085936,5.7970164],[-75.6086129,5.7970636],[-75.6086589,5.7971244],[-75.6087101,5.7971809],[-75.6087285,5.7972169],[-75.6087853,5.7973558],[-75.6087882,5.7974083],[-75.6087903,5.7974515],[-75.6087873,5.7974904],[-75.608799,5.7975365],[-75.6088122,5.7975889],[-75.6088571,5.7976781],[-75.6088686,5.797743],[-75.6088717,5.7978078],[-75.6088731,5.7978953],[-75.6088349,5.7979913],[-75.6088157,5.7980393],[-75.6088052,5.7980789],[-75.6087875,5.7981315],[-75.608755,5.7981978],[-75.6087113,5.7982546],[-75.6086743,5.7983034],[-75.6086207,5.7984366],[-75.6085819,5.7985063],[-75.6085567,5.7986011],[-75.6084685,5.7987885],[-75.6083586,5.7989336],[-75.6083029,5.7990341],[-75.6082572,5.7991545],[-75.6082572,5.7991545]]},"properties":{"OBJECTID":80,"DIdentif":"05390400180","DEstado":2,"DDisperso":"2","RuleID":1}},{"type":"Feature","id":81,"geometry":{"type":"LineString","coordinates":[[-75.6139918,5.7947754],[-75.6139635,5.7946775],[-75.6139659,5.7946193],[-75.6139725,5.7945858],[-75.6139913,5.7945376],[-75.614015,5.7944793],[-75.6140271,5.7943795],[-75.6140002,5.7943182],[-75.6139855,5.7942422],[-75.6140008,5.7941769],[-75.6140503,5.7941046],[-75.6141798,5.7939569],[-75.6142414,5.7938486],[-75.6143124,5.7937162],[-75.6143848,5.7935991],[-75.614477,5.7935091],[-75.6145697,5.7934443],[-75.6146619,5.7933756],[-75.6147337,5.7933147],[-75.6147699,5.7932455],[-75.6147911,5.7932029],[-75.6148799,5.7931076]]},"properties":{"OBJECTID":81,"DIdentif":"05390400181","DEstado":2,"DDisperso":"2","RuleID":1}},{"type":"Feature","id":82,"geometry":{"type":"LineString","coordinates":[[-75.6163808,5.7970048],[-75.6162493,5.7970422],[-75.6161757,5.7970799],[-75.6161023,5.7971089],[-75.6160554,5.7971441],[-75.615995,5.7971999],[-75.6159442,5.7972971],[-75.6159305,5.7973582],[-75.6159291,5.7973959],[-75.6159121,5.7974206],[-75.6158981,5.7974566],[-75.6158984,5.797471],[-75.6158981,5.7975202],[-75.6158841,5.7976092],[-75.6158638,5.7976718],[-75.6158241,5.7977218],[-75.6158111,5.7977587],[-75.615791,5.7978444],[-75.6157983,5.7979141],[-75.615814,5.7979589],[-75.6158171,5.7979715]]},"properties":{"OBJECTID":82,"DIdentif":"05390400182","DEstado":2,"DDisperso":"2","RuleID":1}},{"type":"Feature","id":83,"geometry":{"type":"LineString","coordinates":[[-75.6124914,5.7968939],[-75.6126108,5.7969473],[-75.612763,5.7970756],[-75.6128544,5.7971499],[-75.6129339,5.7972089],[-75.6130174,5.7972589],[-75.6130826,5.7972884],[-75.6131296,5.7973081],[-75.613195,5.7973502],[-75.6133106,5.7973615],[-75.6133647,5.7973747],[-75.6134263,5.7973853],[-75.6134454,5.7973942],[-75.6135134,5.7974331],[-75.6135719,5.7974941],[-75.6135908,5.7975222],[-75.6136375,5.7975698],[-75.6136873,5.7976095],[-75.6137326,5.7976312],[-75.6137608,5.7976353],[-75.6138134,5.7976208],[-75.6138696,5.7975934],[-75.6139008,5.7975558],[-75.6139493,5.7975079],[-75.614006,5.7974756],[-75.6141071,5.7974555],[-75.6142236,5.7974466],[-75.6142832,5.7974554],[-75.6143608,5.7974424],[-75.6143988,5.7974369],[-75.6144495,5.7974437],[-75.6144863,5.7974673],[-75.6145192,5.7974911],[-75.6145919,5.7975181],[-75.6146773,5.7975361],[-75.6147248,5.7975509],[-75.614836,5.7975569],[-75.6148825,5.7975602],[-75.6149284,5.7975684],[-75.614969,5.7976022],[-75.614998,5.7976351],[-75.6150288,5.797666],[-75.6150773,5.7976711],[-75.6151077,5.7976557],[-75.6151687,5.7976182],[-75.6152415,5.7976047],[-75.6152833,5.7976094],[-75.6153494,5.7976485],[-75.6154064,5.7976923],[-75.6154562,5.7977214],[-75.6155252,5.7977611],[-75.6155925,5.797803],[-75.6156496,5.7978275],[-75.6156979,5.7978712],[-75.6158171,5.7979715],[-75.6158201,5.7979834],[-75.6158415,5.798017],[-75.6158863,5.7980693]]},"properties":{"OBJECTID":83,"DIdentif":"05390400183","DEstado":2,"DDisperso":"2","RuleID":1}},{"type":"Feature","id":84,"geometry":{"type":"LineString","coordinates":[[-75.6146095,5.8001241],[-75.6146828,5.8000719],[-75.6147417,5.8000202],[-75.6147915,5.7999644],[-75.6148387,5.7999118],[-75.6149002,5.7998039],[-75.6149208,5.7997663],[-75.6149611,5.7997114],[-75.6150373,5.799607],[-75.6150826,5.7995545],[-75.61512,5.799499],[-75.6151225,5.7994322],[-75.6151088,5.7993659],[-75.6150865,5.7992908],[-75.6150805,5.7992364],[-75.6150638,5.7991801],[-75.6150073,5.7991207],[-75.6149684,5.7990742],[-75.6149341,5.7990262],[-75.6149188,5.7989958],[-75.6149021,5.7989501],[-75.6149019,5.7988853]]},"properties":{"OBJECTID":84,"DIdentif":"05390400184","DEstado":2,"DDisperso":"2","RuleID":1}},{"type":"Feature","id":85,"geometry":{"type":"LineString","coordinates":[[-75.6132407,5.8023145],[-75.6132742,5.8025028],[-75.6133337,5.8027021],[-75.6133282,5.8027997],[-75.6133265,5.8028546],[-75.6133214,5.8029243],[-75.6133375,5.8029748],[-75.6133634,5.8031426],[-75.6133503,5.803188],[-75.6133565,5.8032355],[-75.6133626,5.8032811],[-75.6133912,5.8033207],[-75.6134064,5.8033405],[-75.613416,5.8033713],[-75.613468,5.8034464],[-75.6134953,5.8034833],[-75.6135642,5.8035544]]},"properties":{"OBJECTID":85,"DIdentif":"05390400185","DEstado":2,"DDisperso":"2","RuleID":1}},{"type":"Feature","id":89,"geometry":{"type":"LineString","coordinates":[[-75.616298,5.7998632],[-75.6163174,5.7997379],[-75.6163038,5.7996735],[-75.6163149,5.7996049],[-75.616336,5.7994987],[-75.6163332,5.7994469],[-75.616313,5.7993523],[-75.6162712,5.7992751],[-75.6162437,5.7992062],[-75.6162468,5.7990921],[-75.6162321,5.7989526],[-75.6162066,5.7988218],[-75.6161679,5.7986941],[-75.6160896,5.7985972],[-75.6159884,5.7985236],[-75.6158906,5.7984459],[-75.6158544,5.7983875],[-75.615806,5.7983013],[-75.615784,5.7981824]]},"properties":{"OBJECTID":89,"DIdentif":"05390400189","DEstado":2,"DDisperso":"2","RuleID":1}},{"type":"Feature","id":90,"geometry":{"type":"LineString","coordinates":[[-75.6168308,5.8008937],[-75.6168907,5.8009969],[-75.6169754,5.8010958],[-75.6170857,5.8012409],[-75.6171834,5.8013969],[-75.6172919,5.8015014],[-75.6173486,5.8015912],[-75.6173833,5.8017161],[-75.6174561,5.8017909],[-75.6175087,5.8018773],[-75.6176004,5.8019678],[-75.6176191,5.8019855],[-75.6176686,5.8020322],[-75.6176686,5.8020322]]},"properties":{"OBJECTID":90,"DIdentif":"05390400190","DEstado":2,"DDisperso":"2","RuleID":1}},{"type":"Feature","id":91,"geometry":{"type":"LineString","coordinates":[[-75.6040704,5.8047746],[-75.6042241,5.8049416],[-75.604283,5.8050049],[-75.6043336,5.8050403],[-75.6044123,5.805155],[-75.6044606,5.8052269],[-75.6045551,5.8053059],[-75.6046666,5.8053643],[-75.6047456,5.80542],[-75.6047696,5.805454],[-75.6048258,5.8055499],[-75.6048436,5.8056207],[-75.6048659,5.8058034],[-75.604827,5.8059175],[-75.6047252,5.8060906],[-75.6046613,5.8062431],[-75.6045636,5.8063987],[-75.6045222,5.8064444],[-75.6044976,5.8064657],[-75.6044203,5.8065127],[-75.6042932,5.8066157],[-75.6042344,5.8066573],[-75.6041561,5.8067349],[-75.6041185,5.8067803],[-75.6040542,5.8068871],[-75.6040272,5.8069448],[-75.6040181,5.8070523],[-75.6040304,5.8071464],[-75.6040364,5.8073155],[-75.6040693,5.8075525],[-75.6040903,5.8076992],[-75.6041273,5.8077721],[-75.6041602,5.8079463],[-75.6041866,5.8080067],[-75.6042578,5.8080803],[-75.6042968,5.808092],[-75.6043977,5.808138],[-75.6045595,5.8081443],[-75.6045971,5.8081408],[-75.6047076,5.808146],[-75.6048119,5.8081251],[-75.6048725,5.8081234],[-75.6050117,5.8081526],[-75.6050616,5.8081805],[-75.6051783,5.8082956],[-75.6051958,5.8083626],[-75.605245,5.8085008]]},"properties":{"OBJECTID":91,"DIdentif":"05390400191","DEstado":2,"DDisperso":"2","RuleID":1}},{"type":"Feature","id":92,"geometry":{"type":"LineString","coordinates":[[-75.6063421,5.8047622],[-75.6064511,5.8050209],[-75.6064543,5.8053274],[-75.6064578,5.8053861],[-75.6064918,5.8054878],[-75.6064952,5.8055885],[-75.6065165,5.8056971],[-75.6065345,5.8059146],[-75.6065486,5.8060276],[-75.6065688,5.8061668],[-75.6065942,5.8062369],[-75.6066234,5.8064533],[-75.6066416,5.8065279],[-75.6066448,5.8066248],[-75.6066284,5.8067158],[-75.6066086,5.8068319],[-75.6065813,5.8069278],[-75.6065878,5.8069996],[-75.6066026,5.8070783],[-75.6066807,5.8072274],[-75.6067164,5.8072642],[-75.6067972,5.8074016],[-75.6068158,5.80748],[-75.606826,5.8075095],[-75.6068881,5.8076906],[-75.606969,5.8078699],[-75.6070249,5.807983],[-75.6071437,5.8080789],[-75.6071996,5.808129],[-75.6073345,5.808193],[-75.6074283,5.8082435],[-75.6075129,5.8082967],[-75.6075475,5.8083431],[-75.6075629,5.8084084],[-75.6075626,5.8084885],[-75.6075476,5.8086156],[-75.607521,5.80874],[-75.6075094,5.808842],[-75.6075728,5.8089124],[-75.6076163,5.8089523],[-75.6077351,5.8090063],[-75.6078163,5.8090217],[-75.6079248,5.8090671],[-75.6079957,5.8091159],[-75.6081094,5.809176],[-75.6081631,5.8091826],[-75.6083199,5.8092159],[-75.6084506,5.80925]]},"properties":{"OBJECTID":92,"DIdentif":"05390400192","DEstado":2,"DDisperso":"2","RuleID":1}},{"type":"Feature","id":93,"geometry":{"type":"LineString","coordinates":[[-75.6017981,5.7979779],[-75.6018565,5.7980443],[-75.6018837,5.7981516],[-75.6019221,5.7982089],[-75.601943,5.7982523],[-75.6019723,5.7982944],[-75.6020056,5.7983948],[-75.6020336,5.7984657],[-75.602059,5.7985238],[-75.6020809,5.7985839],[-75.6021002,5.7986488],[-75.6021351,5.7987259],[-75.6021845,5.7987807],[-75.602256,5.7988325],[-75.6022887,5.7988453],[-75.6023262,5.7988601],[-75.6023931,5.7988935],[-75.6024633,5.7989212],[-75.6025228,5.7989393],[-75.6026036,5.798957],[-75.6026709,5.7989467],[-75.602754,5.7989383],[-75.6028131,5.7989313],[-75.6028954,5.7989062],[-75.6029926,5.7988486],[-75.6030518,5.7988098],[-75.603095,5.7987497],[-75.6031474,5.7986872],[-75.6032042,5.7986393],[-75.6033052,5.7986169],[-75.6034063,5.7986298],[-75.6035361,5.7986578],[-75.603635,5.7986652],[-75.6037118,5.7986423],[-75.6038184,5.7985506],[-75.6038875,5.798489],[-75.6039488,5.7984204],[-75.6040074,5.7983352],[-75.6040952,5.7982409],[-75.6041345,5.7982126],[-75.6042744,5.7981191],[-75.6043295,5.7980732],[-75.6044064,5.7979832],[-75.6044627,5.7979242],[-75.6045357,5.7978308],[-75.6046184,5.7977461],[-75.6046861,5.7976743],[-75.6047016,5.7976331],[-75.6047074,5.7976028],[-75.6047519,5.7975432],[-75.6047736,5.7974792],[-75.604827,5.7974116],[-75.6048866,5.7973408],[-75.6049368,5.7972827],[-75.6049943,5.7972242],[-75.6050529,5.7971507],[-75.6050922,5.7970688]]},"properties":{"OBJECTID":93,"DIdentif":"05390400193","DEstado":2,"DDisperso":"2","RuleID":1}},{"type":"Feature","id":94,"geometry":{"type":"LineString","coordinates":[[-75.60149,5.799779],[-75.6015304,5.7997377],[-75.6015888,5.7997196],[-75.6016302,5.7996968],[-75.6016883,5.7996397],[-75.6017423,5.7995754],[-75.6017733,5.7995328],[-75.6018244,5.7994835],[-75.6018677,5.7994273],[-75.601885,5.799404],[-75.6019309,5.7993958],[-75.6019858,5.7993816],[-75.6020264,5.799344],[-75.6020514,5.7992925],[-75.6020659,5.7992527],[-75.6020769,5.7992168],[-75.602107,5.7991557],[-75.6021787,5.7990087],[-75.6022257,5.798917],[-75.6022887,5.7988453]]},"properties":{"OBJECTID":94,"DIdentif":"05390400194","DEstado":2,"DDisperso":"2","RuleID":1}},{"type":"Feature","id":112,"geometry":{"type":"LineString","coordinates":[[-75.6038892,5.7970244],[-75.6039866,5.7969057],[-75.6040495,5.7968176],[-75.6041742,5.7966704],[-75.6042588,5.796623],[-75.6042826,5.7966003],[-75.6042987,5.7965548],[-75.6043407,5.7965097],[-75.6043862,5.7964765],[-75.6044008,5.796472],[-75.604467,5.7964609],[-75.6045319,5.7964787],[-75.6045494,5.796475],[-75.6045795,5.7964668],[-75.6046761,5.7964354],[-75.6047438,5.796401],[-75.604808,5.7963705],[-75.6048574,5.7963408],[-75.6049119,5.7962988]]},"properties":{"OBJECTID":112,"DIdentif":"053904001112","DEstado":2,"DDisperso":"2","RuleID":1}},{"type":"Feature","id":113,"geometry":{"type":"LineString","coordinates":[[-75.6050479,5.7948614],[-75.6050592,5.7949159],[-75.6050603,5.7949877],[-75.6050374,5.7950805],[-75.6050517,5.7951376],[-75.6051168,5.7952564],[-75.6051506,5.7953027],[-75.6051576,5.7953437],[-75.6051616,5.7953781],[-75.6051535,5.7954505],[-75.6051869,5.7955],[-75.6052344,5.7955338],[-75.6052948,5.795567],[-75.6053591,5.7955855]]},"properties":{"OBJECTID":113,"DIdentif":"053904001113","DEstado":3,"DDisperso":"<Null>","RuleID":5}},{"type":"Feature","id":114,"geometry":{"type":"LineString","coordinates":[[-75.6071284,5.7921607],[-75.6071662,5.7922699],[-75.6072273,5.7923571],[-75.6073365,5.7924663],[-75.607406,5.7925022],[-75.6074655,5.7925434],[-75.6075214,5.7925705],[-75.6076837,5.7926383],[-75.6077317,5.7926763],[-75.6077544,5.7926967],[-75.6077652,5.7927225],[-75.6077612,5.7927529],[-75.6077464,5.7927735],[-75.6077028,5.7928182],[-75.6076745,5.7929016],[-75.6076474,5.7929898],[-75.6076441,5.7931097]]},"properties":{"OBJECTID":114,"DIdentif":"053904001114","DEstado":2,"DDisperso":"2","RuleID":1}},{"type":"Feature","id":188,"geometry":{"type":"LineString","coordinates":[[-75.6110348,5.8040179],[-75.6111101,5.8040194],[-75.6111318,5.8040226],[-75.611173,5.8040302],[-75.6111926,5.8040338],[-75.61123,5.8040411],[-75.6112482,5.8040451],[-75.6112654,5.8040488],[-75.6112801,5.8040523],[-75.6112939,5.8040555],[-75.611306,5.8040582],[-75.6113182,5.8040607],[-75.6113418,5.8040657],[-75.6113529,5.8040677],[-75.6113636,5.80407],[-75.6113741,5.8040725],[-75.6113841,5.8040751],[-75.6113938,5.8040775],[-75.6114031,5.8040798],[-75.611412,5.8040821],[-75.6114222,5.8040846],[-75.6114296,5.8040864],[-75.6114447,5.8040904],[-75.6114529,5.8040927],[-75.6114688,5.8040968],[-75.611476,5.8040986],[-75.6114814,5.8040999],[-75.6114887,5.8041017],[-75.6114959,5.8041032],[-75.611503,5.8041047],[-75.6115094,5.8041061],[-75.6115211,5.8041076],[-75.6115297,5.8041093],[-75.6115373,5.8041109],[-75.6115458,5.8041126],[-75.6115546,5.8041147],[-75.6115651,5.8041174],[-75.6115764,5.8041207],[-75.6115825,5.8041222],[-75.6115887,5.8041238],[-75.6115957,5.8041259],[-75.6116133,5.804131],[-75.6116245,5.8041346],[-75.6116365,5.8041389],[-75.6116495,5.8041432],[-75.611662,5.8041473],[-75.6116742,5.8041514],[-75.6116862,5.8041552],[-75.6116977,5.8041595],[-75.61172,5.8041665],[-75.611748,5.804174],[-75.6117591,5.8041786],[-75.6117643,5.8041862],[-75.611775,5.804191],[-75.6118062,5.8042111],[-75.6118187,5.8042203],[-75.6118283,5.8042276],[-75.6118427,5.8042393],[-75.6118474,5.8042435],[-75.6118547,5.8042499],[-75.6118666,5.8042607],[-75.6118743,5.804268],[-75.6118787,5.8042723],[-75.6118846,5.8042793],[-75.6118904,5.8042869],[-75.6118942,5.8042941],[-75.6118973,5.8042987],[-75.6119021,5.8043044],[-75.6119068,5.8043094],[-75.6119123,5.8043173],[-75.6119177,5.8043244],[-75.6119244,5.8043311],[-75.6119348,5.8043403],[-75.611942,5.8043463],[-75.6119496,5.8043522],[-75.6119573,5.8043572],[-75.6119662,5.8043613],[-75.6119756,5.8043643],[-75.611985,5.8043669],[-75.6119948,5.8043693],[-75.6120022,5.8043709],[-75.6120238,5.804374],[-75.6120311,5.8043743],[-75.6120428,5.8043738],[-75.6120519,5.8043731],[-75.6120617,5.8043721],[-75.6120716,5.8043711],[-75.612082,5.80437],[-75.6120922,5.8043682],[-75.6121019,5.8043655],[-75.6121213,5.8043591],[-75.6121306,5.8043551],[-75.6121397,5.8043514],[-75.612149,5.8043475],[-75.6121586,5.8043431],[-75.6121677,5.8043387],[-75.6121763,5.8043331],[-75.6121845,5.8043277],[-75.6121931,5.8043229],[-75.6122016,5.8043181],[-75.6122165,5.8043087],[-75.6122224,5.8043048],[-75.6122279,5.8043016],[-75.6122327,5.8042989],[-75.6122419,5.8042939],[-75.6122514,5.8042894],[-75.6122608,5.804284],[-75.61227,5.8042797],[-75.6122773,5.8042763],[-75.6122839,5.8042733],[-75.6122915,5.8042702],[-75.6122993,5.8042669],[-75.6123062,5.804264],[-75.6123124,5.8042616],[-75.6123172,5.8042599],[-75.6123243,5.8042574],[-75.6123307,5.8042559],[-75.6123389,5.8042539],[-75.6123493,5.8042527],[-75.6123573,5.804252],[-75.6123703,5.8042518],[-75.6123823,5.8042516],[-75.6123917,5.8042525],[-75.6124017,5.8042536],[-75.6124119,5.8042552],[-75.6124223,5.8042569],[-75.6124304,5.8042585],[-75.6124556,5.8042634],[-75.6124645,5.8042655],[-75.612479,5.8042692],[-75.6124904,5.8042725],[-75.6125007,5.804275],[-75.6125106,5.8042775],[-75.6125201,5.8042806],[-75.6125341,5.8042854],[-75.6125386,5.8042877],[-75.6125579,5.804296],[-75.6125769,5.8043024],[-75.6126195,5.8043165],[-75.6126659,5.8043334],[-75.6127013,5.8043475],[-75.6127278,5.8043587],[-75.6127402,5.8043631],[-75.6127752,5.8043736],[-75.6127964,5.8043797],[-75.6128159,5.8043852],[-75.6128508,5.8043946],[-75.6128681,5.8043999],[-75.6128855,5.8044052],[-75.6129017,5.8044098],[-75.6129161,5.8044137],[-75.6129261,5.8044162],[-75.6129527,5.8044228],[-75.6129634,5.8044251],[-75.6129943,5.8044316],[-75.6130021,5.8044333],[-75.6130146,5.8044355],[-75.6130265,5.8044375],[-75.6130335,5.8044385],[-75.6130426,5.80444],[-75.61306,5.8044426],[-75.6130682,5.8044439],[-75.6130787,5.8044458],[-75.613085,5.8044469],[-75.6130927,5.8044482],[-75.6131006,5.8044492],[-75.6131154,5.804451],[-75.6131224,5.8044517],[-75.6131345,5.8044528],[-75.6131424,5.8044536],[-75.6131529,5.8044545],[-75.6131592,5.8044552],[-75.6131658,5.8044555],[-75.613173,5.8044557],[-75.6131798,5.8044558],[-75.6131944,5.8044564],[-75.6132024,5.8044569],[-75.6132102,5.8044575],[-75.6132263,5.8044586],[-75.6132349,5.8044593],[-75.6132441,5.8044602],[-75.613253,5.8044611],[-75.6132718,5.804463],[-75.6132827,5.8044645],[-75.6133082,5.8044684],[-75.613322,5.8044708],[-75.6133327,5.8044727],[-75.6133511,5.8044761],[-75.6133659,5.8044787],[-75.6133809,5.8044809],[-75.6133964,5.8044831],[-75.6134257,5.8044878],[-75.6134396,5.8044901],[-75.6134527,5.8044924],[-75.6134639,5.8044944],[-75.6134737,5.8044963],[-75.613486,5.8044988],[-75.6135067,5.8045034],[-75.6135335,5.8045074],[-75.6135393,5.8045082],[-75.6135957,5.8045168],[-75.6136156,5.8045193],[-75.6136341,5.8045201],[-75.6136692,5.8045208],[-75.613685,5.8045214],[-75.61371,5.8045209],[-75.6137211,5.8045206],[-75.6137312,5.8045203],[-75.6137402,5.8045201],[-75.6137481,5.80452],[-75.6137604,5.80452],[-75.613767,5.8045201],[-75.6137738,5.8045199],[-75.6137828,5.8045195],[-75.6137919,5.8045191],[-75.6137993,5.8045189],[-75.6138075,5.8045186],[-75.6138212,5.8045179],[-75.6138322,5.8045171],[-75.6138394,5.8045166],[-75.61385,5.8045157],[-75.6138853,5.8045131],[-75.6138933,5.8045126],[-75.613904,5.8045119],[-75.6139141,5.8045111],[-75.6139314,5.8045096],[-75.6139392,5.8045092],[-75.613946,5.8045086],[-75.6139579,5.8045077],[-75.6139642,5.804507],[-75.6141654,5.804454],[-75.6142363,5.8044216],[-75.6142954,5.804397],[-75.6143315,5.8043726],[-75.6143681,5.8043433],[-75.6144305,5.8043048]]},"properties":{"OBJECTID":188,"DIdentif":"053904001188","DEstado":2,"DDisperso":"2","RuleID":1}},{"type":"Feature","id":189,"geometry":{"type":"LineString","coordinates":[[-75.6136441,5.8055315],[-75.6136717,5.8055268],[-75.6136829,5.8055256],[-75.6136936,5.8055241],[-75.6137039,5.805523],[-75.6137136,5.8055223],[-75.6137348,5.8055235],[-75.6137431,5.8055247],[-75.6137553,5.8055267],[-75.6137632,5.8055281],[-75.613769,5.8055296],[-75.6137853,5.8055333],[-75.6138013,5.8055379],[-75.6138103,5.8055412],[-75.6138172,5.8055438],[-75.6138256,5.8055471],[-75.6138342,5.8055502],[-75.6138436,5.8055545],[-75.6138566,5.8055605],[-75.6138738,5.8055687],[-75.6138839,5.8055738],[-75.6138942,5.8055784],[-75.6139057,5.8055847],[-75.6139171,5.805591],[-75.61394,5.8056046],[-75.6139511,5.8056111],[-75.6139629,5.8056179],[-75.6139752,5.8056248],[-75.6139995,5.8056379],[-75.6140108,5.8056437],[-75.6140225,5.80565],[-75.6140338,5.8056566],[-75.6140452,5.8056632],[-75.6140559,5.8056695],[-75.6140665,5.805675],[-75.6140774,5.805681],[-75.6140894,5.8056871],[-75.6141016,5.805693],[-75.6141279,5.8057048],[-75.6141421,5.8057107],[-75.6141565,5.8057164],[-75.6141999,5.8057341],[-75.6142292,5.8057467],[-75.6142448,5.8057532],[-75.6142604,5.8057591],[-75.6142763,5.8057646],[-75.6143262,5.8057814],[-75.6143437,5.8057876],[-75.6143614,5.8057939],[-75.614379,5.8058006],[-75.6143972,5.8058076],[-75.6144339,5.8058226],[-75.6144516,5.8058306],[-75.6144689,5.8058387],[-75.6144851,5.8058475],[-75.6145,5.8058565],[-75.6145274,5.805876],[-75.6145403,5.8058857],[-75.6145527,5.8058948],[-75.6145644,5.8059043],[-75.6145747,5.8059126],[-75.6145848,5.8059214],[-75.6145945,5.8059298],[-75.6146043,5.8059385],[-75.614609,5.8059428],[-75.6146259,5.8059594],[-75.6146353,5.8059692],[-75.614645,5.8059791],[-75.6146521,5.8059871],[-75.614659,5.8059954],[-75.614666,5.806003],[-75.6146715,5.806009],[-75.6146853,5.8060271],[-75.6146889,5.8060333],[-75.6146954,5.8060455],[-75.6146994,5.8060531],[-75.6147052,5.8060642],[-75.6147118,5.8060785],[-75.6147156,5.8060877],[-75.614727,5.8061175],[-75.6147308,5.8061278],[-75.6147356,5.8061415],[-75.6147398,5.806155],[-75.6147433,5.8061683],[-75.6147468,5.8061817],[-75.6147501,5.8061946],[-75.6147554,5.8062179],[-75.6147576,5.8062292],[-75.6147601,5.8062404],[-75.6147622,5.8062501],[-75.6147644,5.8062596],[-75.6147663,5.8062675],[-75.6147681,5.8062751],[-75.6147728,5.8062897],[-75.6147752,5.8062965],[-75.6147773,5.8063028],[-75.6147812,5.8063132],[-75.6147856,5.8063228],[-75.6147884,5.8063285],[-75.6147917,5.8063344],[-75.614796,5.8063413],[-75.6148065,5.8063548],[-75.6148136,5.8063634],[-75.6148221,5.8063725],[-75.614831,5.8063806],[-75.6148494,5.8063973],[-75.6148591,5.8064051],[-75.6148684,5.8064125],[-75.6148773,5.8064196],[-75.6148852,5.8064263],[-75.6148919,5.8064318],[-75.6148976,5.8064368],[-75.6149054,5.8064424],[-75.6149147,5.8064527],[-75.6149396,5.8064778],[-75.6149487,5.8064877],[-75.6149602,5.8065009],[-75.6149715,5.8065146],[-75.6149893,5.8065409],[-75.6149963,5.8065538],[-75.6150095,5.8065797],[-75.6150151,5.8065921],[-75.6150198,5.806604],[-75.6150247,5.8066171],[-75.6150299,5.8066304],[-75.6150352,5.8066442],[-75.61504,5.8066578],[-75.615048,5.8066861],[-75.6150517,5.8067007],[-75.6150543,5.8067149],[-75.615056,5.8067286],[-75.6150569,5.8067411],[-75.6150576,5.8067537],[-75.6150582,5.806766],[-75.6150583,5.8067777],[-75.6150581,5.8068006],[-75.6150579,5.8068112],[-75.6150571,5.8068221],[-75.615057,5.8068333],[-75.615057,5.806844],[-75.6150569,5.8068545],[-75.6150548,5.8068745],[-75.6150532,5.8068837],[-75.6150512,5.8068929],[-75.6150491,5.8069018],[-75.6150468,5.8069115],[-75.6150447,5.8069216],[-75.6150425,5.806932],[-75.6150389,5.806954],[-75.6150377,5.8069655],[-75.6150372,5.806977],[-75.615037,5.8069887],[-75.6150371,5.8070007],[-75.6150374,5.8070125],[-75.6150378,5.807024],[-75.6150387,5.8070449],[-75.6150392,5.8070537],[-75.6150397,5.8070614],[-75.6150401,5.8070678],[-75.6150407,5.8070783],[-75.6150413,5.8070873],[-75.615042,5.8070979],[-75.6150433,5.8071092],[-75.6150441,5.8071156],[-75.615045,5.8071223],[-75.6150462,5.8071297],[-75.6150496,5.8071465],[-75.6150518,5.8071563],[-75.6150546,5.8071663],[-75.6150568,5.8071741],[-75.6150648,5.8071974],[-75.6150677,5.8072047],[-75.6150733,5.8072176],[-75.6150785,5.8072274],[-75.6150882,5.8072439],[-75.6150958,5.8072566],[-75.6151011,5.8072651],[-75.6151091,5.8072773],[-75.6151186,5.8072907],[-75.615129,5.8073054],[-75.6151386,5.8073204],[-75.6151478,5.8073354],[-75.6151577,5.8073509],[-75.6151675,5.8073669],[-75.6151872,5.8074002],[-75.6151971,5.807417],[-75.6152067,5.8074341],[-75.6152153,5.8074504],[-75.6152233,5.8074664],[-75.6152302,5.8074808],[-75.6152363,5.8074946],[-75.6152422,5.8075072],[-75.615248,5.8075229],[-75.6152513,5.807532],[-75.6152546,5.8075406],[-75.6152574,5.8075489],[-75.6152619,5.8075643],[-75.6152636,5.8075717],[-75.6152671,5.8075847],[-75.6152696,5.8075954],[-75.6152869,5.8076664]]},"properties":{"OBJECTID":189,"DIdentif":"053904001189","DEstado":2,"DDisperso":"2","RuleID":1}},{"type":"Feature","id":190,"geometry":{"type":"LineString","coordinates":[[-75.6071201,5.8048663],[-75.6071366,5.8048937],[-75.6071582,5.8049286],[-75.6071687,5.8049472],[-75.6071872,5.8049844],[-75.6071955,5.8050025],[-75.6072026,5.8050189],[-75.6072086,5.8050336],[-75.6072143,5.805047],[-75.6072249,5.8050711],[-75.6072293,5.8050808],[-75.6072363,5.8050972],[-75.6072394,5.8051043],[-75.6072425,5.8051112],[-75.6072459,5.8051192],[-75.607254,5.8051378],[-75.6072581,5.8051476],[-75.6072617,5.8051569],[-75.6072648,5.8051654],[-75.6072679,5.8051737],[-75.6072708,5.8051817],[-75.6072749,5.8051959],[-75.6072761,5.8052023],[-75.6072772,5.8052087],[-75.6072783,5.8052144],[-75.6072793,5.8052235],[-75.607279,5.8052306],[-75.6072777,5.805236],[-75.6072756,5.8052421],[-75.6072729,5.8052501],[-75.6072698,5.8052587],[-75.6072664,5.8052685],[-75.6072638,5.8052775],[-75.6072621,5.8052836],[-75.6072609,5.8052951],[-75.6072616,5.8053061],[-75.6072663,5.80532],[-75.6072689,5.8053253],[-75.6072733,5.8053336],[-75.6072787,5.8053427],[-75.6072846,5.8053527],[-75.607292,5.8053641],[-75.607302,5.8053769],[-75.6073136,5.8053901],[-75.6073255,5.8054033],[-75.6073376,5.8054162],[-75.6073494,5.8054285],[-75.6073609,5.8054398],[-75.6073825,5.8054601],[-75.6073923,5.8054688],[-75.6074022,5.8054769],[-75.6074122,5.805485],[-75.6074219,5.8054928],[-75.6074307,5.8054997],[-75.6074393,5.8055064],[-75.6074458,5.8055112],[-75.607456,5.8055192],[-75.6074703,5.8055304],[-75.607484,5.8055408],[-75.6074904,5.8055453],[-75.6075013,5.8055521],[-75.6075059,5.8055544],[-75.6075117,5.8055572],[-75.6075178,5.80556],[-75.6075244,5.8055636],[-75.607537,5.8055712],[-75.6075441,5.8055749],[-75.6075515,5.8055784],[-75.6075593,5.805582],[-75.6075677,5.8055856],[-75.6075764,5.8055897],[-75.6075855,5.8055941],[-75.6076049,5.8056039],[-75.6076148,5.8056087],[-75.6076239,5.8056132],[-75.6076324,5.8056169],[-75.6076477,5.8056237],[-75.6076568,5.8056284],[-75.6076681,5.8056348],[-75.6076743,5.8056383],[-75.6076823,5.8056428],[-75.6076919,5.8056485],[-75.6077041,5.8056553],[-75.6077106,5.8056592],[-75.6077172,5.8056633],[-75.6077241,5.8056672],[-75.6077384,5.8056755],[-75.6077461,5.8056801],[-75.6077608,5.8056896],[-75.6077676,5.8056936],[-75.6077736,5.8056977],[-75.6077791,5.8057011],[-75.607789,5.8057071],[-75.6077975,5.8057125],[-75.6078044,5.8057174],[-75.6078099,5.805721],[-75.6078171,5.8057255],[-75.6078243,5.8057306],[-75.6078295,5.805734],[-75.6078353,5.8057381],[-75.6079129,5.8057856]]},"properties":{"OBJECTID":190,"DIdentif":"053904001190","DEstado":2,"DDisperso":"2","RuleID":1}},{"type":"Feature","id":191,"geometry":{"type":"LineString","coordinates":[[-75.606588,5.8038897],[-75.6066067,5.8038906],[-75.6066322,5.8038933],[-75.6066485,5.8038942],[-75.6066869,5.8038972],[-75.6067066,5.8038984],[-75.6067448,5.803899],[-75.6067634,5.8038987],[-75.606777,5.8038985],[-75.6067993,5.8038982],[-75.6068287,5.8038977],[-75.6068483,5.803897],[-75.6068735,5.8038955],[-75.60689,5.8038947],[-75.6068996,5.8038942],[-75.6069115,5.8038937],[-75.6069248,5.8038929],[-75.6069326,5.8038922],[-75.6069433,5.8038912],[-75.6069533,5.8038901],[-75.606963,5.8038888],[-75.6069804,5.8038859],[-75.6069884,5.8038843],[-75.6069959,5.8038832],[-75.6070103,5.8038813],[-75.6070173,5.8038805],[-75.6070302,5.8038789],[-75.6070365,5.8038783],[-75.6070486,5.803877],[-75.6070607,5.8038761],[-75.6070672,5.8038755],[-75.607075,5.8038752],[-75.6070916,5.8038741],[-75.607101,5.8038734],[-75.6071115,5.8038729],[-75.6071227,5.8038724],[-75.6071461,5.8038711],[-75.6071584,5.8038705],[-75.6071834,5.8038691],[-75.607196,5.8038685],[-75.6072089,5.8038675],[-75.6072227,5.8038661],[-75.6072367,5.8038643],[-75.6072506,5.8038619],[-75.6072646,5.8038593],[-75.6072775,5.8038567],[-75.6072993,5.8038528],[-75.6073071,5.8038515],[-75.607316,5.8038496],[-75.6073235,5.8038462],[-75.6073465,5.8038365],[-75.6073666,5.8038289],[-75.6073814,5.8038242],[-75.6073929,5.8038204],[-75.6074012,5.8038174],[-75.6074235,5.8038083],[-75.607449,5.8037989],[-75.6074576,5.8037959],[-75.6074688,5.8037918],[-75.6074815,5.8037872],[-75.607489,5.8037846],[-75.6074992,5.803781],[-75.6075119,5.8037773],[-75.6075196,5.8037749],[-75.6075392,5.8037695],[-75.6075493,5.8037676],[-75.6075595,5.8037652],[-75.6075701,5.803763],[-75.6075908,5.8037591],[-75.6076111,5.8037542],[-75.607621,5.8037516],[-75.6076305,5.8037488],[-75.6076492,5.803743],[-75.6076588,5.8037396],[-75.6076682,5.8037362],[-75.6076774,5.8037323],[-75.6076948,5.8037243],[-75.6077028,5.8037208],[-75.6077182,5.803715],[-75.6077257,5.8037124],[-75.6077407,5.8037079],[-75.6077487,5.803706],[-75.6077577,5.8037045],[-75.6077666,5.8037034],[-75.6077861,5.8037017],[-75.6077962,5.8037012],[-75.6078057,5.8037006],[-75.6078147,5.8037],[-75.6078231,5.8036994],[-75.6078315,5.8036988],[-75.6078397,5.8036981],[-75.6078566,5.8036967],[-75.6078648,5.8036957],[-75.6078727,5.8036947],[-75.6078804,5.8036939],[-75.6078945,5.8036922],[-75.6079059,5.8036907],[-75.6079109,5.8036899],[-75.607921,5.8036886],[-75.6079305,5.8036866],[-75.6079406,5.803685],[-75.6079521,5.8036823],[-75.6079587,5.8036805],[-75.6079656,5.8036783],[-75.607973,5.8036761],[-75.6079803,5.8036737],[-75.6079875,5.8036713],[-75.6079946,5.8036686],[-75.6080019,5.8036658],[-75.6080177,5.8036597],[-75.6080256,5.8036564],[-75.6080337,5.8036529],[-75.6080415,5.8036495],[-75.6080586,5.8036417],[-75.6080677,5.8036374],[-75.6080863,5.8036278],[-75.6080946,5.8036234],[-75.6081021,5.8036192],[-75.6081087,5.8036154],[-75.6081177,5.80361],[-75.6081252,5.8036051],[-75.6081311,5.8036009],[-75.6081361,5.8035969],[-75.6081412,5.8035924],[-75.6081456,5.803589],[-75.6081508,5.8035851],[-75.6081579,5.8035777]]},"properties":{"OBJECTID":191,"DIdentif":"053904001191","DEstado":2,"DDisperso":"2","RuleID":1}},{"type":"Feature","id":194,"geometry":{"type":"LineString","coordinates":[[-75.6087681,5.7959627],[-75.6087994,5.7959452],[-75.6088283,5.7959339],[-75.608846,5.7959279],[-75.608864,5.7959222],[-75.6088821,5.7959171],[-75.6089151,5.7959113],[-75.6089295,5.7959097],[-75.6089551,5.7959067],[-75.608966,5.795906],[-75.6089763,5.7959054],[-75.6089857,5.7959049],[-75.608995,5.7959044],[-75.6090041,5.7959044],[-75.6090217,5.7959049],[-75.6090292,5.7959056],[-75.6090357,5.7959064],[-75.609043,5.7959076],[-75.6090516,5.7959093],[-75.60906,5.7959109],[-75.6090697,5.7959126],[-75.6090756,5.7959134],[-75.609089,5.7959155],[-75.6090963,5.7959167],[-75.6091191,5.7959206],[-75.6091276,5.795922],[-75.609137,5.7959233],[-75.609147,5.7959249],[-75.6091578,5.7959261],[-75.6091696,5.7959279],[-75.6091815,5.7959292],[-75.6092054,5.7959307],[-75.609217,5.7959309],[-75.6092284,5.795931],[-75.6092509,5.7959307],[-75.6092622,5.7959306],[-75.6092854,5.7959301],[-75.6092964,5.7959294],[-75.6093069,5.7959287],[-75.6093272,5.7959273],[-75.6093371,5.7959265],[-75.609355,5.7959242],[-75.6093639,5.7959229],[-75.6093799,5.7959201],[-75.6093876,5.7959188],[-75.6094038,5.7959157],[-75.6094123,5.7959141],[-75.6094312,5.7959101],[-75.6094411,5.7959074],[-75.6094512,5.7959046],[-75.6094703,5.795899],[-75.6094794,5.7958963],[-75.6094951,5.7958924],[-75.6095077,5.7958894],[-75.6095604,5.795873],[-75.6095975,5.7958623],[-75.6096156,5.7958574],[-75.6096329,5.7958537],[-75.6096504,5.7958509],[-75.6096821,5.7958459],[-75.6096964,5.7958442],[-75.6097101,5.7958426],[-75.6097324,5.7958394],[-75.609747,5.7958375],[-75.6097577,5.7958366],[-75.6097766,5.7958357],[-75.6098015,5.7958355],[-75.6098073,5.7958354],[-75.6098245,5.7958357],[-75.609839,5.7958374],[-75.6098496,5.7958387],[-75.6098567,5.7958395],[-75.6098761,5.7958424],[-75.6098879,5.7958449],[-75.6099481,5.7958612],[-75.6099657,5.7958671],[-75.6099876,5.7958752],[-75.6100007,5.7958808],[-75.6100095,5.7958845],[-75.6100391,5.795898],[-75.6100599,5.795907],[-75.6100972,5.7959266],[-75.6101103,5.7959351],[-75.6101353,5.7959528],[-75.6101469,5.7959612],[-75.6101702,5.7959801],[-75.6101832,5.7959907],[-75.610196,5.7960009],[-75.610219,5.7960173],[-75.6102283,5.7960208],[-75.6102705,5.7960263],[-75.6103048,5.7960235],[-75.610314,5.7960234],[-75.6103274,5.7960238],[-75.6103775,5.7960316],[-75.6103946,5.7960356],[-75.6104111,5.7960388],[-75.6104259,5.7960401],[-75.6104389,5.7960427],[-75.6104502,5.796045],[-75.610466,5.7960469],[-75.610478,5.7960508],[-75.6104893,5.7960525],[-75.6105869,5.7960533],[-75.6106048,5.7960529],[-75.6106538,5.7960499],[-75.6106666,5.7960479],[-75.6106772,5.7960455],[-75.6106865,5.796042],[-75.6107033,5.7960355],[-75.610712,5.7960317],[-75.610721,5.7960275],[-75.6107393,5.7960187],[-75.6107486,5.7960141],[-75.6107589,5.7960096],[-75.6107698,5.7960041],[-75.6107805,5.7959992],[-75.6108034,5.7959905],[-75.6108147,5.7959862],[-75.6108256,5.7959818],[-75.6108441,5.7959737],[-75.6108517,5.7959703],[-75.6108584,5.7959672],[-75.6108718,5.795961],[-75.6108781,5.7959579],[-75.6108844,5.7959549],[-75.6108902,5.7959523],[-75.6108995,5.7959483],[-75.6109066,5.7959472],[-75.610914,5.7959461],[-75.6109225,5.7959431],[-75.6109337,5.7959395],[-75.6109395,5.7959375],[-75.6109456,5.7959354],[-75.6109515,5.7959336],[-75.6109635,5.7959309],[-75.6109748,5.7959274],[-75.6109865,5.7959239],[-75.610992,5.7959222],[-75.6110035,5.7959185],[-75.6110175,5.7959144],[-75.6110253,5.7959121],[-75.6110337,5.7959092],[-75.6110427,5.7959057],[-75.6110519,5.7959021],[-75.6110608,5.7958985],[-75.6110701,5.7958947],[-75.6110793,5.7958909],[-75.6110968,5.7958827],[-75.6111048,5.7958784],[-75.6111199,5.7958683],[-75.611133,5.7958577],[-75.6111457,5.795846],[-75.6111511,5.7958417],[-75.6111573,5.7958369],[-75.6111642,5.79583],[-75.6111696,5.7958243],[-75.6111751,5.7958183],[-75.6111798,5.7958133],[-75.6111946,5.7957966],[-75.6112,5.7957902],[-75.6112103,5.7957762],[-75.6112182,5.7957623],[-75.6112277,5.7957414],[-75.6112316,5.7957295],[-75.6112343,5.7957219],[-75.6112366,5.7957141],[-75.6112376,5.795698],[-75.6112397,5.7956821],[-75.6112426,5.7956357],[-75.6112451,5.7955976],[-75.6112471,5.7955355],[-75.6112485,5.7954682],[-75.6112518,5.795434],[-75.6112554,5.7954103],[-75.611258,5.7953963],[-75.6112617,5.7953777],[-75.611274,5.7953248],[-75.6112835,5.7952936],[-75.6112895,5.7952762],[-75.6112935,5.7952665],[-75.6113074,5.795241],[-75.6113142,5.7952306],[-75.611329,5.7952098],[-75.6113367,5.7951999],[-75.6113528,5.7951798],[-75.6113702,5.7951608],[-75.6113797,5.7951517],[-75.6114098,5.7951273],[-75.6114206,5.7951198],[-75.611443,5.7951043],[-75.6114655,5.795089],[-75.6114772,5.7950816],[-75.6115106,5.7950609],[-75.6115244,5.795052],[-75.6115324,5.7950476],[-75.6115399,5.7950435],[-75.6115515,5.7950368],[-75.6115584,5.7950325],[-75.611566,5.7950283],[-75.6115805,5.7950198],[-75.6115867,5.7950154],[-75.6115977,5.7950079],[-75.6116077,5.7950013],[-75.6116181,5.7949947],[-75.6116236,5.7949908],[-75.6116293,5.7949867],[-75.6116408,5.7949777],[-75.6116458,5.7949737],[-75.6116525,5.7949668],[-75.6116579,5.7949614],[-75.6116752,5.7949492],[-75.6116879,5.7949386],[-75.6117086,5.794921],[-75.611717,5.7949142],[-75.6117476,5.7948856],[-75.611766,5.794867],[-75.6117741,5.7948576],[-75.6117959,5.7948346],[-75.6118102,5.7948193],[-75.6118456,5.7947826],[-75.611852,5.7947758],[-75.6118712,5.7947555],[-75.6118776,5.7947487],[-75.6118861,5.7947399],[-75.6119107,5.7947133],[-75.6119178,5.7947052],[-75.6119275,5.7946935],[-75.6119418,5.794677],[-75.6119479,5.7946706],[-75.611954,5.7946638],[-75.6119608,5.7946568],[-75.6119694,5.7946483],[-75.6119743,5.7946432],[-75.6119797,5.794638],[-75.6120048,5.7946127],[-75.6120207,5.7945967],[-75.6120287,5.7945884],[-75.6120369,5.7945799],[-75.6120449,5.7945715],[-75.6120525,5.7945632],[-75.6120671,5.7945466],[-75.612081,5.7945302],[-75.612088,5.7945221],[-75.6121036,5.7945038],[-75.6121117,5.7944943],[-75.612129,5.7944747],[-75.612138,5.7944644],[-75.6121469,5.7944536],[-75.6121633,5.7944319],[-75.6121707,5.794421],[-75.6121775,5.794411],[-75.6121903,5.7943913],[-75.6122057,5.794369],[-75.6122124,5.7943589],[-75.6122187,5.7943533],[-75.6122212,5.794346],[-75.612224,5.7943375],[-75.6122339,5.794316],[-75.6122398,5.7943024],[-75.6122451,5.7942911],[-75.6122617,5.7942545],[-75.612284,5.7942112],[-75.6122985,5.794178],[-75.6123024,5.7941683],[-75.6123208,5.7941287],[-75.6123252,5.7941217],[-75.6123297,5.7941147],[-75.6123344,5.7941071],[-75.6123445,5.7940914],[-75.6123499,5.7940834],[-75.6123614,5.7940674],[-75.6123674,5.7940595],[-75.6123718,5.7940537],[-75.6123845,5.7940378],[-75.6123999,5.7940189],[-75.6124122,5.7940041],[-75.6124208,5.7939938],[-75.612426,5.7939878],[-75.6124327,5.7939797],[-75.6124399,5.793971],[-75.6124503,5.7939586],[-75.6124585,5.7939485],[-75.6124646,5.7939411],[-75.6124735,5.7939307],[-75.6124811,5.7939225],[-75.6124861,5.7939173],[-75.6125004,5.7939024],[-75.6125155,5.7938872],[-75.612524,5.7938782],[-75.6125325,5.7938692],[-75.61255,5.7938494],[-75.6125557,5.7938426],[-75.6125586,5.7938393],[-75.6125845,5.7938078],[-75.6125926,5.7937973],[-75.6126076,5.7937766],[-75.6126143,5.7937662],[-75.6126204,5.7937558],[-75.6126301,5.7937358],[-75.6126409,5.7937084],[-75.6126476,5.793691],[-75.6126507,5.7936821],[-75.6126567,5.7936635],[-75.6126598,5.7936542],[-75.6126625,5.7936453],[-75.6126678,5.7936302],[-75.6126703,5.7936234],[-75.6126726,5.7936174],[-75.6126764,5.7936072],[-75.6126794,5.7936006],[-75.6127146,5.7935232],[-75.6127488,5.7935139],[-75.6128973,5.7934787],[-75.6129652,5.7934646],[-75.6131158,5.7934734],[-75.6133498,5.7934917],[-75.6134327,5.7934772],[-75.6134593,5.793464],[-75.6134734,5.7934579],[-75.6135004,5.7934458],[-75.6135146,5.7934394],[-75.6135432,5.7934261],[-75.6135697,5.7934127],[-75.6135876,5.7934032],[-75.613612,5.7933879],[-75.6136228,5.7933794],[-75.6136326,5.7933709],[-75.6136422,5.7933622],[-75.6136594,5.7933451],[-75.6136651,5.793339],[-75.6136739,5.7933291],[-75.6136805,5.7933214],[-75.6136863,5.7933144],[-75.6136919,5.7933073],[-75.6136973,5.7933003],[-75.6137024,5.7932938],[-75.6137071,5.7932876],[-75.6137167,5.7932754],[-75.6137214,5.7932694],[-75.6137262,5.7932632],[-75.6137307,5.7932575],[-75.613735,5.7932522],[-75.6137393,5.793247],[-75.6137504,5.7932332],[-75.613756,5.7932264],[-75.6137609,5.7932203],[-75.6137666,5.7932136],[-75.6137739,5.7932049],[-75.6137774,5.7932008],[-75.613783,5.7931942],[-75.6137901,5.7931862],[-75.6137978,5.793178],[-75.6138025,5.7931735],[-75.6138085,5.7931675],[-75.6138181,5.7931591],[-75.6138247,5.7931541],[-75.6138318,5.7931491],[-75.6138484,5.7931382],[-75.6138809,5.7931197],[-75.6138896,5.793115],[-75.6139127,5.793102],[-75.6139478,5.7930813],[-75.6139685,5.793069],[-75.6139789,5.7930623],[-75.613989,5.7930551],[-75.6139991,5.7930477],[-75.6140192,5.7930322],[-75.6140273,5.7930258],[-75.614092,5.7929772],[-75.6141309,5.7929574],[-75.6141446,5.7929504],[-75.6141587,5.7929432],[-75.6141724,5.7929369],[-75.6141866,5.7929305],[-75.6142143,5.7929192],[-75.6142276,5.7929143],[-75.6142521,5.7929068],[-75.6142639,5.7929044],[-75.614287,5.7929006],[-75.6142983,5.7928991],[-75.6143092,5.7928979],[-75.6143202,5.7928972],[-75.6143408,5.7928963],[-75.6143493,5.7928959],[-75.6143563,5.7928955],[-75.6143644,5.7928952],[-75.6144725,5.7928812]]},"properties":{"OBJECTID":194,"DIdentif":"053904001194","DEstado":2,"DDisperso":"2","RuleID":1}},{"type":"Feature","id":195,"geometry":{"type":"LineString","coordinates":[[-75.6122093,5.7956022],[-75.6122245,5.7955694],[-75.6122315,5.7955522],[-75.6122458,5.7955162],[-75.6122507,5.7955052],[-75.6122612,5.7954845],[-75.6122775,5.7954527],[-75.6122828,5.795443],[-75.6122936,5.7954243],[-75.6122999,5.7954132],[-75.612305,5.7954045],[-75.6123102,5.7953959],[-75.6123208,5.7953787],[-75.6123254,5.7953708],[-75.6123393,5.795349],[-75.6123441,5.7953413],[-75.6123489,5.795333],[-75.6123534,5.7953248],[-75.6123622,5.7953085],[-75.6123742,5.7952847],[-75.6123779,5.7952774],[-75.6123818,5.7952692],[-75.6123903,5.7952488],[-75.6123939,5.7952383],[-75.6123975,5.7952278],[-75.612404,5.7952086],[-75.6124116,5.7951833],[-75.6124182,5.7951603],[-75.6124219,5.7951481],[-75.6124258,5.7951353],[-75.6124338,5.7951106],[-75.6124416,5.7950884],[-75.6124505,5.7950624],[-75.612453,5.7950549],[-75.6124561,5.795049],[-75.6124585,5.7950353],[-75.6124601,5.7950262],[-75.6124618,5.7950171],[-75.6124638,5.7950079],[-75.6124658,5.7950009],[-75.6124731,5.7949771],[-75.612477,5.7949659],[-75.6124852,5.7949408],[-75.6124995,5.7948936],[-75.6125019,5.7948853],[-75.6125131,5.7948492],[-75.6125207,5.7948259],[-75.6125249,5.7948138],[-75.6125324,5.7947907],[-75.6125357,5.7947796],[-75.6125447,5.7947481],[-75.6125472,5.7947385],[-75.6125492,5.7947316],[-75.6125523,5.7947201],[-75.6125567,5.7947042],[-75.6125605,5.7946911],[-75.6125623,5.7946849],[-75.6125673,5.7946675],[-75.6125759,5.794636],[-75.6125809,5.794619],[-75.6125829,5.7946121],[-75.6125893,5.7945915],[-75.6125913,5.7945845],[-75.6125965,5.794566],[-75.612599,5.7945567],[-75.6126016,5.7945456],[-75.6126045,5.7945308],[-75.6126067,5.7945166],[-75.6126069,5.7945085],[-75.6126056,5.7944969],[-75.6126045,5.7944882],[-75.6126031,5.7944759],[-75.6126024,5.7944672],[-75.6126018,5.7944552],[-75.6126011,5.7944465],[-75.6126006,5.7944412],[-75.6125989,5.7944252],[-75.6125968,5.7944075],[-75.61259,5.7943797],[-75.6125862,5.7943697],[-75.6125636,5.7943207],[-75.6125451,5.7942799],[-75.6125392,5.7942657],[-75.6125333,5.7942515],[-75.6125229,5.794223],[-75.6125163,5.7941953],[-75.6125152,5.7941831],[-75.6125151,5.7941717],[-75.6125177,5.7941527],[-75.6125198,5.7941444],[-75.6125251,5.7941274],[-75.6125279,5.7941189],[-75.6125365,5.794092],[-75.6125391,5.7940828],[-75.6125434,5.7940646],[-75.6125449,5.7940556],[-75.6125462,5.7940466],[-75.6125487,5.7940284],[-75.6125498,5.7940196],[-75.6125509,5.7940124],[-75.6125516,5.7940032],[-75.6125557,5.7938426]]},"properties":{"OBJECTID":195,"DIdentif":"053904001195","DEstado":2,"DDisperso":"2","RuleID":1}},{"type":"Feature","id":196,"geometry":{"type":"LineString","coordinates":[[-75.603352,5.8005777],[-75.6033844,5.8005838],[-75.603399,5.8005874],[-75.6034284,5.8005965],[-75.6034695,5.8006163],[-75.603497,5.8006331],[-75.6035097,5.8006416],[-75.6035286,5.8006556],[-75.6035595,5.8006791],[-75.6035798,5.8006945],[-75.6036232,5.800727],[-75.6036341,5.8007352],[-75.6036547,5.8007496],[-75.6036756,5.8007617],[-75.6036993,5.8007718],[-75.6037128,5.8007763],[-75.6037557,5.8007888],[-75.6038086,5.8008086],[-75.6038199,5.8008158],[-75.6038515,5.8008409],[-75.6038731,5.8008607],[-75.6038912,5.8008792],[-75.6039059,5.8008964],[-75.6039111,5.8009055],[-75.6039194,5.8009254],[-75.6039221,5.8009335],[-75.6039306,5.8009609],[-75.6039333,5.8009824],[-75.6039338,5.8009913],[-75.6039345,5.8010055],[-75.6039343,5.8010197],[-75.6039352,5.8010291],[-75.6039398,5.8010466],[-75.6039438,5.8010558],[-75.6039533,5.801071],[-75.6039588,5.8010759],[-75.6039879,5.8010874],[-75.6040069,5.8010928],[-75.6040129,5.8010942],[-75.6040524,5.8010967],[-75.6040674,5.8010962],[-75.6041272,5.801096],[-75.6041825,5.8010955],[-75.604237,5.8010943],[-75.6042689,5.8010945],[-75.6043157,5.8010954],[-75.6043306,5.8010954],[-75.6043569,5.8010941],[-75.6043975,5.8010914],[-75.6044549,5.8010984],[-75.6044794,5.801104],[-75.6045113,5.801112],[-75.6045424,5.8011203],[-75.6045698,5.801129],[-75.6046004,5.8011421],[-75.6046181,5.8011488],[-75.6046446,5.8011583],[-75.6046656,5.8011651],[-75.6046765,5.8011682],[-75.6046987,5.8011746],[-75.6047068,5.8011768],[-75.6047301,5.8011831],[-75.60474,5.8011858],[-75.6047722,5.8011946],[-75.6047948,5.8012013],[-75.6048192,5.8012085],[-75.6048323,5.8012123],[-75.6048565,5.801219],[-75.6048682,5.8012224],[-75.6048903,5.8012287],[-75.6049113,5.801235],[-75.6049209,5.8012379],[-75.6049392,5.801244],[-75.6049481,5.8012473],[-75.6049799,5.8012595],[-75.6049875,5.8012627],[-75.6049947,5.801266],[-75.60501,5.8012733],[-75.6050255,5.801281],[-75.6050434,5.8012882],[-75.6050537,5.801292],[-75.6050648,5.801296],[-75.605102,5.8013086],[-75.6051289,5.8013166],[-75.6051716,5.8013276],[-75.605215,5.8013355],[-75.6052415,5.8013407],[-75.6052658,5.801345],[-75.6052743,5.8013459],[-75.6052866,5.8013451],[-75.6053743,5.8013427],[-75.605418,5.8013399],[-75.605437,5.8013375],[-75.6054716,5.8013329],[-75.6055012,5.8013284],[-75.6055153,5.8013264],[-75.6055399,5.8013223],[-75.605551,5.8013204],[-75.6055882,5.8013133],[-75.6055971,5.8013118],[-75.6056199,5.8013085],[-75.6056347,5.8013072],[-75.6056491,5.8013065],[-75.6056566,5.8013065],[-75.6056719,5.8013075],[-75.6056803,5.8013089],[-75.6057139,5.801317],[-75.6057208,5.8013188],[-75.6057321,5.8013218],[-75.6057392,5.8013237],[-75.6057472,5.8013266],[-75.6057553,5.8013321],[-75.6057612,5.8013358],[-75.6057772,5.801345],[-75.6057828,5.8013496],[-75.6057878,5.8013607]]},"properties":{"OBJECTID":196,"DIdentif":"053904001196","DEstado":2,"DDisperso":"2","RuleID":1}},{"type":"Feature","id":197,"geometry":{"type":"LineString","coordinates":[[-75.5996985,5.7930575],[-75.5997166,5.7930502],[-75.5997445,5.7930411],[-75.5997717,5.793035],[-75.5997985,5.7930295],[-75.5998198,5.7930254],[-75.5998569,5.7930183],[-75.5998892,5.7930138],[-75.599923,5.7930081],[-75.5999385,5.7930046],[-75.5999541,5.7930003],[-75.5999699,5.7929967],[-75.5999944,5.7929923],[-75.6000127,5.7929883],[-75.6000495,5.7929815],[-75.6000754,5.7929778],[-75.6000911,5.7929761],[-75.600111,5.7929742],[-75.6001232,5.7929739],[-75.6001351,5.7929738],[-75.6001479,5.7929739],[-75.6001617,5.7929742],[-75.6001821,5.7929755],[-75.6001943,5.7929772],[-75.6002124,5.7929813],[-75.6002254,5.7929843],[-75.6002488,5.7929882],[-75.6002712,5.792988],[-75.6002929,5.7929851],[-75.6003467,5.7929704],[-75.600365,5.7929605],[-75.6003751,5.7929515],[-75.6003844,5.7929454],[-75.600393,5.7929369],[-75.6004037,5.7929273],[-75.6004231,5.7929136],[-75.6004514,5.7928938],[-75.6004694,5.7928825],[-75.6004872,5.7928731],[-75.600524,5.7928603],[-75.6005443,5.7928574],[-75.6005757,5.7928579],[-75.6005965,5.7928603],[-75.6006363,5.7928684],[-75.6006558,5.7928729],[-75.6006752,5.7928778],[-75.6007029,5.7928854],[-75.6007278,5.7928947],[-75.6007423,5.7929003],[-75.6007707,5.7929119],[-75.6007903,5.7929216],[-75.6008023,5.7929281],[-75.6008164,5.7929362],[-75.6008289,5.7929447],[-75.6008622,5.7929708],[-75.6008679,5.7929754],[-75.600897,5.7930007],[-75.6009212,5.7930217],[-75.6009409,5.7930386],[-75.6009534,5.7930496],[-75.6009657,5.7930613],[-75.6009782,5.7930731],[-75.600991,5.7930848],[-75.6010033,5.793096],[-75.6010155,5.7931074],[-75.6010266,5.7931184],[-75.6010361,5.7931275],[-75.60105,5.793141],[-75.6010582,5.793149],[-75.6010734,5.7931625],[-75.6010878,5.7931743],[-75.6010947,5.7931802],[-75.6010971,5.7931822],[-75.6011025,5.7931864],[-75.6011096,5.7931912],[-75.6011202,5.7931992],[-75.6011263,5.7932038],[-75.6011392,5.7932136],[-75.6011586,5.7932289],[-75.6011735,5.7932386],[-75.6011881,5.7932473],[-75.6012252,5.7932658],[-75.6012416,5.7932724],[-75.6012551,5.7932781],[-75.6012729,5.7932853],[-75.6012892,5.7932915],[-75.6013027,5.7932958],[-75.6013118,5.7932984],[-75.6013249,5.7933022],[-75.6013409,5.7933066],[-75.6013573,5.793311],[-75.6013766,5.7933154],[-75.6013936,5.7933187],[-75.6014142,5.7933223],[-75.601434,5.7933254],[-75.601453,5.7933269],[-75.6014905,5.7933271],[-75.6015088,5.7933261],[-75.6015336,5.7933242],[-75.6015494,5.793322],[-75.6015781,5.7933153],[-75.6015918,5.7933106],[-75.6016054,5.7933047],[-75.6016204,5.7932924],[-75.6016241,5.793287],[-75.6016332,5.7932746],[-75.6016462,5.7932531],[-75.6016522,5.7932378],[-75.6016577,5.793213],[-75.6016599,5.793198],[-75.6016625,5.7931852],[-75.6016647,5.793172],[-75.6016701,5.7931414],[-75.6016742,5.7931267],[-75.6016787,5.7931106],[-75.6016838,5.7930924],[-75.601693,5.7930648],[-75.6017009,5.7930479],[-75.6017232,5.7930164],[-75.6017376,5.7930013],[-75.6017639,5.7929796],[-75.6017848,5.7929665],[-75.6018044,5.7929544],[-75.6018303,5.7929406],[-75.6018519,5.7929282],[-75.6018804,5.7929065],[-75.6018906,5.7929017],[-75.6019055,5.792896],[-75.6019492,5.7928756],[-75.6019761,5.7928638],[-75.6020191,5.7928447],[-75.6020451,5.7928338],[-75.6020777,5.7928196],[-75.6020962,5.792812],[-75.6021298,5.7927977],[-75.6021585,5.7927844],[-75.6021715,5.7927777],[-75.6021911,5.7927666],[-75.6022053,5.7927584],[-75.6022289,5.7927432],[-75.6022471,5.7927309],[-75.6022828,5.7927034],[-75.6023087,5.7926802],[-75.6023326,5.7926581],[-75.6023468,5.7926441],[-75.6023748,5.792615],[-75.602404,5.7925807],[-75.6024175,5.7925622],[-75.6024341,5.7925364],[-75.6024434,5.7925196],[-75.602451,5.7925018],[-75.6024605,5.7924741],[-75.6024658,5.7924556],[-75.6024749,5.7924178],[-75.6024776,5.7923969],[-75.6024791,5.7923748],[-75.6024807,5.7923544],[-75.6024828,5.7923267],[-75.6024841,5.7923096],[-75.6024849,5.7922934],[-75.6024855,5.7922836],[-75.6025105,5.7921519]]},"properties":{"OBJECTID":197,"DIdentif":"053904001197","DEstado":2,"DDisperso":"2","RuleID":1}},{"type":"Feature","id":201,"geometry":{"type":"LineString","coordinates":[[-75.6034595,5.8043685],[-75.6034515,5.8043826],[-75.6034471,5.8043888],[-75.6034289,5.8044169],[-75.6034229,5.8044298],[-75.6034186,5.8044411],[-75.6034127,5.8044606],[-75.6034078,5.8044762],[-75.6034029,5.8045088],[-75.6034057,5.8045382],[-75.6034098,5.8045665],[-75.6034132,5.8045876],[-75.6034156,5.8046052],[-75.6034179,5.8046281],[-75.6034189,5.8046413],[-75.6034199,5.8046569],[-75.6034208,5.8046714],[-75.603421,5.8046859],[-75.6034198,5.8046983],[-75.6034174,5.8047094],[-75.6034141,5.8047216],[-75.6034094,5.8047352],[-75.6034038,5.8047503],[-75.6033964,5.8047662],[-75.6033858,5.804783],[-75.603374,5.8048012],[-75.6033607,5.8048194],[-75.6033467,5.8048364],[-75.6033248,5.8048585],[-75.6033126,5.8048705],[-75.6033077,5.8048759],[-75.6033022,5.8048798],[-75.6032869,5.8048913],[-75.6032596,5.8049121],[-75.6032217,5.804941],[-75.6031851,5.8049632],[-75.6031562,5.8049821],[-75.603126,5.8050038],[-75.6030991,5.8050271],[-75.6030491,5.8050775],[-75.6030261,5.8051049],[-75.6030054,5.8051336],[-75.6029888,5.8051646],[-75.6029775,5.8051963],[-75.6029667,5.8052365],[-75.6029619,5.8052565],[-75.602959,5.8052732],[-75.6029584,5.8052899],[-75.6029585,5.8053096],[-75.6029655,5.8053429],[-75.602975,5.8053649],[-75.6029928,5.8053929],[-75.6030083,5.8054086],[-75.603026,5.8054255],[-75.6030437,5.8054413],[-75.6030593,5.8054535],[-75.6030812,5.8054651],[-75.6030979,5.8054719],[-75.6031322,5.8054855],[-75.6031465,5.805491],[-75.6031614,5.8054974],[-75.6031679,5.8055012],[-75.6031764,5.8055067],[-75.6031838,5.8055119],[-75.6031933,5.8055184],[-75.6032041,5.8055276],[-75.6032134,5.8055373],[-75.6032211,5.80555],[-75.6032242,5.8055573],[-75.6032302,5.8055759],[-75.6032329,5.8055931],[-75.6032355,5.8056336],[-75.603236,5.8056633],[-75.6032363,5.8056804],[-75.6032371,5.8056986],[-75.6032369,5.8057082],[-75.6032381,5.8057295],[-75.6032402,5.8057602],[-75.6032402,5.805787],[-75.6032381,5.8058124],[-75.6032372,5.8058175],[-75.603238,5.8058356],[-75.6032381,5.8058522],[-75.6032389,5.8058714],[-75.6032398,5.8058892],[-75.6032404,5.8059071],[-75.6032417,5.8059412],[-75.6032406,5.8059806],[-75.6032406,5.8060309],[-75.6032416,5.8060612],[-75.603243,5.8060834],[-75.6032449,5.8061075],[-75.603248,5.8061413],[-75.6032561,5.8061833],[-75.603264,5.8062018],[-75.6032695,5.8062117],[-75.6032815,5.8062297],[-75.603291,5.8062453],[-75.6032995,5.8062638],[-75.6033055,5.8062834],[-75.6033148,5.8063295],[-75.6033189,5.8063662],[-75.6033222,5.8063926],[-75.6033264,5.8064302],[-75.6033283,5.8064515],[-75.603329,5.8064716],[-75.6033293,5.8064786],[-75.6033294,5.8064882],[-75.6033298,5.8064955],[-75.6033301,5.806503],[-75.6033297,5.8065094],[-75.6033285,5.8065242],[-75.6033269,5.8065364],[-75.6033258,5.8065443],[-75.6033239,5.8065568],[-75.603321,5.8065666],[-75.603317,5.8065787],[-75.6033122,5.8065916],[-75.6033098,5.8065986],[-75.6033033,5.8066195],[-75.6032988,5.8066338],[-75.603293,5.806653],[-75.6032916,5.8066595],[-75.6032936,5.8066759],[-75.6032877,5.8067032],[-75.6032808,5.8067309],[-75.6032761,5.8067458],[-75.6032661,5.8067795],[-75.6032448,5.8068634],[-75.6032345,5.8069135],[-75.6032299,5.806938],[-75.6032271,5.8069574],[-75.6032255,5.8069782],[-75.6032271,5.8070225],[-75.6032335,5.8070631],[-75.6032373,5.8070828],[-75.6032408,5.8071005],[-75.6032479,5.8071279],[-75.6032581,5.8071602],[-75.6032638,5.8071775],[-75.6032699,5.807194],[-75.6032744,5.8072056],[-75.6032823,5.8072239],[-75.6032952,5.8072525],[-75.6033048,5.8072728],[-75.6033236,5.8073129],[-75.6033285,5.807321],[-75.6033417,5.8073381],[-75.6033887,5.8074206],[-75.603412,5.8074707],[-75.603434,5.8075225],[-75.6034536,5.8075731],[-75.6034783,5.8076628],[-75.6034869,5.807722],[-75.6034899,5.8077536],[-75.603492,5.8077874],[-75.6034933,5.8078419],[-75.6034937,5.8078646],[-75.6034941,5.8078841],[-75.6034948,5.8079019],[-75.6034961,5.8079288],[-75.6034972,5.8079473],[-75.6035003,5.8079848],[-75.6035022,5.8080033],[-75.6035044,5.8080216],[-75.6035064,5.8080372],[-75.6035116,5.8080645],[-75.6035183,5.8080855],[-75.6035248,5.8081033],[-75.6035379,5.8081354],[-75.6035538,5.8081683],[-75.6035609,5.8081807],[-75.6035703,5.8081961],[-75.6035794,5.80821],[-75.6035884,5.8082226],[-75.6035981,5.8082348],[-75.6036092,5.8082482],[-75.6036204,5.8082618],[-75.6036447,5.8082901],[-75.6036653,5.8083147],[-75.6036749,5.8083273],[-75.6036841,5.8083415],[-75.603696,5.8083625],[-75.6037041,5.8083782],[-75.6037269,5.8084295],[-75.6037343,5.8084483],[-75.6037406,5.8084668],[-75.6037525,5.8085051],[-75.6037566,5.8085233],[-75.6037612,5.80855],[-75.6037596,5.8085498],[-75.6037601,5.8085581],[-75.6037616,5.8085718],[-75.6037632,5.8085917],[-75.6037647,5.8086044],[-75.6037657,5.8086151],[-75.6037665,5.8086236],[-75.6037674,5.8086329],[-75.6037699,5.8086575],[-75.6037714,5.8086726],[-75.6037741,5.8086953],[-75.6037761,5.8087093],[-75.6037786,5.8087144],[-75.6037834,5.8087269],[-75.6037892,5.8087396],[-75.603795,5.8087512],[-75.6038022,5.8087616],[-75.6038097,5.8087694],[-75.603822,5.8087818],[-75.6038322,5.8087912],[-75.603853,5.8088103],[-75.6038641,5.8088202],[-75.6038777,5.8088323],[-75.6038843,5.8088383]]},"properties":{"OBJECTID":201,"DIdentif":"053904001201","DEstado":2,"DDisperso":"2","RuleID":1}},{"type":"Feature","id":220,"geometry":{"type":"LineString","coordinates":[[-75.5994789,5.8014241],[-75.5995598,5.801449],[-75.5995728,5.8014483],[-75.5996065,5.8014399],[-75.5996663,5.8014493],[-75.5997204,5.8014749],[-75.5997735,5.801482],[-75.5998357,5.8014849],[-75.5998723,5.8014772],[-75.599899,5.801459],[-75.5999513,5.8014338],[-75.6000403,5.8013695],[-75.6001011,5.8013308],[-75.6001528,5.8012945],[-75.600197,5.8012392],[-75.6002667,5.8012102],[-75.6003112,5.8011956],[-75.6003509,5.801161],[-75.6003705,5.801096],[-75.6004006,5.8010545],[-75.6004624,5.8009483],[-75.6005003,5.8008962],[-75.6005458,5.8008649],[-75.6005944,5.8008399],[-75.6006575,5.8008279],[-75.6006976,5.8008163],[-75.6007555,5.8007751],[-75.6007915,5.8007563],[-75.6008319,5.8007503],[-75.6008857,5.8007527],[-75.6009213,5.8007442],[-75.6009608,5.8007391],[-75.6010337,5.8007359],[-75.6010863,5.8007337],[-75.6011881,5.8007667],[-75.6012628,5.8007809],[-75.6013457,5.8008232],[-75.6013946,5.8008389],[-75.6014434,5.8008509],[-75.6014711,5.8008642],[-75.6015111,5.8009114],[-75.6015337,5.8009131],[-75.6015757,5.8009205],[-75.6015869,5.8009195],[-75.601636,5.800964],[-75.6016794,5.8010487],[-75.6017041,5.8010936],[-75.6017336,5.8011286],[-75.6018335,5.8012155],[-75.6018532,5.8012665],[-75.6018847,5.8013447],[-75.6019413,5.8014093],[-75.6019792,5.8014341],[-75.6020199,5.8014681],[-75.6020395,5.8014776],[-75.6021435,5.8015472],[-75.6022908,5.8015977],[-75.602457,5.8016087],[-75.6025528,5.8015885],[-75.6026662,5.8015346],[-75.6027735,5.8015172],[-75.6028649,5.8015106],[-75.602915,5.8015248],[-75.6029584,5.8015265],[-75.6030538,5.8015233],[-75.6031067,5.8015259],[-75.6032008,5.8015493],[-75.6032685,5.8015713],[-75.6033995,5.8016083],[-75.603537,5.8016333],[-75.6035949,5.8016505],[-75.6037002,5.8016521],[-75.6037587,5.8016146],[-75.6038345,5.8015189],[-75.6038836,5.8014597],[-75.6039919,5.8013912],[-75.6040758,5.8013645],[-75.6041801,5.8013549],[-75.604303,5.8013642],[-75.6043859,5.8013886],[-75.6045096,5.8014885],[-75.6046162,5.801505],[-75.6047455,5.8015025],[-75.6048627,5.8015105],[-75.6049903,5.8015515],[-75.6050983,5.801583],[-75.605185,5.8015863],[-75.6053248,5.8015753],[-75.6053732,5.8015708],[-75.605449,5.8015373],[-75.6055628,5.8014664],[-75.6056589,5.8014085],[-75.6057878,5.8013607],[-75.6059476,5.8013836],[-75.6060844,5.8014427],[-75.6062375,5.8014738],[-75.6063634,5.8015168],[-75.6064705,5.8015786],[-75.6065399,5.8016401],[-75.6066821,5.8017382],[-75.6067033,5.801751],[-75.6069862,5.8019221],[-75.607016,5.8019194],[-75.6070624,5.8019351],[-75.6071528,5.801986],[-75.6071947,5.802049],[-75.6072308,5.8021107],[-75.6072646,5.8021878],[-75.607323,5.8022436],[-75.6074003,5.8022976],[-75.607469,5.80232],[-75.6075188,5.802323],[-75.6076716,5.8023701],[-75.6076978,5.8023849],[-75.6077345,5.8024331],[-75.6077435,5.8024896],[-75.607724,5.8025468],[-75.6076849,5.8026402],[-75.6076478,5.8027353],[-75.6076582,5.802807],[-75.6077788,5.8029182],[-75.6078757,5.802978],[-75.6079355,5.80307],[-75.6079957,5.8031867],[-75.6080263,5.8032718],[-75.6080628,5.8034002],[-75.608092,5.8034912],[-75.6081157,5.8035425],[-75.6081579,5.8035777],[-75.60819,5.8036045],[-75.6082803,5.8036554],[-75.6083422,5.803707],[-75.6083535,5.803727],[-75.6083731,5.8037748],[-75.6083866,5.8038386],[-75.6083811,5.803862],[-75.6083691,5.8039395],[-75.6083595,5.8040015],[-75.6083874,5.8040353],[-75.6084413,5.8041048],[-75.6084922,5.8041613],[-75.6085527,5.8042398],[-75.6085957,5.8043142],[-75.6086211,5.8043844],[-75.6086263,5.8044833],[-75.608578,5.8046425],[-75.6084459,5.8049068],[-75.6083162,5.8050715],[-75.6082263,5.8052135],[-75.6081453,5.8053069],[-75.6080667,5.8053848],[-75.6079696,5.8055103],[-75.6079206,5.8056619],[-75.6079127,5.8057849],[-75.6079129,5.8057856],[-75.6079265,5.8058734],[-75.608019,5.8060101],[-75.6080696,5.8061258],[-75.6080885,5.8062081],[-75.6080844,5.8062467],[-75.6080931,5.8063625],[-75.608102,5.80644],[-75.6081295,5.806512],[-75.6081334,5.8067007],[-75.6081177,5.8067576],[-75.6081308,5.8068175],[-75.6081408,5.8069064],[-75.6081226,5.8069998],[-75.6080739,5.8070711],[-75.6080664,5.8071558],[-75.6080898,5.8072664],[-75.6081321,5.8073542],[-75.6082085,5.807565],[-75.6082903,5.8077313],[-75.6083412,5.8078508],[-75.6083471,5.8079153],[-75.6083451,5.8079976],[-75.6083342,5.8080759],[-75.6083522,5.8081339],[-75.6083814,5.808245],[-75.6083745,5.8083096],[-75.6083606,5.8083958],[-75.6083523,5.8084077],[-75.6083359,5.8084712],[-75.608322,5.8085825],[-75.6083223,5.8086364],[-75.6083262,5.8087189],[-75.6083409,5.8087977],[-75.6083235,5.8088947],[-75.6083238,5.8089665],[-75.6083457,5.8090489],[-75.6083639,5.8091134],[-75.6083786,5.8091483],[-75.6084506,5.80925],[-75.6084651,5.8092704],[-75.6085499,5.8093658],[-75.6086118,5.8094594],[-75.6086147,5.8094672],[-75.6086421,5.8095407],[-75.6086743,5.8096541]]},"properties":{"OBJECTID":220,"DIdentif":"053904001219","DEstado":2,"DDisperso":"2","RuleID":1}},{"type":"Feature","id":688,"geometry":{"type":"LineString","coordinates":[[-75.605624,5.7985238],[-75.6056448,5.7985775],[-75.6056471,5.7986329],[-75.6056451,5.7986933],[-75.6056478,5.798744],[-75.6056691,5.7987825],[-75.6056996,5.7988079],[-75.6057291,5.7988324],[-75.6057467,5.7988817],[-75.6057588,5.7989418],[-75.6057712,5.7990056],[-75.6057815,5.7990574],[-75.6058376,5.7991473],[-75.6059197,5.7992244],[-75.6059649,5.7992466],[-75.6060444,5.7992646],[-75.6061092,5.7992444],[-75.6062107,5.7992151],[-75.6062698,5.7991936],[-75.6063195,5.7991626],[-75.6063765,5.79916],[-75.606452,5.7991643],[-75.6064806,5.7991692],[-75.6065448,5.7991829],[-75.6065822,5.7992124],[-75.6066299,5.7992419],[-75.6066807,5.7992531],[-75.6067333,5.7992642],[-75.6068377,5.7992771],[-75.6068823,5.7993021],[-75.6069819,5.7993352],[-75.6070336,5.7993765],[-75.60707,5.7994051],[-75.607198,5.7995222],[-75.6072823,5.7995822],[-75.6073812,5.7996474],[-75.6075176,5.7997335],[-75.6076532,5.799818],[-75.6077032,5.7998352],[-75.6077436,5.7998724],[-75.6077706,5.7999193],[-75.6078334,5.799963],[-75.6078642,5.7999677],[-75.6078952,5.7999639],[-75.6079523,5.7999662],[-75.6080018,5.7999568],[-75.6080898,5.7999344],[-75.6081136,5.7999141],[-75.6081264,5.7998986],[-75.6081538,5.7998656],[-75.6081707,5.7998222],[-75.6082069,5.7997617],[-75.6082587,5.7997055],[-75.6083008,5.7996778],[-75.6083263,5.7996689],[-75.6083569,5.7996583],[-75.6084426,5.7996408],[-75.6085114,5.7996458],[-75.6086031,5.7996525],[-75.6086869,5.7996457],[-75.6087536,5.799649],[-75.6088992,5.7997268],[-75.6089979,5.7997481],[-75.6090503,5.7997394],[-75.6091382,5.799715],[-75.6092051,5.7996888],[-75.6092562,5.7996774],[-75.6093248,5.7996596],[-75.6093508,5.7996534],[-75.6094098,5.7996765],[-75.6094472,5.7997111],[-75.6094947,5.7997751],[-75.6095362,5.7998027],[-75.6095649,5.7998371],[-75.6096515,5.7999024],[-75.6097177,5.7999314],[-75.6097961,5.7999374],[-75.6099309,5.7999382],[-75.6100465,5.799937],[-75.6100856,5.7999486],[-75.610152,5.7999691],[-75.6102281,5.799982],[-75.6102738,5.7999939],[-75.6103338,5.8000073],[-75.6103687,5.8000155],[-75.6104111,5.800023],[-75.6104934,5.8000305],[-75.6105614,5.8000261],[-75.6105981,5.8000342],[-75.6107314,5.8000257],[-75.6107911,5.8000086],[-75.6108877,5.7999344],[-75.6109449,5.7998274],[-75.6109605,5.7997489],[-75.6109869,5.7996163],[-75.6109862,5.7995031],[-75.6110282,5.7993975],[-75.6111072,5.7993192],[-75.6111904,5.7992654],[-75.611316,5.7992154],[-75.6114296,5.799201],[-75.6115683,5.7992111],[-75.6116267,5.7992211],[-75.6117379,5.7992223],[-75.6118241,5.7992027],[-75.6119301,5.799168],[-75.6120477,5.7990304],[-75.6121761,5.7989053],[-75.6122899,5.7988314],[-75.6124746,5.7987567],[-75.6126399,5.7987221],[-75.6127155,5.7987113],[-75.6127707,5.7987292],[-75.6128554,5.7987962],[-75.6129286,5.7988642],[-75.6129742,5.7988811],[-75.6130556,5.7988716],[-75.6132524,5.7988667],[-75.6133964,5.7988917],[-75.6135472,5.7989295],[-75.6136705,5.7989373],[-75.6137671,5.7989475],[-75.6138904,5.7989341],[-75.6139721,5.798844],[-75.614029,5.7987754],[-75.6141022,5.7987168],[-75.6142144,5.7987294],[-75.6142904,5.7987857],[-75.6144112,5.7988512],[-75.6145114,5.7988784],[-75.614636,5.7988803],[-75.6147682,5.7988814],[-75.6149019,5.7988853],[-75.6149256,5.798886],[-75.6150198,5.7988484],[-75.6150771,5.7988259],[-75.615211,5.7987827],[-75.6152818,5.7987819],[-75.615394,5.7987523],[-75.6154899,5.7986916],[-75.615573,5.7985956],[-75.6156506,5.7984598],[-75.6156878,5.7983432],[-75.6157368,5.7982504],[-75.615784,5.7981824],[-75.6158134,5.7981454],[-75.6158863,5.7980693],[-75.615892,5.7980633],[-75.6159182,5.7980359],[-75.6160221,5.7979994],[-75.6161374,5.798004],[-75.6162579,5.7980446],[-75.6163784,5.7980853],[-75.6165545,5.7981687],[-75.6166875,5.7982408],[-75.6168722,5.7983138],[-75.6169761,5.7983406],[-75.6171491,5.7983476],[-75.6173538,5.7983458],[-75.6174763,5.7983459],[-75.6176513,5.7983335],[-75.6178066,5.7982731],[-75.6179833,5.7981953],[-75.6181279,5.7981646],[-75.618286,5.7981345],[-75.618422,5.7981142],[-75.6185377,5.7981227],[-75.6186619,5.7980785],[-75.6188631,5.7979819]]},"properties":{"OBJECTID":688,"DIdentif":"053904001677","DEstado":2,"DDisperso":"2","RuleID":1}},{"type":"Feature","id":689,"geometry":{"type":"LineString","coordinates":[[-75.6123557,5.8013207],[-75.6124088,5.8013095],[-75.6124839,5.8012912],[-75.6125122,5.8012861],[-75.6125343,5.8012768],[-75.6126179,5.8012627],[-75.6126805,5.8012617],[-75.6127585,5.8012719],[-75.6127858,5.8012775],[-75.612868,5.8012879],[-75.6129173,5.8012951],[-75.6129668,5.8013171],[-75.6130533,5.8013488],[-75.6131598,5.8014176],[-75.6132587,5.8014715],[-75.6133232,5.8015256],[-75.6134147,5.8015746],[-75.6134839,5.8015965],[-75.6135334,5.8016136],[-75.6136423,5.8016798],[-75.6136782,5.8017008],[-75.613706,5.8017125],[-75.6137618,5.8017325],[-75.6138342,5.8017963],[-75.6138961,5.8018514],[-75.6139354,5.8018912],[-75.6139615,5.8019236],[-75.6140937,5.8020195],[-75.6141921,5.8020626],[-75.6142681,5.8021135],[-75.6143382,5.8021311],[-75.6143688,5.8021389],[-75.6144343,5.8021493],[-75.6144743,5.8021649],[-75.6145576,5.8022007],[-75.6146388,5.8022666],[-75.6146606,5.802336],[-75.614683,5.8023812],[-75.6147406,5.802431],[-75.6148156,5.8024916],[-75.6148618,5.8025443],[-75.6149067,5.8026029],[-75.6149406,5.8026471],[-75.6149855,5.8026951],[-75.6150127,5.8027177],[-75.6150506,5.8027741],[-75.6150918,5.8028243],[-75.61514,5.8028662],[-75.6152294,5.8029372],[-75.6153391,5.8029772],[-75.6154636,5.8029995],[-75.6155762,5.8030084],[-75.6156268,5.803024],[-75.6156722,5.8030672],[-75.6157039,5.8030864],[-75.6157846,5.8031678],[-75.6158309,5.8032205],[-75.6158738,5.8032581],[-75.6159561,5.8033036],[-75.6160355,5.8033185],[-75.6161059,5.80334],[-75.6161412,5.803357],[-75.6161863,5.803375],[-75.6162727,5.8034134],[-75.6163741,5.8034465],[-75.6164205,5.8034693],[-75.6164871,5.8035336],[-75.6165221,5.8036105],[-75.6165551,5.8036451],[-75.6166254,5.8036647],[-75.6166648,5.8036639],[-75.6167095,5.8036569],[-75.6167368,5.8036496],[-75.6167754,5.803618],[-75.6168397,5.8035725],[-75.616913,5.8035522],[-75.6169564,5.8035317],[-75.6170136,5.8035139],[-75.6170644,5.8034996],[-75.6172107,5.8034233]]},"properties":{"OBJECTID":689,"DIdentif":"053904001678","DEstado":2,"DDisperso":"2","RuleID":1}},{"type":"Feature","id":718,"geometry":{"type":"LineString","coordinates":[[-75.61086,5.7944505],[-75.6110556,5.794405],[-75.6111879,5.794381],[-75.6112841,5.7943411],[-75.6113741,5.7942961],[-75.6114935,5.7942155],[-75.6115571,5.7941556],[-75.6117524,5.7940641],[-75.6118285,5.7940357],[-75.6119258,5.7940073],[-75.61204,5.7939542],[-75.6121037,5.7938943],[-75.6121718,5.7938416],[-75.6122251,5.7937731],[-75.6123383,5.7936662],[-75.6123995,5.793622],[-75.6125373,5.7935743],[-75.612672,5.7935347],[-75.6127146,5.7935232]]},"properties":{"OBJECTID":718,"DIdentif":"053904001707","DEstado":2,"DDisperso":"2","RuleID":1}},{"type":"Feature","id":826,"geometry":{"type":"LineString","coordinates":[[-75.6128042,5.795765],[-75.6128219,5.7957557],[-75.6128292,5.7957523],[-75.612837,5.7957487],[-75.6128434,5.7957457],[-75.6128627,5.7957381],[-75.6128708,5.7957354],[-75.6128867,5.7957306],[-75.6129017,5.795728],[-75.6129095,5.7957268],[-75.6129176,5.7957258],[-75.6129347,5.7957243],[-75.6129439,5.7957237],[-75.6129501,5.7957237],[-75.6129675,5.7957263],[-75.6129764,5.7957276],[-75.6130014,5.7957323],[-75.6130182,5.795736],[-75.6130249,5.7957374],[-75.6130469,5.7957426],[-75.6130756,5.7957501],[-75.613094,5.7957547],[-75.6131012,5.7957564],[-75.6131238,5.7957619],[-75.6131575,5.7957695],[-75.6131763,5.7957733],[-75.6131858,5.795775],[-75.6131971,5.7957763],[-75.6132123,5.7957772],[-75.6132367,5.7957743],[-75.6132499,5.7957718],[-75.613257,5.7957694],[-75.6132661,5.7957655],[-75.6132759,5.7957607],[-75.6132905,5.7957534],[-75.6132995,5.7957493],[-75.6133093,5.7957453],[-75.6133212,5.7957412],[-75.6133275,5.7957395],[-75.6133339,5.7957381],[-75.6133404,5.7957371],[-75.6133477,5.7957361],[-75.6133553,5.7957355],[-75.6133641,5.7957349],[-75.6133737,5.795735],[-75.6133841,5.7957355],[-75.6134071,5.7957368],[-75.6134159,5.7957378],[-75.613442,5.7957416],[-75.6134631,5.7957453],[-75.6134902,5.7957507],[-75.6134976,5.7957527],[-75.6135155,5.7957579],[-75.6135255,5.7957612],[-75.613532,5.7957631],[-75.6135374,5.7957644],[-75.6135428,5.7957659],[-75.6135485,5.7957673],[-75.6135541,5.7957682],[-75.6135616,5.7957691],[-75.6135719,5.7957698],[-75.6135845,5.7957705],[-75.6135913,5.795771],[-75.6135983,5.7957714],[-75.6136228,5.795773],[-75.6136301,5.7957732],[-75.6136447,5.7957721],[-75.6136521,5.7957699],[-75.6136874,5.795764],[-75.6137007,5.7957608],[-75.6137405,5.7957483],[-75.6137642,5.7957403],[-75.6137832,5.7957333],[-75.6137909,5.7957302],[-75.6137979,5.7957273],[-75.6138244,5.7957164],[-75.6138388,5.7957102],[-75.6138463,5.7957069],[-75.6138542,5.7957034],[-75.6138624,5.7956996],[-75.6138711,5.7956956],[-75.6138905,5.7956865],[-75.6139009,5.7956814],[-75.6139117,5.7956764],[-75.6139338,5.7956659],[-75.613956,5.7956559],[-75.6139772,5.7956462],[-75.6139979,5.7956368],[-75.6140079,5.7956322],[-75.6140152,5.795629],[-75.6140268,5.7956239],[-75.6140431,5.7956171],[-75.614064,5.7956087],[-75.6140824,5.7956026],[-75.6140913,5.7956001],[-75.6140999,5.7955982],[-75.6141244,5.7955931],[-75.6141367,5.795591],[-75.6141477,5.7955894],[-75.6141547,5.7955874],[-75.6141599,5.7955852],[-75.6141675,5.7955826],[-75.6141762,5.7955796],[-75.6141829,5.7955768],[-75.6141903,5.7955737],[-75.6141984,5.7955702],[-75.6142081,5.795566],[-75.614218,5.7955615],[-75.6142273,5.7955568],[-75.6142362,5.7955522],[-75.6142447,5.7955472],[-75.6142492,5.7955448],[-75.614257,5.7955407],[-75.6142642,5.7955369],[-75.614274,5.7955324],[-75.6142796,5.7955299],[-75.6142905,5.7955252],[-75.6143003,5.7955213],[-75.6143079,5.795518],[-75.6143944,5.7954947],[-75.6144218,5.7954916],[-75.6145184,5.7954621],[-75.614596,5.7954258],[-75.6147717,5.7954199],[-75.6148514,5.7954172],[-75.6149005,5.7953962],[-75.6149488,5.7953762],[-75.6150417,5.7953598],[-75.6151068,5.7953768],[-75.6151752,5.7953983],[-75.6152449,5.7954014],[-75.6153017,5.7954008],[-75.6153685,5.7953945],[-75.6154169,5.7953765],[-75.6154536,5.7953557],[-75.6155117,5.7952962],[-75.615616,5.7952363],[-75.615691,5.7952032],[-75.6157495,5.7951793],[-75.6157988,5.795139],[-75.615893,5.7950848],[-75.615963,5.7950281],[-75.6159862,5.794998],[-75.6160005,5.7949533],[-75.6159881,5.7948918],[-75.6159502,5.7948462],[-75.6159583,5.7947982],[-75.615956,5.7947415],[-75.6159307,5.7946851],[-75.6159351,5.7946287],[-75.6159459,5.7945458],[-75.6159644,5.7944746],[-75.6160001,5.7944231],[-75.6160406,5.7943595],[-75.6160601,5.7942892],[-75.616074,5.79423],[-75.6161274,5.7941296],[-75.6161385,5.7941141],[-75.6162025,5.7940347],[-75.6162892,5.7938703]]},"properties":{"OBJECTID":826,"DIdentif":"053904001797","DEstado":2,"DDisperso":"2","RuleID":1}},{"type":"Feature","id":841,"geometry":{"type":"LineString","coordinates":[[-75.6029361,5.8022915],[-75.6029706,5.8023619],[-75.6030397,5.8023781],[-75.6030973,5.8023709],[-75.6031721,5.8023678],[-75.6033184,5.8024278],[-75.6033306,5.802438],[-75.6034115,5.8025437],[-75.6034624,5.8026277],[-75.6035342,5.8026738],[-75.6036077,5.802718],[-75.6036727,5.8027516],[-75.6037519,5.8027763],[-75.6038122,5.8028198],[-75.6038752,5.8028517],[-75.603908,5.8028619],[-75.6040045,5.8028491],[-75.604012,5.8028485],[-75.604148,5.8027132],[-75.6042234,5.8026553],[-75.6042847,5.8026685],[-75.6043697,5.8027153],[-75.6044618,5.8027577],[-75.6046031,5.8028447],[-75.6046687,5.802865],[-75.6048153,5.8028665],[-75.6048404,5.8028529],[-75.6049284,5.8028089],[-75.6049866,5.8027677],[-75.6050428,5.8027455],[-75.6051064,5.8027226],[-75.6051717,5.8026769],[-75.605238,5.8026217],[-75.6053057,5.8025815],[-75.6053785,5.8025766],[-75.6054618,5.8025633],[-75.6055484,5.8025043],[-75.6056053,5.8024689],[-75.6057156,5.8024435],[-75.6058951,5.8024967],[-75.606036,5.8025799],[-75.6061609,5.802591],[-75.6062523,5.8025844],[-75.6063247,5.8025758],[-75.6064185,5.8025124],[-75.6064344,5.8025015],[-75.606546,5.8023874],[-75.6066827,5.8022182],[-75.6067659,5.802101],[-75.6068217,5.8020128],[-75.6068664,5.8019672],[-75.606908,5.8019294],[-75.6069862,5.8019221]]},"properties":{"OBJECTID":841,"DIdentif":"053904001812","DEstado":2,"DDisperso":"2","RuleID":1}},{"type":"Feature","id":899,"geometry":{"type":"LineString","coordinates":[[-75.5918241,5.7933869],[-75.5921198,5.7932874],[-75.5922269,5.793275],[-75.5924456,5.7932539],[-75.5925906,5.7932453],[-75.5927109,5.7932659],[-75.5927778,5.7932677],[-75.5928479,5.7932451],[-75.5929263,5.7932248],[-75.5929668,5.7932218],[-75.5929965,5.7932211],[-75.5930602,5.7932132],[-75.5931289,5.7931979],[-75.5932113,5.7931845],[-75.5932723,5.7931777],[-75.5933518,5.7931941],[-75.5934262,5.7932334],[-75.5934934,5.79329],[-75.5935105,5.7933224],[-75.5935217,5.7933461],[-75.5935182,5.7934623],[-75.5935092,5.7935293],[-75.5935077,5.7935689],[-75.5935253,5.7936102],[-75.5935605,5.7936587],[-75.5935947,5.7937216],[-75.5936343,5.793769],[-75.593691,5.7938163],[-75.5937157,5.7938384],[-75.5937747,5.7938757],[-75.5938243,5.7939253],[-75.5938489,5.7939608],[-75.5939689,5.7940749],[-75.594029,5.7941338],[-75.5940909,5.7941755],[-75.5941458,5.7941887],[-75.5941817,5.794185],[-75.5942185,5.7941804],[-75.5942689,5.7941606],[-75.594315,5.7941609],[-75.5944038,5.794184],[-75.5945015,5.794186],[-75.5945536,5.7941815],[-75.594607,5.7941679],[-75.5946774,5.7941659],[-75.5947478,5.7941658],[-75.5947909,5.7941617],[-75.5948512,5.7941576],[-75.5949908,5.7942005],[-75.5951019,5.7942333],[-75.5952219,5.7942638],[-75.595349,5.7942769],[-75.5954446,5.7943077],[-75.5955428,5.7943187],[-75.5956418,5.7943306],[-75.5957724,5.7943722],[-75.5958361,5.7943814],[-75.5958741,5.794383],[-75.595903,5.7943778],[-75.5959488,5.7943635],[-75.5959665,5.7943534],[-75.5960332,5.7943043],[-75.5960804,5.7942653],[-75.5961094,5.7942291],[-75.5962079,5.79411],[-75.5962565,5.7940637],[-75.5963257,5.7940099],[-75.5963763,5.7939671],[-75.5964698,5.7939074],[-75.5965109,5.7938578],[-75.5965453,5.7937868],[-75.5965922,5.793725],[-75.5966559,5.7936715],[-75.5966826,5.7936576],[-75.5967386,5.7936409],[-75.5968059,5.7936434],[-75.5968719,5.793658],[-75.5969677,5.7936547],[-75.5970148,5.793654],[-75.5970449,5.7936587],[-75.5970708,5.7936528],[-75.5971726,5.7936257],[-75.5972259,5.7935913],[-75.597263,5.7935577],[-75.5973046,5.793523],[-75.597351,5.7934772],[-75.5973919,5.7934299],[-75.597467,5.7933873],[-75.5975103,5.7933627],[-75.597613,5.7933538],[-75.5976791,5.7933576],[-75.5979724,5.7933365],[-75.5980659,5.7933414],[-75.5981526,5.7933541],[-75.5982498,5.7934606],[-75.5983161,5.793588],[-75.5983787,5.7936523],[-75.5984404,5.7937352],[-75.5984737,5.7937754],[-75.5985364,5.7938178],[-75.5986122,5.7938338],[-75.5987251,5.7938241],[-75.5988893,5.7937843],[-75.5989716,5.7937507],[-75.599025,5.7937223],[-75.5991067,5.7937125],[-75.5991286,5.7937113],[-75.5992291,5.7937425],[-75.5993028,5.7937532],[-75.5993974,5.7937445],[-75.5995203,5.793716],[-75.5996335,5.7937136],[-75.5997288,5.7937158],[-75.5997902,5.7937363],[-75.5998819,5.7937734],[-75.5999812,5.7938174],[-75.6000567,5.7938609],[-75.6001996,5.7939647],[-75.6002496,5.7940442],[-75.6003251,5.7941534],[-75.6003657,5.7941932],[-75.6004271,5.7942137],[-75.6004721,5.7942332],[-75.6005874,5.7943019],[-75.6006768,5.794299],[-75.6007542,5.7942748],[-75.6008631,5.794227],[-75.6009061,5.7942101],[-75.6009737,5.7942083],[-75.601052,5.7942023],[-75.6011486,5.7941953],[-75.6011814,5.7941936],[-75.6013195,5.7941442],[-75.6014043,5.7941232],[-75.6014782,5.7941029],[-75.6015829,5.7940443],[-75.6016431,5.7940082],[-75.6017318,5.7939722],[-75.6017866,5.7939525],[-75.6019434,5.793921],[-75.6019512,5.7939281],[-75.6020177,5.7939489],[-75.602061,5.7939559],[-75.6021345,5.7939688],[-75.602193,5.7939787],[-75.6022763,5.7940005],[-75.6023426,5.7940175],[-75.6024406,5.7940347],[-75.6025341,5.7940371],[-75.602606,5.7940201],[-75.602692,5.7939874],[-75.6028412,5.7939156],[-75.6029203,5.7938945],[-75.6030062,5.7938936],[-75.6030511,5.793895],[-75.6031247,5.793876],[-75.6031821,5.7938317],[-75.6032357,5.7937876],[-75.6033101,5.793748],[-75.6033739,5.7937202],[-75.6034405,5.7936736],[-75.6034739,5.7936362],[-75.6035277,5.7935602],[-75.6035414,5.793537],[-75.6035918,5.7934688],[-75.6036524,5.7933812],[-75.6037465,5.7932919],[-75.6038336,5.7932104],[-75.6039281,5.7931285],[-75.6039994,5.7930329],[-75.6040406,5.7929314],[-75.6041091,5.7927479],[-75.6041794,5.7926337],[-75.6042458,5.7925158],[-75.6042812,5.7924446],[-75.6043806,5.792282],[-75.6044921,5.7921336],[-75.6045398,5.7920487],[-75.6045757,5.7919887],[-75.6046964,5.791838],[-75.6048253,5.7917374],[-75.6049332,5.7916604],[-75.6050138,5.791598],[-75.6051171,5.7914707],[-75.6052169,5.7913829],[-75.6052999,5.7913297],[-75.6054156,5.7912598],[-75.6055819,5.7912283],[-75.6057266,5.7911775],[-75.6058228,5.7911254],[-75.6058958,5.7910953],[-75.6060372,5.7910521],[-75.6061689,5.791],[-75.6063035,5.790901],[-75.6063949,5.7908305],[-75.6064864,5.7907956],[-75.6066124,5.7907776],[-75.6067025,5.7907521],[-75.6067906,5.7907249],[-75.6069478,5.790714],[-75.6070645,5.7907301],[-75.6071061,5.7907391],[-75.6071627,5.7907511],[-75.6072576,5.7907441],[-75.607312,5.7907149],[-75.607357,5.7906844],[-75.607405,5.7906387],[-75.607469,5.7906147],[-75.6075095,5.790605],[-75.6075712,5.7905717],[-75.6076031,5.79054],[-75.607659,5.7904696],[-75.6077024,5.7904092],[-75.6077641,5.7903759],[-75.6078288,5.790363],[-75.6078818,5.7903433],[-75.6079495,5.7902835],[-75.6080169,5.7902518],[-75.6080623,5.7902287],[-75.6081133,5.7902391],[-75.6081584,5.7902441],[-75.6082303,5.7902271],[-75.6082796,5.790172],[-75.6083124,5.7901234],[-75.6083409,5.7900638],[-75.6084309,5.7899672],[-75.6085098,5.7899068],[-75.6085587,5.7898798],[-75.6086401,5.7898998],[-75.6086899,5.7899233],[-75.6087689,5.7900014],[-75.6088567,5.7900379],[-75.6089923,5.7901279],[-75.6091085,5.790154],[-75.6091722,5.790165],[-75.6092575,5.7901835],[-75.6093499,5.7901765],[-75.6094389,5.7901737],[-75.6095128,5.7901513],[-75.6096077,5.7901289],[-75.6096535,5.7901112],[-75.6096956,5.7900729],[-75.6098372,5.7898765],[-75.6099286,5.7897325],[-75.6100086,5.7896315],[-75.6100171,5.7895793],[-75.6100564,5.7894689],[-75.6101895,5.7893457],[-75.610219,5.7893143],[-75.6102549,5.789208],[-75.6102678,5.7891211],[-75.6102808,5.7890551],[-75.6102968,5.7889603],[-75.6103392,5.7888629],[-75.6103997,5.7887562],[-75.6104647,5.7886357],[-75.6105143,5.7885338],[-75.6105334,5.788473],[-75.6105994,5.788301],[-75.6106151,5.7882861],[-75.6106521,5.7881912],[-75.6107533,5.788073],[-75.6108402,5.7880056],[-75.6109364,5.7879773],[-75.611046,5.7879496],[-75.6111182,5.7879294],[-75.6111788,5.7878855],[-75.6112383,5.7878093],[-75.6112882,5.7876693],[-75.6112991,5.7875807],[-75.6113134,5.787467],[-75.611326,5.7872925],[-75.611332,5.787151],[-75.6113347,5.7870556],[-75.6113584,5.7869665],[-75.6113965,5.7868471],[-75.6114088,5.7867748],[-75.6114299,5.7867088],[-75.6114477,5.7866525],[-75.6114973,5.7865688],[-75.6115734,5.7864635],[-75.6116358,5.7863491],[-75.6116868,5.7862718],[-75.6117277,5.7861815],[-75.6116996,5.7860506],[-75.6116806,5.7859461],[-75.6116759,5.7858581],[-75.6116439,5.78576],[-75.6115622,5.7856241],[-75.6115006,5.7855428],[-75.611474,5.7854413],[-75.6114499,5.7853499]]},"properties":{"OBJECTID":899,"DIdentif":"053904001865","DEstado":1,"DDisperso":"2","DNombre":"Cañada Bocachico","RuleID":3}},{"type":"Feature","id":901,"geometry":{"type":"LineString","coordinates":[[-75.6052584,5.7947406],[-75.605267,5.7948659],[-75.6052552,5.7949165],[-75.6052172,5.7949874],[-75.6052173,5.7950278],[-75.6052175,5.7950682],[-75.6052199,5.7951551],[-75.6052423,5.7951995],[-75.6052404,5.7952116],[-75.6052223,5.7952339],[-75.6051963,5.7952866],[-75.6051576,5.7953437]]},"properties":{"OBJECTID":901,"DIdentif":"053904001867","DEstado":3,"RuleID":5}},{"type":"Feature","id":902,"geometry":{"type":"LineString","coordinates":[[-75.6045152,5.7945582],[-75.6045454,5.7945863],[-75.6045718,5.7946205],[-75.604586,5.7946346],[-75.6045962,5.7946568],[-75.6046024,5.7946891],[-75.6046126,5.7947234],[-75.6046269,5.7947638],[-75.6046412,5.7948041],[-75.6046475,5.7948465],[-75.6046476,5.7948768],[-75.604658,5.7949435],[-75.6046662,5.7949677],[-75.6046744,5.795002],[-75.6046907,5.7950302],[-75.6047009,5.7950463],[-75.6047029,5.7950463]]},"properties":{"OBJECTID":902,"DIdentif":"053904001868","DEstado":3,"RuleID":5}},{"type":"Feature","id":903,"geometry":{"type":"LineString","coordinates":[[-75.6044132,5.7948112],[-75.6044478,5.7948616],[-75.6044904,5.794918],[-75.604529,5.7949724],[-75.6045656,5.7950268],[-75.6045961,5.7950913],[-75.6046307,5.7951457],[-75.6046591,5.7951779],[-75.6046916,5.7952343],[-75.6047201,5.7952847],[-75.6047465,5.7953291],[-75.6047708,5.7953431],[-75.6048031,5.7953429],[-75.6048798,5.7953487],[-75.6049242,5.7953505],[-75.6049767,5.7953563],[-75.6050231,5.7953621],[-75.6050636,5.7953761],[-75.6050859,5.7953982],[-75.6051021,5.7954264],[-75.6051183,5.7954345],[-75.6051486,5.7954464],[-75.6051535,5.7954505]]},"properties":{"OBJECTID":903,"DIdentif":"053904001869","DEstado":3,"RuleID":5}},{"type":"Feature","id":904,"geometry":{"type":"LineString","coordinates":[[-75.6047871,5.7949429],[-75.604741,5.7949997],[-75.6047029,5.7950463],[-75.6046768,5.7950828],[-75.6046447,5.7951295],[-75.6046307,5.7951457]]},"properties":{"OBJECTID":904,"DIdentif":"053904001870","DEstado":3,"RuleID":5}},{"type":"Feature","id":905,"geometry":{"type":"LineString","coordinates":[[-75.6041166,5.7943559],[-75.6041668,5.7943132],[-75.6041869,5.7942989],[-75.6042573,5.794236],[-75.6043799,5.7941364],[-75.6044946,5.7940712],[-75.6045551,5.7940709],[-75.6047368,5.7940842],[-75.6047591,5.7940756]]},"properties":{"OBJECTID":905,"DIdentif":"053904001871","DEstado":3,"RuleID":5}},{"type":"Feature","id":906,"geometry":{"type":"LineString","coordinates":[[-75.6042277,5.7940387],[-75.6044946,5.7940712]]},"properties":{"OBJECTID":906,"DIdentif":"053904001872","DEstado":3,"RuleID":5}},{"type":"Feature","id":907,"geometry":{"type":"LineString","coordinates":[[-75.6043069,5.7944944],[-75.6042758,5.7943107],[-75.6042573,5.794236]]},"properties":{"OBJECTID":907,"DIdentif":"053904001873","DEstado":3,"RuleID":5}},{"type":"Feature","id":908,"geometry":{"type":"LineString","coordinates":[[-75.6041494,5.7944729],[-75.6041791,5.7943556],[-75.6041668,5.7943132]]},"properties":{"OBJECTID":908,"DIdentif":"053904001874","DEstado":3,"RuleID":5}},{"type":"Feature","id":909,"geometry":{"type":"LineString","coordinates":[[-75.604088,5.7942853],[-75.6041869,5.7942989]]},"properties":{"OBJECTID":909,"DIdentif":"053904001875","DEstado":3,"RuleID":5}}]}