{"type":"FeatureCollection","features":[{"type":"Feature","id":1,"geometry":{"type":"LineString","coordinates":[[-75.6114547,5.7905341],[-75.6112483,5.7905121],[-75.6110175,5.7904974],[-75.6108842,5.7904894],[-75.6108082,5.7904897],[-75.610688,5.7905262],[-75.6105165,5.7906145],[-75.6101806,5.7908026],[-75.6098318,5.7909879],[-75.609666,5.791082],[-75.6095346,5.7911716],[-75.6094173,5.7912252],[-75.6092684,5.7912632],[-75.6091639,5.7912766],[-75.6089389,5.7912593],[-75.6087865,5.7912361],[-75.6086611,5.7912337],[-75.6084969,5.7912314],[-75.6082731,5.7912654],[-75.6080106,5.7913025],[-75.6077869,5.7913424],[-75.6076021,5.791418],[-75.6074891,5.7915022],[-75.6073926,5.7916062],[-75.6072662,5.7917424],[-75.6070199,5.7920605],[-75.6067525,5.7923428],[-75.6065416,5.792571],[-75.6063869,5.7926883],[-75.6062141,5.7927759],[-75.6060532,5.7928484],[-75.605955,5.7928996],[-75.6058091,5.79299],[-75.605455,5.7932488],[-75.6053745,5.7932791],[-75.6052432,5.7932946],[-75.6051299,5.793322],[-75.6050197,5.7933704],[-75.6048888,5.7934756],[-75.6046359,5.7936771],[-75.6043533,5.7938848],[-75.6041182,5.7940593],[-75.6039486,5.7941796],[-75.6038564,5.7942548],[-75.6037193,5.7943152],[-75.6036478,5.7943335],[-75.6035463,5.7943459],[-75.603464,5.7943474],[-75.6033972,5.7943705],[-75.6031829,5.794533],[-75.6029213,5.7947704],[-75.6028203,5.7948755],[-75.6027133,5.7949867],[-75.6025912,5.795056],[-75.6024779,5.7950744],[-75.6023705,5.7950929],[-75.6022422,5.7951204],[-75.6021497,5.7951328],[-75.6020374,5.7951599]]},"properties":{"OBJECTID":1,"VIdentif":"05390300101","VTipo":3,"VEstado":"3","VCarril":"0","VAcceso":"2","RuleID":3}},{"type":"Feature","id":2,"geometry":{"type":"LineString","coordinates":[[-75.602036,5.7952079],[-75.602274,5.7953693],[-75.6024211,5.795426],[-75.6026117,5.7955759],[-75.6028598,5.7957828],[-75.6029999,5.7958683],[-75.6031614,5.7959142],[-75.6032975,5.7959136],[-75.6034156,5.7958807],[-75.6035262,5.7957941],[-75.603603,5.7957318],[-75.6037014,5.7957072],[-75.6038591,5.7957172],[-75.6040384,5.7957702],[-75.6042361,5.7959129],[-75.6044056,5.7961417],[-75.6045574,5.7964316],[-75.6045733,5.7964685],[-75.604695,5.7967503],[-75.6047216,5.7968184],[-75.6047436,5.7969451],[-75.6047513,5.7970623],[-75.604709,5.7972108],[-75.6046834,5.7973424],[-75.6046646,5.7974262],[-75.6046698,5.7975171],[-75.6047425,5.7975557],[-75.604768,5.7975693],[-75.6048947,5.7975878],[-75.6050262,5.7976303],[-75.6054234,5.7977816],[-75.6056269,5.7978883],[-75.6057203,5.7979524],[-75.6058829,5.7979732],[-75.6060715,5.7979723],[-75.6062027,5.7979334],[-75.6063123,5.7978731],[-75.6065382,5.7976449],[-75.6067855,5.7974117],[-75.607071,5.797164],[-75.6073254,5.7969117],[-75.6074681,5.7967938],[-75.6075322,5.796717],[-75.6075943,5.7967023],[-75.6078356,5.7967251],[-75.6084164,5.7968133],[-75.6091859,5.7969103],[-75.6096997,5.7969656],[-75.6099745,5.7969951],[-75.6100745,5.7970013],[-75.6105479,5.7970308],[-75.6108679,5.7970389],[-75.6110734,5.7970546],[-75.6113577,5.7970629],[-75.6115608,5.7970811],[-75.6116729,5.7970519],[-75.6118565,5.7969865],[-75.6120497,5.7969258],[-75.6122569,5.7968028],[-75.6123307,5.7967498],[-75.612452,5.7966464],[-75.6125639,5.796567],[-75.6126288,5.7965117],[-75.612745,5.7964705],[-75.6130264,5.7963902],[-75.6131146,5.7963468],[-75.6133029,5.796255],[-75.6134244,5.7961875],[-75.6135626,5.7961198],[-75.6136651,5.7960859],[-75.6137773,5.7960734],[-75.614088,5.7961007],[-75.6142145,5.7960953],[-75.6143411,5.7961019],[-75.6144415,5.7961086],[-75.6146975,5.7962031],[-75.6148696,5.7962454],[-75.6150059,5.7962782],[-75.6151447,5.7963446],[-75.6152286,5.796392],[-75.6153218,5.7964107],[-75.6154866,5.79641],[-75.6158401,5.7964275]]},"properties":{"OBJECTID":2,"VIdentif":"05390300102","VTipo":3,"VEstado":"3","VCarril":"0","VAcceso":"2","RuleID":3}},{"type":"Feature","id":15,"geometry":{"type":"LineString","coordinates":[[-75.5947361,5.7881934],[-75.5946606,5.7883923],[-75.5946398,5.7885527],[-75.5946168,5.7887282],[-75.5945103,5.7889504],[-75.5944535,5.7890774],[-75.5943208,5.7892957],[-75.5942266,5.789588],[-75.5941771,5.7897365],[-75.5941443,5.7898826],[-75.5941211,5.790019],[-75.5941573,5.7900978],[-75.5942221,5.7901764],[-75.5943657,5.7902475],[-75.5946408,5.7903396],[-75.594715,5.7903679],[-75.5948439,5.790353],[-75.5949488,5.7903071],[-75.59502,5.7902039],[-75.5950986,5.790168],[-75.5952928,5.7902],[-75.5957975,5.7902336],[-75.5960284,5.7902311],[-75.5960786,5.7903399],[-75.5961394,5.7905639],[-75.5961697,5.7906655],[-75.59617,5.7907372],[-75.5961882,5.7908029],[-75.5962335,5.7909044],[-75.5962668,5.7910119],[-75.5962583,5.7911046],[-75.5962467,5.7911734],[-75.5962709,5.791263],[-75.5963524,5.791445],[-75.5963658,5.7914956],[-75.596368,5.7915039],[-75.5964248,5.7915746],[-75.5964651,5.7916127],[-75.5964787,5.7916509],[-75.5964923,5.7916987],[-75.5965155,5.7917541],[-75.5965463,5.7918095],[-75.5965962,5.7918647],[-75.5966748,5.7919294],[-75.5967726,5.791994],[-75.5968778,5.7920242],[-75.597069,5.792052],[-75.5971932,5.7920572],[-75.5972659,5.7920722],[-75.5973443,5.7920833],[-75.5973921,5.7920945],[-75.5974935,5.7921285],[-75.5975892,5.7921644],[-75.5976234,5.7921718],[-75.5976245,5.7921718],[-75.597741,5.7921832],[-75.5978337,5.7922127],[-75.5979474,5.7922719],[-75.5980432,5.7923253],[-75.5980971,5.792349],[-75.5981837,5.7923606],[-75.5982524,5.7923602],[-75.598333,5.7923599],[-75.5984047,5.7923805],[-75.5984737,5.792443],[-75.5985161,5.7925893],[-75.5985675,5.7927326],[-75.5987028,5.7929323],[-75.5988197,5.7930364],[-75.5990052,5.7931193],[-75.5990933,5.7931415],[-75.5991818,5.7931339],[-75.5992185,5.7931234],[-75.5992337,5.7931228],[-75.5993088,5.7930901],[-75.5993587,5.7930433],[-75.5994229,5.792982],[-75.5994513,5.792928],[-75.5994725,5.7928561],[-75.5994722,5.7927844],[-75.5994827,5.7927233],[-75.5995075,5.7926658],[-75.5995145,5.7926335],[-75.5995035,5.7925869],[-75.5994639,5.7925368],[-75.5994207,5.7924976],[-75.5993308,5.7924191],[-75.5992875,5.7923584],[-75.5992461,5.792254],[-75.5992514,5.7921194],[-75.5992571,5.7920507],[-75.5993074,5.7919607],[-75.5993907,5.7918886],[-75.5994709,5.7918045],[-75.5995303,5.7917324],[-75.5995539,5.7916845],[-75.5995566,5.7916067],[-75.5995321,5.7914813],[-75.5995088,5.791436],[-75.5994658,5.7913958],[-75.5994441,5.7913421],[-75.5994221,5.7912417],[-75.5993967,5.7911701],[-75.5993678,5.7911056],[-75.5993352,5.7910412],[-75.5993526,5.7909519],[-75.5993535,5.7909379],[-75.5993768,5.7908062],[-75.5994059,5.7906446],[-75.5994561,5.7905218],[-75.5995568,5.7903509],[-75.5997082,5.7901589],[-75.5997586,5.7900958],[-75.5998451,5.7900655],[-75.6000211,5.7900468],[-75.6001674,5.7900461],[-75.6003316,5.7900454],[-75.6004632,5.7900956],[-75.6005682,5.7901938],[-75.6006883,5.7903487],[-75.600779,5.7905935],[-75.6008369,5.7908474],[-75.6008436,5.7910178],[-75.6008717,5.7912927],[-75.600907,5.7914203],[-75.6009385,5.7915346],[-75.6009388,5.7915944],[-75.6009575,5.7916569],[-75.6009539,5.7916868],[-75.6009831,5.7917979],[-75.6010516,5.7918945],[-75.601131,5.7920125],[-75.6012175,5.7921198],[-75.601248,5.7921573],[-75.6013473,5.7923022],[-75.6014301,5.7923987],[-75.601513,5.7925095],[-75.6015563,5.7925847],[-75.6015853,5.7926599],[-75.6015934,5.7927056],[-75.6015981,5.7928024],[-75.6016108,5.7929518],[-75.6016289,5.7930085],[-75.6017369,5.7931157],[-75.6018419,5.7932154],[-75.6019229,5.7933032],[-75.6019919,5.7933896],[-75.6020342,5.7934941],[-75.602036,5.7935956]]},"properties":{"OBJECTID":15,"VIdentif":"05390300115","VTipo":5,"VEstado":"0","VCarril":"0","VAcceso":"0","RuleID":5}},{"type":"Feature","id":20,"geometry":{"type":"LineString","coordinates":[[-75.6070199,5.7920605],[-75.607075,5.7920695],[-75.6072148,5.7921378],[-75.6074293,5.7922459],[-75.6075152,5.7922778],[-75.6075461,5.7922894],[-75.6075677,5.7922975],[-75.607606,5.7922985],[-75.6076707,5.7923305],[-75.6078536,5.7923799],[-75.6079289,5.7923975],[-75.6080042,5.7924007],[-75.6081009,5.792411],[-75.6081475,5.7924144],[-75.6081799,5.7924394],[-75.6082015,5.7924716],[-75.6082089,5.7925182],[-75.6082019,5.7925505],[-75.6081877,5.7925792],[-75.6081838,5.7926041],[-75.6081325,5.7926732],[-75.6080259,5.7927483],[-75.6079153,5.7928043],[-75.6077914,5.7928776],[-75.6077572,5.7929046],[-75.6077155,5.7929775],[-75.6077159,5.7930655],[-75.607739,5.793119],[-75.6077813,5.7931571],[-75.6078409,5.793197],[-75.6078637,5.7932122],[-75.6079459,5.7932328],[-75.6080396,5.7932439],[-75.6081638,5.793251],[-75.6081856,5.7932772],[-75.6082136,5.7933625],[-75.6082515,5.7934209],[-75.6082787,5.7934596],[-75.6083011,5.7934905],[-75.6083409,5.7935296],[-75.6084621,5.7937108],[-75.6085488,5.7938673],[-75.6085779,5.7939609],[-75.6085784,5.7940662],[-75.6085945,5.7942556],[-75.608595,5.7943589],[-75.6086489,5.7944352],[-75.6087484,5.7944807],[-75.6088307,5.7945147],[-75.6088843,5.7945317],[-75.6089151,5.7945718],[-75.6089039,5.7946273],[-75.6088296,5.7946667],[-75.6087915,5.7947139],[-75.60883,5.7947788],[-75.6089068,5.7948493],[-75.6090197,5.7948794],[-75.6090982,5.7949307],[-75.6091559,5.7950108],[-75.609204,5.7950718],[-75.6092787,5.7951212],[-75.6093496,5.7951515],[-75.6094013,5.7951761],[-75.6094743,5.7952638],[-75.6095452,5.7953228],[-75.6095541,5.7953259],[-75.6096195,5.7953705],[-75.6096865,5.7953828],[-75.6097826,5.795353],[-75.6100077,5.7953092],[-75.6100973,5.7952935],[-75.610166,5.7952664],[-75.6102233,5.7952814],[-75.610279,5.7953328],[-75.6103385,5.7953823],[-75.6104017,5.7954222],[-75.610467,5.7955042],[-75.6105306,5.7956072],[-75.6105691,5.7956836],[-75.610602,5.7957696],[-75.6106253,5.7958441],[-75.6107077,5.7959088],[-75.6107594,5.7959162],[-75.610834,5.7959522],[-75.6109055,5.7960214],[-75.6109569,5.7961015],[-75.6110074,5.7961557],[-75.6110493,5.796189],[-75.6111164,5.7962181],[-75.6111958,5.7962093],[-75.6113128,5.7961962],[-75.6114055,5.7961772],[-75.611435,5.7961752],[-75.611603,5.7961438],[-75.6116833,5.7961377],[-75.6117194,5.7960974],[-75.6117036,5.795996],[-75.6116707,5.7959005],[-75.6116513,5.7958336],[-75.6116262,5.7957821],[-75.6115898,5.7957497],[-75.6115572,5.7957384],[-75.6115513,5.795702],[-75.6115205,5.7956582],[-75.6115013,5.79562],[-75.6114857,5.7955646],[-75.6114893,5.795511],[-75.6114928,5.795444],[-75.6115116,5.7953826],[-75.6115209,5.7953175],[-75.6114843,5.7952641],[-75.6114441,5.7952471]]},"properties":{"OBJECTID":20,"VIdentif":"05390300120","VTipo":5,"VEstado":"0","VCarril":"0","VAcceso":"0","RuleID":5}},{"type":"Feature","id":21,"geometry":{"type":"LineString","coordinates":[[-75.6082787,5.7934596],[-75.6084105,5.7935173],[-75.6085371,5.7935484],[-75.6087512,5.793551],[-75.6089441,5.793554],[-75.6090545,5.7935476],[-75.6091768,5.7935111],[-75.609284,5.7934568],[-75.6094836,5.7933722],[-75.6096594,5.7932846],[-75.6098294,5.7932599],[-75.6100562,5.79322],[-75.6102052,5.793177],[-75.6103633,5.7931349],[-75.6104886,5.7931313],[-75.6106769,5.7931748],[-75.6108624,5.7932552],[-75.6110091,5.7933442],[-75.6111169,5.7934065],[-75.6112367,5.7934897],[-75.6113055,5.7935252],[-75.6113802,5.7935398],[-75.611467,5.7935843],[-75.6115807,5.7936495],[-75.6116584,5.7936611]]},"properties":{"OBJECTID":21,"VIdentif":"05390300121","VTipo":5,"VEstado":"0","VCarril":"0","VAcceso":"0","RuleID":5}},{"type":"Feature","id":22,"geometry":{"type":"LineString","coordinates":[[-75.6073926,5.7916062],[-75.6075412,5.7916648],[-75.6076361,5.7917044],[-75.6076895,5.7917491],[-75.6077544,5.7918349],[-75.6078013,5.7919065],[-75.6078911,5.7919707],[-75.6079625,5.791995],[-75.6080145,5.7920185],[-75.608152,5.7920388],[-75.6082178,5.7920624],[-75.608228,5.7920737],[-75.6082608,5.7921233],[-75.6083399,5.7921875],[-75.6084441,5.792248],[-75.608534,5.7923086],[-75.6085956,5.7923629],[-75.6086315,5.7924312],[-75.6086559,5.7925477],[-75.6086776,5.7927181],[-75.6086662,5.7928437],[-75.608631,5.7929934],[-75.6086226,5.793104],[-75.6086469,5.7931841],[-75.6087038,5.7932292],[-75.6087489,5.7932948],[-75.6087968,5.7933245],[-75.6089075,5.7933808],[-75.6090092,5.7934341],[-75.6090545,5.7935476]]},"properties":{"OBJECTID":22,"VIdentif":"05390300122","VTipo":5,"VEstado":"0","VCarril":"0","VAcceso":"0","RuleID":5}},{"type":"Feature","id":23,"geometry":{"type":"LineString","coordinates":[[-75.6100686,5.78896],[-75.6101495,5.7888452],[-75.6103463,5.7887976],[-75.6104536,5.7887576],[-75.6106327,5.7887353],[-75.6107617,5.7887526],[-75.6108661,5.7888598],[-75.6109166,5.7889277],[-75.6109993,5.7889955],[-75.6110926,5.7890346],[-75.6111824,5.7890772],[-75.6112507,5.7891307],[-75.6113404,5.7891734],[-75.6114874,5.7892014],[-75.6116128,5.7892044],[-75.6117058,5.7891717],[-75.6117556,5.7890853],[-75.6117912,5.7890457],[-75.611877,5.7890022],[-75.6119773,5.7889946],[-75.6120633,5.7889906],[-75.6122067,5.7890294],[-75.6122822,5.7890721],[-75.6124149,5.7891146],[-75.6125475,5.7891283],[-75.6125951,5.7891783],[-75.6126414,5.7892786],[-75.6126421,5.7894293],[-75.6125973,5.7896519],[-75.6125257,5.7898245],[-75.6125475,5.7899033],[-75.6126448,5.7900285],[-75.6127743,5.7901391],[-75.6129181,5.7902389],[-75.6130866,5.7902812],[-75.6133016,5.790291],[-75.6134557,5.790301],[-75.6136707,5.7903036],[-75.6138212,5.7903065],[-75.6139396,5.7903562],[-75.6140584,5.7904812],[-75.6141486,5.7906207],[-75.6142079,5.7907212],[-75.6142734,5.7907895],[-75.6143527,5.7908968],[-75.6143889,5.7909791],[-75.6144252,5.7910758],[-75.6144506,5.7911582],[-75.6144441,5.7912982],[-75.6144478,5.7913269],[-75.6144694,5.7913519],[-75.6144981,5.7913518],[-75.6145624,5.7913048],[-75.614623,5.7912543],[-75.6146692,5.7911572],[-75.6147332,5.7910601],[-75.6148259,5.7909628],[-75.614944,5.7909407],[-75.6150337,5.7909546],[-75.615109,5.7909686],[-75.6151987,5.7910005],[-75.6152501,5.7910395],[-75.6152648,5.7910462],[-75.6153117,5.7911177],[-75.6154595,5.7913287],[-75.6155023,5.7913844],[-75.6155914,5.7914795],[-75.6156453,5.7915223],[-75.6156778,5.7915688],[-75.615696,5.7916333],[-75.6157286,5.7917264],[-75.6157649,5.7918267],[-75.6157976,5.7919199],[-75.615823,5.7919987],[-75.6158675,5.7920612],[-75.615887,5.7920952],[-75.6158989,5.7921275],[-75.6159567,5.7922456],[-75.6160468,5.79236],[-75.6161692,5.7924815],[-75.6162628,5.7925707],[-75.6163489,5.792617],[-75.6164099,5.7926382],[-75.6164493,5.7926273],[-75.6165029,5.7925983],[-75.6165099,5.792566],[-75.6165105,5.7925625],[-75.616529,5.7925114],[-75.6165249,5.792411],[-75.6165031,5.7923393],[-75.616474,5.7922426],[-75.6164807,5.7921492],[-75.616509,5.7920702],[-75.6165694,5.7919515],[-75.6165978,5.7919011],[-75.6166441,5.7918363],[-75.6167515,5.7918287],[-75.6168303,5.7918247],[-75.616883,5.7917942],[-75.6169218,5.7917604],[-75.6169396,5.791728],[-75.6169537,5.7916813],[-75.6169599,5.7914875],[-75.6169598,5.7914624],[-75.6169849,5.7914515],[-75.6170176,5.7914589],[-75.617119,5.7914395],[-75.6171973,5.7913817],[-75.6172328,5.7913169],[-75.617297,5.7912449],[-75.6173017,5.7912431],[-75.617317,5.7912204],[-75.6173814,5.7912057],[-75.6174138,5.791245],[-75.6174427,5.7912987],[-75.6174431,5.7913812],[-75.6174433,5.7914351],[-75.6174615,5.7914924],[-75.6175121,5.7915818],[-75.6175554,5.7916462],[-75.6175807,5.7917107],[-75.6175961,5.7918051],[-75.6176224,5.7918928],[-75.6176517,5.7920218],[-75.6176731,5.7921269],[-75.6176904,5.792173],[-75.6177159,5.7922734],[-75.6177557,5.7923593],[-75.6177811,5.7924202],[-75.6177993,5.7924955],[-75.6178104,5.7925672],[-75.6178065,5.7926191],[-75.6178107,5.7926389],[-75.6178111,5.7927179],[-75.6178078,5.7927717],[-75.6178438,5.7928289],[-75.6178834,5.7928503],[-75.6179658,5.7928678],[-75.6180124,5.7928676],[-75.6180638,5.7928364],[-75.6181053,5.7928134],[-75.6181461,5.7926817],[-75.6181954,5.7926257],[-75.6183207,5.7925964]]},"properties":{"OBJECTID":23,"VIdentif":"05390300123","VTipo":5,"VEstado":"0","VCarril":"0","VAcceso":"0","RuleID":5}},{"type":"Feature","id":24,"geometry":{"type":"LineString","coordinates":[[-75.6153573,5.7965641],[-75.6152576,5.7965702],[-75.6152019,5.796602],[-75.6151648,5.7966481],[-75.6151163,5.7966871],[-75.6150405,5.7967161],[-75.614956,5.7967452],[-75.6148903,5.7967886],[-75.6148146,5.796842],[-75.6147575,5.7968811],[-75.6147046,5.7969086],[-75.6146189,5.7969649],[-75.6145432,5.7970327],[-75.6144992,5.7971133],[-75.6144521,5.7971724],[-75.6143851,5.7972387],[-75.6143396,5.7973064],[-75.6143241,5.7973725],[-75.6143343,5.7974155],[-75.6143816,5.7974224],[-75.6144088,5.7974051],[-75.6144546,5.797402],[-75.6144589,5.7974048]]},"properties":{"OBJECTID":24,"VIdentif":"05390300124","VTipo":5,"VEstado":"0","VCarril":"0","VAcceso":"0","RuleID":5}},{"type":"Feature","id":25,"geometry":{"type":"LineString","coordinates":[[-75.6100745,5.7970013],[-75.6101493,5.7970925],[-75.6102679,5.7971745],[-75.6105769,5.797356],[-75.6108069,5.7975236],[-75.6109219,5.797602],[-75.6112558,5.7977548],[-75.6113743,5.7978116]]},"properties":{"OBJECTID":25,"VIdentif":"05390300125","VTipo":5,"VEstado":"0","VCarril":"0","VAcceso":"0","RuleID":5}},{"type":"Feature","id":26,"geometry":{"type":"LineString","coordinates":[[-75.6087915,5.7947139],[-75.608555,5.7947461],[-75.6082642,5.7947385],[-75.6081072,5.7947338],[-75.6079241,5.7946665],[-75.6078022,5.7946455],[-75.6076911,5.7946352],[-75.6076483,5.7946713],[-75.6075808,5.7948008],[-75.6074884,5.7949663],[-75.6073781,5.7951211],[-75.6073068,5.7951932],[-75.6072533,5.795258],[-75.6071324,5.7954415],[-75.6071182,5.7954882],[-75.6070828,5.7955638]]},"properties":{"OBJECTID":26,"VIdentif":"05390300126","VTipo":5,"VEstado":"0","VCarril":"0","VAcceso":"0","RuleID":5}},{"type":"Feature","id":27,"geometry":{"type":"LineString","coordinates":[[-75.6019497,5.7959235],[-75.6020868,5.7959527],[-75.6021373,5.796035],[-75.6021414,5.7961355],[-75.6021778,5.7962537],[-75.6022319,5.7963324],[-75.6023397,5.7964072],[-75.6024011,5.7964576],[-75.6025662,5.7965928],[-75.6026632,5.7966354],[-75.6028174,5.7966742],[-75.6029155,5.796713],[-75.6029827,5.796781],[-75.6030476,5.7968812],[-75.6031021,5.797046],[-75.6031497,5.7972718],[-75.6032008,5.7974618],[-75.6032982,5.797612],[-75.6033775,5.7977105]]},"properties":{"OBJECTID":27,"VIdentif":"05390300127","VTipo":5,"VEstado":"0","VCarril":"0","VAcceso":"0","RuleID":5}},{"type":"Feature","id":28,"geometry":{"type":"LineString","coordinates":[[-75.6024011,5.7964576],[-75.6022611,5.7964543],[-75.602143,5.7964424],[-75.6020344,5.796462],[-75.6019556,5.7964791],[-75.6018531,5.7965059],[-75.6017355,5.7965918]]},"properties":{"OBJECTID":28,"VIdentif":"05390300128","VTipo":5,"VEstado":"0","VCarril":"0","VAcceso":"0","RuleID":5}},{"type":"Feature","id":32,"geometry":{"type":"LineString","coordinates":[[-75.608398,5.8006235],[-75.6082347,5.8005969],[-75.6080232,5.8005584],[-75.6079224,5.8004692],[-75.6078754,5.8003653],[-75.6078286,5.8003153],[-75.6078104,5.8002472],[-75.6077813,5.8001612],[-75.60772,5.8000826],[-75.6076983,5.8000324],[-75.6077152,5.7998135],[-75.6076964,5.7996055],[-75.6076027,5.7994947],[-75.6074627,5.7994415],[-75.6073871,5.799345],[-75.6073147,5.7992018],[-75.6072242,5.7989797],[-75.6071338,5.7988753]]},"properties":{"OBJECTID":32,"VIdentif":"05390300132","VTipo":5,"VEstado":"0","VCarril":"0","VAcceso":"0","RuleID":5}},{"type":"Feature","id":33,"geometry":{"type":"LineString","coordinates":[[-75.6107173,5.8013425],[-75.6104988,5.8013435],[-75.6103375,5.8013299],[-75.6101973,5.8012301],[-75.6101397,5.8011622],[-75.6100031,5.8010659],[-75.6098808,5.8009624],[-75.609762,5.8008267],[-75.6096431,5.8006944],[-75.609521,5.8006161],[-75.6094634,5.8005553],[-75.6093555,5.800459],[-75.60928,5.8004091],[-75.6091293,5.8003595],[-75.6090325,5.8003492],[-75.6089395,5.8003712],[-75.6088787,5.8004109],[-75.6087966,5.8004579],[-75.6087539,5.8005299],[-75.6086825,5.8005876],[-75.6085181,5.8006781]]},"properties":{"OBJECTID":33,"VIdentif":"05390300133","VTipo":5,"VEstado":"0","VCarril":"0","VAcceso":"0","RuleID":5}},{"type":"Feature","id":34,"geometry":{"type":"LineString","coordinates":[[-75.6010541,5.8011447],[-75.6012514,5.8012659],[-75.6013234,5.8013325],[-75.6013909,5.8014829],[-75.6014772,5.8015519],[-75.6015945,5.8015944],[-75.6018768,5.8017055],[-75.6019964,5.8017385],[-75.6021088,5.8017762],[-75.6021664,5.8018358],[-75.6023315,5.80189],[-75.6025348,5.8019632],[-75.6026813,5.8021324],[-75.6028202,5.8022251],[-75.6029258,5.8023346],[-75.6030291,5.8024657],[-75.6030512,5.8025828],[-75.6030896,5.8026329],[-75.6032312,5.8027686],[-75.6033366,5.8028398],[-75.6035307,5.8029896],[-75.6035957,5.8030898],[-75.6037632,5.8031704],[-75.6039427,5.8032365],[-75.6040626,5.8033532],[-75.6041228,5.8034462],[-75.6042377,5.8035126],[-75.6043071,5.8035338]]},"properties":{"OBJECTID":34,"VIdentif":"05390300134","VTipo":5,"VEstado":"0","VCarril":"0","VAcceso":"0","RuleID":5}}]}