{
 "type": "FeatureCollection",
 "features": [
  {
   "type": "Feature",
   "properties": {
    "name": "AP 1 SABALETITAS",
    "npn": "053900001000000020058000000000",
    "matricula": "023-16153",
    "ficha": 13902419,
    "municipio": "La Pintada (05390)",
    "vereda_code": "39020010000002",
    "source": "Catastro Antioquia — BCGS_Catastro_Publico, capa 10 (R LC Terreno Predio)",
    "retrieved": "2026-08-21",
    "role": "sabaleticas",
    "confirmed_by": "Manuel, 2026-08-21 (visual confirmation; cadastral spelling \"SABALETITAS\" is a typo for Sabaleticas)"
   },
   "geometry": {
    "type": "Polygon",
    "coordinates": [
     [
      [
       -75.61326122710112,
       5.807775506844011
      ],
      [
       -75.61326499297525,
       5.807754115345233
      ],
      [
       -75.61326679957922,
       5.807746539902766
      ],
      [
       -75.61326969069079,
       5.807737277869265
      ],
      [
       -75.6132726584158,
       5.8077309265945045
      ],
      [
       -75.61327586280126,
       5.807724999139085
      ],
      [
       -75.61328000323888,
       5.807718470666185
      ],
      [
       -75.61328409401742,
       5.8077129188211565
      ],
      [
       -75.61328999083915,
       5.807711219011253
      ],
      [
       -75.61330030551909,
       5.8076558782338985
      ],
      [
       -75.61330510292427,
       5.807639712927164
      ],
      [
       -75.61330915009434,
       5.807626075260775
      ],
      [
       -75.61331659961242,
       5.807612832305674
      ],
      [
       -75.61336172334725,
       5.807569119622765
      ],
      [
       -75.61342073763925,
       5.807540585345631
      ],
      [
       -75.61347768055857,
       5.807520938636031
      ],
      [
       -75.61357942796046,
       5.807517547817697
      ],
      [
       -75.61361687164694,
       5.80752106683608
      ],
      [
       -75.61361691047952,
       5.807521070272726
      ],
      [
       -75.61363288462066,
       5.807522571270152
      ],
      [
       -75.61373674906136,
       5.807532333919503
      ],
      [
       -75.61386575966314,
       5.807542911405721
      ],
      [
       -75.61403383316133,
       5.807538363819922
      ],
      [
       -75.61419079863276,
       5.807538686284541
      ],
      [
       -75.61432030357368,
       5.807501842816803
      ],
      [
       -75.61441804186278,
       5.807464974549543
      ],
      [
       -75.61444503020446,
       5.807456343254976
      ],
      [
       -75.61445171757477,
       5.807454204919026
      ],
      [
       -75.6145729229765,
       5.807463552662983
      ],
      [
       -75.61482053946082,
       5.807497258680631
      ],
      [
       -75.61497249917974,
       5.807537663493551
      ],
      [
       -75.61513574615957,
       5.807596395775215
      ],
      [
       -75.6152278040702,
       5.807645114956374
      ],
      [
       -75.6152869490361,
       5.807666448471337
      ],
      [
       -75.61540998613148,
       5.807710829316645
      ],
      [
       -75.61551140254711,
       5.807735502029009
      ],
      [
       -75.61559735416225,
       5.807738376845224
      ],
      [
       -75.61569702106641,
       5.807743873238423
      ],
      [
       -75.61579164462248,
       5.807736292980908
      ],
      [
       -75.61589753560305,
       5.807693853823292
      ],
      [
       -75.61601574406559,
       5.8076387006326815
      ],
      [
       -75.61607441934405,
       5.807616957272204
      ],
      [
       -75.61614801951816,
       5.807590009678162
      ],
      [
       -75.61621100987867,
       5.807531143281541
      ],
      [
       -75.61626203047518,
       5.807478190686629
      ],
      [
       -75.61632395774826,
       5.807386547624219
      ],
      [
       -75.6163501291307,
       5.807314579972814
      ],
      [
       -75.61637838081045,
       5.807233715679875
      ],
      [
       -75.61636270680079,
       5.8071568247636955
      ],
      [
       -75.61634547153479,
       5.8070839370647525
      ],
      [
       -75.61631087939706,
       5.807021318603538
      ],
      [
       -75.61623531270867,
       5.806952733138788
      ],
      [
       -75.6161540320443,
       5.806927207860477
      ],
      [
       -75.61603527583323,
       5.8069340681018415
      ],
      [
       -75.61597786719805,
       5.806948984351798
      ],
      [
       -75.61594968401943,
       5.806956306711982
      ],
      [
       -75.61587797994962,
       5.806961818997768
      ],
      [
       -75.61582796480567,
       5.8069412026750395
      ],
      [
       -75.61579043849841,
       5.806909788172096
      ],
      [
       -75.6157542930659,
       5.806872445609596
      ],
      [
       -75.61568595893728,
       5.806714269307471
      ],
      [
       -75.61563443060574,
       5.806517548787109
      ],
      [
       -75.61559145912946,
       5.806353494303829
      ],
      [
       -75.61553977282041,
       5.80617083277601
      ],
      [
       -75.61547782328232,
       5.805951898583674
      ],
      [
       -75.61550529750927,
       5.805735761782737
      ],
      [
       -75.61552521218185,
       5.805647911462364
      ],
      [
       -75.61556580458554,
       5.805578897596869
      ],
      [
       -75.61557606016248,
       5.80556146033296
      ],
      [
       -75.6156369129252,
       5.8054580007284144
      ],
      [
       -75.61571081900973,
       5.805360443966901
      ],
      [
       -75.61579365307138,
       5.80521206423858
      ],
      [
       -75.61585234955541,
       5.805106920394937
      ],
      [
       -75.61596473662867,
       5.80490340929217
      ],
      [
       -75.61604697972128,
       5.804812829545677
      ],
      [
       -75.6160823760096,
       5.804768067928904
      ],
      [
       -75.61610282151294,
       5.804707237849911
      ],
      [
       -75.61615066099095,
       5.804577237129482
      ],
      [
       -75.61617950937149,
       5.8045482031954005
      ],
      [
       -75.61621504105412,
       5.8045124427841435
      ],
      [
       -75.6162787346119,
       5.804461248833111
      ],
      [
       -75.61635997322345,
       5.804422974205404
      ],
      [
       -75.61641413580953,
       5.804415174530015
      ],
      [
       -75.6165129611264,
       5.804453619248517
      ],
      [
       -75.61660327291429,
       5.804493803003713
      ],
      [
       -75.616635527404,
       5.804526433473319
      ],
      [
       -75.61674539078206,
       5.8046375793613505
      ],
      [
       -75.6168746434423,
       5.804745785816335
      ],
      [
       -75.61710686412792,
       5.804874652630525
      ],
      [
       -75.61725278329118,
       5.804975558257897
      ],
      [
       -75.61734570643173,
       5.805033865376689
      ],
      [
       -75.61738634210431,
       5.805046632522892
      ],
      [
       -75.61744433058564,
       5.8050384895466935
      ],
      [
       -75.61748130882447,
       5.805021611102609
      ],
      [
       -75.61750002559708,
       5.804973518339526
      ],
      [
       -75.61755689335057,
       5.804826262343977
      ],
      [
       -75.61756408377721,
       5.804672853670042
      ],
      [
       -75.61757809702924,
       5.804583611371873
      ],
      [
       -75.61759524464075,
       5.804518258155912
      ],
      [
       -75.61759501056665,
       5.804420628785362
      ],
      [
       -75.61755269069721,
       5.804354914471849
      ],
      [
       -75.61752322727519,
       5.804309163951131
      ],
      [
       -75.61747678398953,
       5.804213558482034
      ],
      [
       -75.61742604819565,
       5.804109118419454
      ],
      [
       -75.61728746761293,
       5.80379292883445
      ],
      [
       -75.61720795043907,
       5.803533277472594
      ],
      [
       -75.61720164801909,
       5.8034429720029115
      ],
      [
       -75.61721069254028,
       5.80342328470007
      ],
      [
       -75.61722575193308,
       5.803390523828119
      ],
      [
       -75.61727799615248,
       5.803253050535716
      ],
      [
       -75.61730184665167,
       5.8031902908148405
      ],
      [
       -75.61733651451183,
       5.803095311511303
      ],
      [
       -75.61733577446982,
       5.803013198293461
      ],
      [
       -75.61731022716465,
       5.802975869987486
      ],
      [
       -75.61724833051285,
       5.802910931489025
      ],
      [
       -75.61714308554915,
       5.802800512781844
      ],
      [
       -75.61706592459315,
       5.802693403137735
      ],
      [
       -75.6170372092493,
       5.802589649374442
      ],
      [
       -75.61701963557647,
       5.802523561835117
      ],
      [
       -75.61706628610087,
       5.802433300576299
      ],
      [
       -75.61712872822383,
       5.802326150536669
      ],
      [
       -75.61717956809306,
       5.802271282306616
      ],
      [
       -75.61719778698618,
       5.802258484053595
      ],
      [
       -75.61719683629681,
       5.8022594313982925
      ],
      [
       -75.6172727590667,
       5.802205821263537
      ],
      [
       -75.61731834176753,
       5.802186014582617
      ],
      [
       -75.61744131693301,
       5.802132579930302
      ],
      [
       -75.61764024323156,
       5.802044027712004
      ],
      [
       -75.61766862391136,
       5.802032224806756
      ],
      [
       -75.61772928641824,
       5.802006982651251
      ],
      [
       -75.61794854524501,
       5.8019407662039395
      ],
      [
       -75.618059122646,
       5.8018969403489375
      ],
      [
       -75.6181346140056,
       5.801837907738207
      ],
      [
       -75.6181752076497,
       5.8017868659236855
      ],
      [
       -75.61839234815133,
       5.801676368835789
      ],
      [
       -75.6185520534012,
       5.801611666536288
      ],
      [
       -75.61864941765455,
       5.801539061999508
      ],
      [
       -75.61872957563003,
       5.801446738023096
      ],
      [
       -75.61877364337101,
       5.801391521399726
      ],
      [
       -75.61877502026235,
       5.801374958815356
      ],
      [
       -75.61871354589495,
       5.8012853067031385
      ],
      [
       -75.61864954865062,
       5.801191971327106
      ],
      [
       -75.61851217364725,
       5.800940428193115
      ],
      [
       -75.61850161852703,
       5.800921100150155
      ],
      [
       -75.61843378345971,
       5.800726136207357
      ],
      [
       -75.61843220652166,
       5.800717742899071
      ],
      [
       -75.61842995399144,
       5.800705748195461
      ],
      [
       -75.6184233074774,
       5.800670360255585
      ],
      [
       -75.61841454358226,
       5.800623703857019
      ],
      [
       -75.61840503295329,
       5.800444579503092
      ],
      [
       -75.61842583752008,
       5.800275583238284
      ],
      [
       -75.61843663437482,
       5.8001878765485815
      ],
      [
       -75.61849800595306,
       5.799962280428381
      ],
      [
       -75.61850141450505,
       5.799949752338122
      ],
      [
       -75.61855772815089,
       5.799780277114675
      ],
      [
       -75.61858997068346,
       5.799713362392916
      ],
      [
       -75.61859515550776,
       5.799708020661447
      ],
      [
       -75.61859842902417,
       5.799699680843909
      ],
      [
       -75.6186226018483,
       5.799648507150602
      ],
      [
       -75.61863520671812,
       5.799612032916382
      ],
      [
       -75.6186358540575,
       5.799610295012088
      ],
      [
       -75.6187952894899,
       5.7992478111172705
      ],
      [
       -75.61880634369818,
       5.799219201325964
      ],
      [
       -75.61883903532073,
       5.799134591010093
      ],
      [
       -75.61883249989359,
       5.79907358035275
      ],
      [
       -75.61883225274552,
       5.799071274313472
      ],
      [
       -75.61882088261139,
       5.79903298538881
      ],
      [
       -75.61880649248526,
       5.798849634540462
      ],
      [
       -75.61880317789372,
       5.798807402752023
      ],
      [
       -75.61881602698307,
       5.798636049390343
      ],
      [
       -75.6188212515763,
       5.798467362157626
      ],
      [
       -75.61880631688398,
       5.798411695441612
      ],
      [
       -75.61879955108807,
       5.79838037365135
      ],
      [
       -75.61879777547644,
       5.798372154843673
      ],
      [
       -75.61885031564834,
       5.798020690052042
      ],
      [
       -75.61886314432162,
       5.797981855178839
      ],
      [
       -75.6189405519427,
       5.7977473883828905
      ],
      [
       -75.61898842468358,
       5.797626690660405
      ],
      [
       -75.61898841999502,
       5.797626652711221
      ],
      [
       -75.61897545718854,
       5.797512169016824
      ],
      [
       -75.61896686417013,
       5.7973753418363625
      ],
      [
       -75.618938012918,
       5.797167684211219
      ],
      [
       -75.61892766101339,
       5.797054624084939
      ],
      [
       -75.61894584392176,
       5.796920177270251
      ],
      [
       -75.61897589164728,
       5.796764945266376
      ],
      [
       -75.61899465838236,
       5.796712051785381
      ],
      [
       -75.61899673180162,
       5.79662730384192
      ],
      [
       -75.61899721727362,
       5.796546640595148
      ],
      [
       -75.61899724822918,
       5.796310687586885
      ],
      [
       -75.61899983519402,
       5.796188535948999
      ],
      [
       -75.61901324097639,
       5.7960771559589075
      ],
      [
       -75.61903830736689,
       5.795888975640536
      ],
      [
       -75.61906572591766,
       5.795780197829062
      ],
      [
       -75.6190853396004,
       5.7956721613021305
      ],
      [
       -75.61909570823751,
       5.795516830518132
      ],
      [
       -75.6190990224442,
       5.795434915615335
      ],
      [
       -75.61908516649957,
       5.7953801931600735
      ],
      [
       -75.61906188072018,
       5.795287037166915
      ],
      [
       -75.61901175086443,
       5.795208396310451
      ],
      [
       -75.61896846327262,
       5.795144011693904
      ],
      [
       -75.61891076856669,
       5.79506295035849
      ],
      [
       -75.61883868790953,
       5.794969994720458
      ],
      [
       -75.61876909591845,
       5.794898556142411
      ],
      [
       -75.6187233978605,
       5.794829399204126
      ],
      [
       -75.61867531134283,
       5.7947602523993655
      ],
      [
       -75.61863675665904,
       5.79468627807404
      ],
      [
       -75.61861509926943,
       5.79463556232824
      ],
      [
       -75.6185908821909,
       5.7945788499752044
      ],
      [
       -75.61857379988794,
       5.794499992001376
      ],
      [
       -75.61856627146511,
       5.79442108984347
      ],
      [
       -75.61857542743425,
       5.7943349349341196
      ],
      [
       -75.61858469368063,
       5.794272699372016
      ],
      [
       -75.61862727535313,
       5.7941839977263445
      ],
      [
       -75.61863061913259,
       5.794180324400629
      ],
      [
       -75.61858648058399,
       5.794085028091694
      ],
      [
       -75.61849963896289,
       5.7939054313253315
      ],
      [
       -75.61842496755122,
       5.7936960850047345
      ],
      [
       -75.61840046191524,
       5.793542086169862
      ],
      [
       -75.61839188278239,
       5.79341342346067
      ],
      [
       -75.61839708603961,
       5.793277932784876
      ],
      [
       -75.61842069631423,
       5.793126444490849
      ],
      [
       -75.6184334905224,
       5.7930597473124825
      ],
      [
       -75.61835691654801,
       5.793041177343665
      ],
      [
       -75.61830531482065,
       5.793026193178356
      ],
      [
       -75.61826531044177,
       5.793026989263199
      ],
      [
       -75.61821022439294,
       5.7930451191700865
      ],
      [
       -75.6181594524397,
       5.7930666121578875
      ],
      [
       -75.61811376251079,
       5.793090628413985
      ],
      [
       -75.61805627909031,
       5.793131716481265
      ],
      [
       -75.61798500491427,
       5.7931819306850505
      ],
      [
       -75.6178952072224,
       5.793273406351219
      ],
      [
       -75.61783990017177,
       5.793339769367509
      ],
      [
       -75.6177546974613,
       5.793428968139196
      ],
      [
       -75.61768576698599,
       5.7934677088015585
      ],
      [
       -75.61762377439746,
       5.793492699039465
      ],
      [
       -75.61757204047201,
       5.793508395937118
      ],
      [
       -75.61752281254327,
       5.793519812231588
      ],
      [
       -75.61745621562504,
       5.79354937572888
      ],
      [
       -75.61736658515987,
       5.7936041028745455
      ],
      [
       -75.6172401516016,
       5.793688523407538
      ],
      [
       -75.61717576247064,
       5.793736471795264
      ],
      [
       -75.6171320307612,
       5.793777621035505
      ],
      [
       -75.61708596364025,
       5.79382794743396
      ],
      [
       -75.61704708479459,
       5.793853033331575
      ],
      [
       -75.61700559622304,
       5.793862043361074
      ],
      [
       -75.61692539619034,
       5.793859389864349
      ],
      [
       -75.61687501970546,
       5.793849978036028
      ],
      [
       -75.61679715327577,
       5.793838148272436
      ],
      [
       -75.61671467233734,
       5.793833187247317
      ],
      [
       -75.61665962863964,
       5.793842130605188
      ],
      [
       -75.61657925935845,
       5.793876225588429
      ],
      [
       -75.61652186167119,
       5.793898938860146
      ],
      [
       -75.61645071300698,
       5.793921591804276
      ],
      [
       -75.61636583462116,
       5.793939588927607
      ],
      [
       -75.61629705009716,
       5.793946173736906
      ],
      [
       -75.61621812108022,
       5.793951573157079
      ],
      [
       -75.61612738944756,
       5.79396149772193
      ],
      [
       -75.6160677617384,
       5.793970419717455
      ],
      [
       -75.61598192088628,
       5.793974859271752
      ],
      [
       -75.61589362163862,
       5.7939627557280415
      ],
      [
       -75.61579636041384,
       5.793910652263685
      ],
      [
       -75.61572678769187,
       5.793860952281484
      ],
      [
       -75.61565902625838,
       5.793809395997967
      ],
      [
       -75.6155989767643,
       5.793745540357577
      ],
      [
       -75.61554752586007,
       5.79368962251557
      ],
      [
       -75.61549409317183,
       5.793627934994023
      ],
      [
       -75.61543029233025,
       5.793547261029318
      ],
      [
       -75.61535972105479,
       5.793443588003714
      ],
      [
       -75.61530745686359,
       5.793359039221884
      ],
      [
       -75.61525294629145,
       5.793238693247279
      ],
      [
       -75.61523261458812,
       5.793174289776504
      ],
      [
       -75.61519621028857,
       5.793116706698162
      ],
      [
       -75.6151252342508,
       5.793051366289045
      ],
      [
       -75.61502942854418,
       5.79300341911887
      ],
      [
       -75.61491502091238,
       5.792963863513145
      ],
      [
       -75.61480813079608,
       5.792939584529453
      ],
      [
       -75.61468601771931,
       5.792926096279727
      ],
      [
       -75.61458980621009,
       5.7929164799113195
      ],
      [
       -75.61446837635327,
       5.7929090493541935
      ],
      [
       -75.614383571066,
       5.792910969595122
      ],
      [
       -75.61430030747208,
       5.792920519404039
      ],
      [
       -75.61421387982273,
       5.792933182964966
      ],
      [
       -75.61411753125876,
       5.792953425936917
      ],
      [
       -75.61402843689811,
       5.792985089106375
      ],
      [
       -75.61395905456378,
       5.7930285172956
      ],
      [
       -75.61385783023087,
       5.793113049623712
      ],
      [
       -75.61376346890928,
       5.793199909903253
      ],
      [
       -75.6136874638064,
       5.793282259128748
      ],
      [
       -75.61360460312035,
       5.793359983113554
      ],
      [
       -75.61353559987148,
       5.793414800850035
      ],
      [
       -75.61347362365376,
       5.793443236056236
      ],
      [
       -75.61340934413431,
       5.793460176658582
      ],
      [
       -75.6133382368938,
       5.793473640055385
      ],
      [
       -75.61327171362548,
       5.793487126592302
      ],
      [
       -75.6132120977862,
       5.793493751884349
      ],
      [
       -75.61315055804461,
       5.793491097603588
      ],
      [
       -75.61309302174944,
       5.7934725493241395
      ],
      [
       -75.61304554061482,
       5.793465789862033
      ],
      [
       -75.61301478459131,
       5.793466492292436
      ],
      [
       -75.61297438617859,
       5.793855597308687
      ],
      [
       -75.61250606662462,
       5.79502950204112
      ],
      [
       -75.61199858656225,
       5.796246871333595
      ],
      [
       -75.61170634126677,
       5.7970058272538925
      ],
      [
       -75.61167308050767,
       5.797075117060511
      ],
      [
       -75.61106991222042,
       5.797053979962504
      ],
      [
       -75.61059810363582,
       5.797032235427535
      ],
      [
       -75.60971356104767,
       5.796980401164219
      ],
      [
       -75.60872777236816,
       5.796855775729576
      ],
      [
       -75.60782436555093,
       5.796727180551156
      ],
      [
       -75.6072114066849,
       5.796654654883477
      ],
      [
       -75.60689593049635,
       5.7966094629545815
      ],
      [
       -75.60628874789577,
       5.796494474880844
      ],
      [
       -75.60631140626617,
       5.796421438612399
      ],
      [
       -75.60632423843165,
       5.796421297257612
      ],
      [
       -75.60642528598494,
       5.796061029019994
      ],
      [
       -75.60639303777941,
       5.796050585325233
      ],
      [
       -75.60620284471948,
       5.7959889937292495
      ],
      [
       -75.60571438727906,
       5.795830811822755
      ],
      [
       -75.60569334743522,
       5.795823997892153
      ],
      [
       -75.60530577566549,
       5.795682259227608
      ],
      [
       -75.60523189105434,
       5.79564481418552
      ],
      [
       -75.60484263840077,
       5.7954475416620586
      ],
      [
       -75.60439367334911,
       5.795220006353938
      ],
      [
       -75.60357994245167,
       5.794852539280858
      ],
      [
       -75.60352847489398,
       5.794829297896754
      ],
      [
       -75.6033084104432,
       5.794496618419294
      ],
      [
       -75.60303506947386,
       5.79471163752063
      ],
      [
       -75.60267939459023,
       5.795067295867112
      ],
      [
       -75.6025000709484,
       5.7951293571404605
      ],
      [
       -75.60240279146363,
       5.795146361613745
      ],
      [
       -75.60212447633258,
       5.79519501191071
      ],
      [
       -75.60209532160853,
       5.795200108402676
      ],
      [
       -75.60206483666018,
       5.795244883873921
      ],
      [
       -75.60205136394691,
       5.795506150063232
      ],
      [
       -75.60203414113161,
       5.795627674375632
      ],
      [
       -75.60282809259817,
       5.796396320652351
      ],
      [
       -75.60309438074214,
       5.796655877999791
      ],
      [
       -75.60350284880592,
       5.797054021146352
      ],
      [
       -75.60440218496603,
       5.797914695688419
      ],
      [
       -75.60440822077837,
       5.797920471193428
      ],
      [
       -75.60440845017027,
       5.797920690732983
      ],
      [
       -75.60441298723357,
       5.797925032937622
      ],
      [
       -75.6045973675576,
       5.798101485964174
      ],
      [
       -75.60485569239563,
       5.798353891885661
      ],
      [
       -75.60522313041001,
       5.798712910425509
      ],
      [
       -75.60557203259513,
       5.799053816592027
      ],
      [
       -75.60717318960992,
       5.80055342678224
      ],
      [
       -75.60719674135808,
       5.800576430954926
      ],
      [
       -75.60740532578775,
       5.800780163338827
      ],
      [
       -75.60804265502523,
       5.8014026659590625
      ],
      [
       -75.6085208106623,
       5.801858265895178
      ],
      [
       -75.60876593316499,
       5.802091825136822
      ],
      [
       -75.60922797176248,
       5.80254049262258
      ],
      [
       -75.60926975257527,
       5.802581064590156
      ],
      [
       -75.60930364180885,
       5.802616318129395
      ],
      [
       -75.60969104174522,
       5.803019320006509
      ],
      [
       -75.60973540114296,
       5.80306546628662
      ],
      [
       -75.61021051653097,
       5.803559713204047
      ],
      [
       -75.61023811818434,
       5.803588425752454
      ],
      [
       -75.61091191004071,
       5.804306676196348
      ],
      [
       -75.61179855855457,
       5.805322148369612
      ],
      [
       -75.61188290987822,
       5.805418755708303
      ],
      [
       -75.61213370300976,
       5.805847920172367
      ],
      [
       -75.61266513242374,
       5.806757315137278
      ],
      [
       -75.61288784864372,
       5.8071384314210075
      ],
      [
       -75.61294426308808,
       5.807390255821008
      ],
      [
       -75.61298801065072,
       5.807457057033301
      ],
      [
       -75.61326122710112,
       5.807775506844011
      ]
     ]
    ]
   }
  }
 ]
}