{
 "type": "FeatureCollection",
 "features": [
  {
   "type": "Feature",
   "properties": {
    "name": "AP 2 PARTE ALTA",
    "npn": "053900001000000020059000000000",
    "matricula": "023-16155",
    "ficha": 13902420,
    "municipio": "La Pintada (05390)",
    "vereda_code": "39020010000002",
    "source": "Catastro Antioquia — BCGS_Catastro_Publico, capa 10 (R LC Terreno Predio)",
    "retrieved": "2026-08-21",
    "role": "sabaleticas",
    "status": "UNCONFIRMED — adjacent parcel whose area (41.16 ha) almost exactly closes the gap between AP 1 (151.85 ha) and the 2003 plano total (193.41 ha). Ownership not established."
   },
   "geometry": {
    "type": "Polygon",
    "coordinates": [
     [
      [
       -75.59930073919148,
       5.793750764228769
      ],
      [
       -75.59941903490648,
       5.793753748987547
      ],
      [
       -75.59954963152371,
       5.793761222983067
      ],
      [
       -75.59968176779762,
       5.793780456511002
      ],
      [
       -75.59977411430246,
       5.793785195797023
      ],
      [
       -75.59987264689505,
       5.793787934864292
      ],
      [
       -75.59996888836258,
       5.793790660926502
      ],
      [
       -75.60005595335257,
       5.793795644104279
      ],
      [
       -75.60012913969445,
       5.793828128071935
      ],
      [
       -75.60019076260987,
       5.793883528449879
      ],
      [
       -75.60024531962512,
       5.793980239834369
      ],
      [
       -75.60033171736045,
       5.794129920711627
      ],
      [
       -75.60036793926581,
       5.794226550810686
      ],
      [
       -75.6004432073302,
       5.794304980528026
      ],
      [
       -75.60047005623937,
       5.794319333386949
      ],
      [
       -75.60050731351687,
       5.794339250983964
      ],
      [
       -75.600587353243,
       5.794356154977879
      ],
      [
       -75.60064007339587,
       5.794354094744948
      ],
      [
       -75.60073072062455,
       5.7943331123750115
      ],
      [
       -75.60080763357921,
       5.794297423093998
      ],
      [
       -75.60091339111908,
       5.7942243965602085
      ],
      [
       -75.60106502435475,
       5.794142388807069
      ],
      [
       -75.601214334793,
       5.794067260911729
      ],
      [
       -75.60136569208387,
       5.79401510262283
      ],
      [
       -75.60152877632109,
       5.7939653079454985
      ],
      [
       -75.60163906490921,
       5.793932418901636
      ],
      [
       -75.60173530603639,
       5.7939065151192395
      ],
      [
       -75.60177813017039,
       5.793898627355836
      ],
      [
       -75.60179132785241,
       5.793808601633064
      ],
      [
       -75.6018396951453,
       5.793730877087078
      ],
      [
       -75.60184385476953,
       5.793724565573756
      ],
      [
       -75.60184823402695,
       5.793717920349642
      ],
      [
       -75.60189107734271,
       5.7936685017363505
      ],
      [
       -75.60199296800133,
       5.793584766864579
      ],
      [
       -75.60209671137356,
       5.793540731602128
      ],
      [
       -75.60217200369287,
       5.793516661677742
      ],
      [
       -75.60224838741303,
       5.7935032431289
      ],
      [
       -75.60233062632436,
       5.793492645520346
      ],
      [
       -75.60241461976992,
       5.793477054739265
      ],
      [
       -75.60257397413318,
       5.793448242630693
      ],
      [
       -75.60269834123793,
       5.79342466768315
      ],
      [
       -75.60280759634077,
       5.793390085374106
      ],
      [
       -75.6029077137768,
       5.793346721224009
      ],
      [
       -75.60300423853533,
       5.793294707967884
      ],
      [
       -75.60308528824469,
       5.793240910656641
      ],
      [
       -75.60315423025546,
       5.79318460140326
      ],
      [
       -75.60325481176544,
       5.793086312234756
      ],
      [
       -75.60334977678882,
       5.792977613086169
      ],
      [
       -75.60343011406472,
       5.792864298944446
      ],
      [
       -75.60348156362025,
       5.792770784032908
      ],
      [
       -75.60353320018875,
       5.79267041082006
      ],
      [
       -75.6035363652711,
       5.792653912187143
      ],
      [
       -75.60354676811087,
       5.792572586704628
      ],
      [
       -75.60353944606268,
       5.7924895942031265
      ],
      [
       -75.60350761939364,
       5.792377446557741
      ],
      [
       -75.60349346257941,
       5.792337694146664
      ],
      [
       -75.6034931862919,
       5.792336892593734
      ],
      [
       -75.60340332751389,
       5.792072554869215
      ],
      [
       -75.6032785779215,
       5.7917055799298485
      ],
      [
       -75.6032443666187,
       5.7915662683487845
      ],
      [
       -75.6032419819832,
       5.791555690722545
      ],
      [
       -75.60323120507648,
       5.791507891813824
      ],
      [
       -75.60323120663963,
       5.791264079533874
      ],
      [
       -75.60325047911797,
       5.7911667128851265
      ],
      [
       -75.60325111007008,
       5.791092018519987
      ],
      [
       -75.60323815001455,
       5.791034069587965
      ],
      [
       -75.6032273133423,
       5.790987996837105
      ],
      [
       -75.60321504956842,
       5.790968344241715
      ],
      [
       -75.60320588677514,
       5.790958593346909
      ],
      [
       -75.60317385647063,
       5.790924509331378
      ],
      [
       -75.60311258262519,
       5.790903078464014
      ],
      [
       -75.60300580668476,
       5.790869840504779
      ],
      [
       -75.60293688283393,
       5.790844738029325
      ],
      [
       -75.60286554502332,
       5.790813885833139
      ],
      [
       -75.60273758778803,
       5.790743490675707
      ],
      [
       -75.60264786723899,
       5.790627620895643
      ],
      [
       -75.60263592810267,
       5.790517603951799
      ],
      [
       -75.60264236105829,
       5.790435475770476
      ],
      [
       -75.60255947708959,
       5.790414908920464
      ],
      [
       -75.60255223737124,
       5.790413112313645
      ],
      [
       -75.6025008408833,
       5.790400357642397
      ],
      [
       -75.60238935402081,
       5.790380756597739
      ],
      [
       -75.60225353761078,
       5.790355613139226
      ],
      [
       -75.60213457045913,
       5.790311441832092
      ],
      [
       -75.60204311383444,
       5.790265095517732
      ],
      [
       -75.60197462565728,
       5.790207368019335
      ],
      [
       -75.60190094054792,
       5.79013245609306
      ],
      [
       -75.60183561415654,
       5.790036780618392
      ],
      [
       -75.60179250370973,
       5.789942418013873
      ],
      [
       -75.60175630179755,
       5.789841194253596
      ],
      [
       -75.60168346334378,
       5.789732915978093
      ],
      [
       -75.6016081439199,
       5.789665971001221
      ],
      [
       -75.60153804146428,
       5.789608357489408
      ],
      [
       -75.60149855441537,
       5.789575905041124
      ],
      [
       -75.60136835090452,
       5.7894834492508105
      ],
      [
       -75.6012289692253,
       5.789393249633189
      ],
      [
       -75.60115123125432,
       5.78935385487639
      ],
      [
       -75.60107574246673,
       5.7893236587555315
      ],
      [
       -75.60090171081734,
       5.789293022533074
      ],
      [
       -75.60077115729118,
       5.78927636002096
      ],
      [
       -75.60061316774602,
       5.789245794732701
      ],
      [
       -75.6004805243051,
       5.789185483618751
      ],
      [
       -75.60035949738173,
       5.789090772183823
      ],
      [
       -75.60027299391348,
       5.7889640578346695
      ],
      [
       -75.60021085338597,
       5.788898742722575
      ],
      [
       -75.60014053035366,
       5.788864702077374
      ],
      [
       -75.60006957161843,
       5.788846011131536
      ],
      [
       -75.59995615526859,
       5.788831404298066
      ],
      [
       -75.59983358059411,
       5.788833470947498
      ],
      [
       -75.59971754704523,
       5.7888464415416685
      ],
      [
       -75.5995882734267,
       5.788853044813522
      ],
      [
       -75.59940490696782,
       5.788859115013258
      ],
      [
       -75.59931325963858,
       5.788854110822976
      ],
      [
       -75.59925372824443,
       5.7888423613402695
      ],
      [
       -75.59916908363412,
       5.788809827330746
      ],
      [
       -75.5991072816691,
       5.788793471994176
      ],
      [
       -75.5990271362371,
       5.7887793325906705
      ],
      [
       -75.59892015305603,
       5.78877394389758
      ],
      [
       -75.5988025603592,
       5.788776030871619
      ],
      [
       -75.59866618842743,
       5.788773279380383
      ],
      [
       -75.59853443267505,
       5.788774830922759
      ],
      [
       -75.59841943077828,
       5.788780495150995
      ],
      [
       -75.59830518880678,
       5.788789883409319
      ],
      [
       -75.59819272600633,
       5.78882612923711
      ],
      [
       -75.59810530361543,
       5.788899236381725
      ],
      [
       -75.59804778912991,
       5.788947213036295
      ],
      [
       -75.59799948366405,
       5.788986042450038
      ],
      [
       -75.59795077937721,
       5.788997057747071
      ],
      [
       -75.59789257779542,
       5.788991079114768
      ],
      [
       -75.59783555470291,
       5.788979277295067
      ],
      [
       -75.59777736711513,
       5.7889674717650825
      ],
      [
       -75.59771086847289,
       5.788954891548641
      ],
      [
       -75.59757121204989,
       5.7889244085261184
      ],
      [
       -75.59741788095984,
       5.788877785134694
      ],
      [
       -75.59730461872513,
       5.78884656448846
      ],
      [
       -75.59709502655501,
       5.788816621492789
      ],
      [
       -75.5969942026523,
       5.788813873968737
      ],
      [
       -75.59686220161406,
       5.78881512519101
      ],
      [
       -75.59669197535436,
       5.788827925796688
      ],
      [
       -75.59660674852425,
       5.788846591415028
      ],
      [
       -75.59651726523151,
       5.788869158662139
      ],
      [
       -75.59642678481504,
       5.7888979342958455
      ],
      [
       -75.59631527953589,
       5.788937158906027
      ],
      [
       -75.59621202549104,
       5.788964259897478
      ],
      [
       -75.59606748071393,
       5.789000361217382
      ],
      [
       -75.59597346743153,
       5.789011424774946
      ],
      [
       -75.59587035140521,
       5.789008664959616
      ],
      [
       -75.59576246313875,
       5.789011513324138
      ],
      [
       -75.59567091132217,
       5.789021552985965
      ],
      [
       -75.59556768980653,
       5.789041761888088
      ],
      [
       -75.59546678172765,
       5.789057387316125
      ],
      [
       -75.59536126728172,
       5.7890775858929135
      ],
      [
       -75.59533374727258,
       5.789082056947971
      ],
      [
       -75.5953190544766,
       5.78928640959496
      ],
      [
       -75.59529247891997,
       5.789582582251436
      ],
      [
       -75.59526463918922,
       5.789925913289713
      ],
      [
       -75.59519750618688,
       5.790298770013058
      ],
      [
       -75.5951090127628,
       5.79060385307549
      ],
      [
       -75.59500942126803,
       5.790830793521681
      ],
      [
       -75.59490099049117,
       5.791027094315729
      ],
      [
       -75.59493739364726,
       5.791044076289479
      ],
      [
       -75.59504606520514,
       5.791102949869903
      ],
      [
       -75.59515455395352,
       5.791164485884805
      ],
      [
       -75.59523678011486,
       5.791224571773042
      ],
      [
       -75.59532073747587,
       5.791290544348621
      ],
      [
       -75.59541482231607,
       5.791379257981546
      ],
      [
       -75.59546491178108,
       5.791450684514388
      ],
      [
       -75.59551031181987,
       5.791545058318064
      ],
      [
       -75.59554661935815,
       5.79162331324357
      ],
      [
       -75.59557369544376,
       5.7917153073501755
      ],
      [
       -75.59559437489237,
       5.791844234617353
      ],
      [
       -75.59560018950569,
       5.791933626532338
      ],
      [
       -75.59559973342878,
       5.792032389091607
      ],
      [
       -75.59560146395351,
       5.792154128904223
      ],
      [
       -75.5955987493988,
       5.792245990079471
      ],
      [
       -75.59560302566277,
       5.792312618748308
      ],
      [
       -75.59561654275257,
       5.792363208187914
      ],
      [
       -75.59565519467081,
       5.7924299903395475
      ],
      [
       -75.59572829593684,
       5.792480848277918
      ],
      [
       -75.59582438920378,
       5.792515731428736
      ],
      [
       -75.59595650535351,
       5.792540055200764
      ],
      [
       -75.59609232809726,
       5.792558275648869
      ],
      [
       -75.59623666291805,
       5.792568109630032
      ],
      [
       -75.5963609175926,
       5.792581212568209
      ],
      [
       -75.59645655045443,
       5.792594358980895
      ],
      [
       -75.59660765621143,
       5.792637131978919
      ],
      [
       -75.59674484994173,
       5.792694415975903
      ],
      [
       -75.59688656551111,
       5.79277543943678
      ],
      [
       -75.597023602921,
       5.792877114592842
      ],
      [
       -75.59714919148429,
       5.7929764409441145
      ],
      [
       -75.59726576112648,
       5.793043570775389
      ],
      [
       -75.59735726020645,
       5.793080731241998
      ],
      [
       -75.59743540475198,
       5.7931366593346505
      ],
      [
       -75.59745091428957,
       5.793147758163995
      ],
      [
       -75.59749880632967,
       5.79319850354321
      ],
      [
       -75.59753973935887,
       5.793267592146123
      ],
      [
       -75.59759181472398,
       5.793405635645755
      ],
      [
       -75.59764180872368,
       5.793497733191043
      ],
      [
       -75.59766686909522,
       5.79353000162333
      ],
      [
       -75.59772855429966,
       5.793571621157143
      ],
      [
       -75.59781139216045,
       5.793605058430636
      ],
      [
       -75.59790249169866,
       5.793622930152673
      ],
      [
       -75.59798041015807,
       5.793623278803371
      ],
      [
       -75.59809043367909,
       5.793619178529555
      ],
      [
       -75.59818313031764,
       5.793620915834255
      ],
      [
       -75.59830206638654,
       5.793633629457136
      ],
      [
       -75.59839963475878,
       5.793659609064563
      ],
      [
       -75.59853233253823,
       5.793708436380234
      ],
      [
       -75.59866965537266,
       5.7937480976309805
      ],
      [
       -75.59879052213805,
       5.793763534413613
      ],
      [
       -75.59890564868446,
       5.793760638298484
      ],
      [
       -75.59900423440145,
       5.793751891808812
      ],
      [
       -75.59914846247685,
       5.793748055646933
      ],
      [
       -75.59930073919148,
       5.793750764228769
      ]
     ]
    ]
   }
  }
 ]
}