{
 "type": "FeatureCollection",
 "features": [
  {
   "type": "Feature",
   "properties": {
    "tipo": "cierre",
    "nombre": "Cierre 32–33",
    "longitud_m": 7,
    "motivo": "bebedero — la cerca se parte para que el ganado tome de ambos lados. NO está en la red de agua (95 m del punto conocido más cercano).",
    "es_cerca": false,
    "fuente": "[owner] Cierre dictado por Manuel. No es una cerca física: cierra el POTRERO, que es lo que importa para el ganado."
   },
   "geometry": {
    "type": "LineString",
    "coordinates": [
     [
      -75.608871,
      5.797948
     ],
     [
      -75.60881,
      5.797939
     ]
    ]
   }
  },
  {
   "type": "Feature",
   "properties": {
    "tipo": "cierre",
    "nombre": "Cierre 16–17",
    "longitud_m": 12,
    "motivo": "coincide a 0 m con Bebedero 2, ya confirmado en ortofoto — el hueco es la cerca partiéndose para el bebedero",
    "es_cerca": false,
    "fuente": "[owner] Cierre dictado por Manuel. No es una cerca física: cierra el POTRERO, que es lo que importa para el ganado."
   },
   "geometry": {
    "type": "LineString",
    "coordinates": [
     [
      -75.608444,
      5.800733
     ],
     [
      -75.608498,
      5.800636
     ]
    ]
   }
  },
  {
   "type": "Feature",
   "properties": {
    "tipo": "cierre",
    "nombre": "Cierre 21–22",
    "longitud_m": 12,
    "motivo": "[ABIERTA] Hay algo, pero Manuel no distingue si es bebedero o saladero. Importa: si es bebedero, hay que conectarlo a la red de agua. 234 m del punto conocido más cercano.",
    "es_cerca": false,
    "fuente": "[owner] Cierre dictado por Manuel. No es una cerca física: cierra el POTRERO, que es lo que importa para el ganado."
   },
   "geometry": {
    "type": "LineString",
    "coordinates": [
     [
      -75.612674,
      5.800419
     ],
     [
      -75.612627,
      5.800322
     ]
    ]
   }
  },
  {
   "type": "Feature",
   "properties": {
    "tipo": "cierre",
    "nombre": "Cierre 19–20",
    "longitud_m": 20,
    "motivo": "Bebedero 4 — identificado aquí por Manuel; el bebedero se reubicó a este punto",
    "es_cerca": false,
    "fuente": "[owner] Cierre dictado por Manuel. No es una cerca física: cierra el POTRERO, que es lo que importa para el ganado."
   },
   "geometry": {
    "type": "LineString",
    "coordinates": [
     [
      -75.614342,
      5.800591
     ],
     [
      -75.614518,
      5.80056
     ]
    ]
   }
  },
  {
   "type": "Feature",
   "properties": {
    "tipo": "cierre",
    "nombre": "Cierre 31–34",
    "longitud_m": 8,
    "motivo": "quiebrapatas",
    "es_cerca": false,
    "fuente": "[owner] Cierre dictado por Manuel. No es una cerca física: cierra el POTRERO, que es lo que importa para el ganado."
   },
   "geometry": {
    "type": "LineString",
    "coordinates": [
     [
      -75.606078,
      5.798004
     ],
     [
      -75.606042,
      5.797939
     ]
    ]
   }
  },
  {
   "type": "Feature",
   "properties": {
    "tipo": "cierre",
    "nombre": "Cierre 42–43",
    "longitud_m": 10,
    "motivo": "quiebrapatas",
    "es_cerca": false,
    "fuente": "[owner] Cierre dictado por Manuel. No es una cerca física: cierra el POTRERO, que es lo que importa para el ganado."
   },
   "geometry": {
    "type": "LineString",
    "coordinates": [
     [
      -75.603197,
      5.795954
     ],
     [
      -75.603222,
      5.795868
     ]
    ]
   }
  },
  {
   "type": "Feature",
   "properties": {
    "tipo": "cierre",
    "nombre": "Cierre 10–11",
    "longitud_m": 14,
    "motivo": "saladero",
    "es_cerca": false,
    "fuente": "[owner] Cierre dictado por Manuel. No es una cerca física: cierra el POTRERO, que es lo que importa para el ganado."
   },
   "geometry": {
    "type": "LineString",
    "coordinates": [
     [
      -75.610955,
      5.802595
     ],
     [
      -75.611011,
      5.802484
     ]
    ]
   }
  },
  {
   "type": "Feature",
   "properties": {
    "tipo": "cierre",
    "nombre": "Cierre 13–beb-3",
    "longitud_m": 5,
    "motivo": "concurre en el Bebedero 3",
    "es_cerca": false,
    "fuente": "[owner] Cierre dictado por Manuel. No es una cerca física: cierra el POTRERO, que es lo que importa para el ganado."
   },
   "geometry": {
    "type": "LineString",
    "coordinates": [
     [
      -75.610794,
      5.801408
     ],
     [
      -75.610781,
      5.801364
     ]
    ]
   }
  },
  {
   "type": "Feature",
   "properties": {
    "tipo": "cierre",
    "nombre": "Cierre 14–beb-3",
    "longitud_m": 4,
    "motivo": "concurre en el Bebedero 3",
    "es_cerca": false,
    "fuente": "[owner] Cierre dictado por Manuel. No es una cerca física: cierra el POTRERO, que es lo que importa para el ganado."
   },
   "geometry": {
    "type": "LineString",
    "coordinates": [
     [
      -75.610749,
      5.801363
     ],
     [
      -75.610781,
      5.801364
     ]
    ]
   }
  },
  {
   "type": "Feature",
   "properties": {
    "tipo": "cierre",
    "nombre": "Cierre 15–beb-3",
    "longitud_m": 3,
    "motivo": "concurre en el Bebedero 3",
    "es_cerca": false,
    "fuente": "[owner] Cierre dictado por Manuel. No es una cerca física: cierra el POTRERO, que es lo que importa para el ganado."
   },
   "geometry": {
    "type": "LineString",
    "coordinates": [
     [
      -75.61081,
      5.801357
     ],
     [
      -75.610781,
      5.801364
     ]
    ]
   }
  },
  {
   "type": "Feature",
   "properties": {
    "tipo": "cierre",
    "nombre": "Cierre 30–35",
    "longitud_m": 113,
    "motivo": "cerca real bajo dosel — el satélite no la ve",
    "es_cerca": true,
    "fuente": "[owner] Cierre dictado por Manuel. No es una cerca física: cierra el POTRERO, que es lo que importa para el ganado."
   },
   "geometry": {
    "type": "LineString",
    "coordinates": [
     [
      -75.616051,
      5.798078
     ],
     [
      -75.616726,
      5.797314
     ]
    ]
   }
  },
  {
   "type": "Feature",
   "properties": {
    "tipo": "cierre",
    "nombre": "Cierre 51–punto",
    "longitud_m": 30,
    "motivo": "llega al lindero en el quiebre que marcó Manuel",
    "es_cerca": true,
    "fuente": "[owner] Cierre dictado por Manuel. No es una cerca física: cierra el POTRERO, que es lo que importa para el ganado."
   },
   "geometry": {
    "type": "LineString",
    "coordinates": [
     [
      -75.617131,
      5.794109
     ],
     [
      -75.617047,
      5.793853
     ]
    ]
   }
  },
  {
   "type": "Feature",
   "properties": {
    "tipo": "cierre",
    "nombre": "Cierre 23–beb-9",
    "longitud_m": 190,
    "motivo": "llega a la esquina donde está el Bebedero 9",
    "es_cerca": true,
    "fuente": "[owner] Cierre dictado por Manuel. No es una cerca física: cierra el POTRERO, que es lo que importa para el ganado."
   },
   "geometry": {
    "type": "LineString",
    "coordinates": [
     [
      -75.610312,
      5.800313
     ],
     [
      -75.610992,
      5.798738
     ]
    ]
   }
  },
  {
   "type": "Feature",
   "properties": {
    "tipo": "cierre",
    "nombre": "Cierre 29–punto",
    "longitud_m": 115,
    "motivo": "cerca real desde el punto que marcó Manuel",
    "es_cerca": true,
    "fuente": "[owner] Cierre dictado por Manuel. No es una cerca física: cierra el POTRERO, que es lo que importa para el ganado."
   },
   "geometry": {
    "type": "LineString",
    "coordinates": [
     [
      -75.615282,
      5.798782
     ],
     [
      -75.616051,
      5.798078
     ]
    ]
   }
  },
  {
   "type": "Feature",
   "properties": {
    "tipo": "cierre",
    "nombre": "Cierre 28–29",
    "longitud_m": 267,
    "motivo": "cerca real que el IGAC no capturó",
    "es_cerca": true,
    "fuente": "[owner] Cierre dictado por Manuel. No es una cerca física: cierra el POTRERO, que es lo que importa para el ganado."
   },
   "geometry": {
    "type": "LineString",
    "coordinates": [
     [
      -75.612872,
      5.798926
     ],
     [
      -75.615282,
      5.798782
     ]
    ]
   }
  },
  {
   "type": "Feature",
   "properties": {
    "tipo": "cierre",
    "nombre": "Cierre 12–punto",
    "longitud_m": 43,
    "motivo": "cerca real hasta el vértice donde se juntan los potreros — 10 m al norte y 16 m al este del quiebre del lindero, según Manuel",
    "es_cerca": true,
    "fuente": "[owner] Cierre dictado por Manuel. No es una cerca física: cierra el POTRERO, que es lo que importa para el ganado."
   },
   "geometry": {
    "type": "LineString",
    "coordinates": [
     [
      -75.616913,
      5.801972
     ],
     [
      -75.617129,
      5.802296
     ]
    ]
   }
  },
  {
   "type": "Feature",
   "properties": {
    "tipo": "cierre",
    "nombre": "Cierre 36–38",
    "longitud_m": 74,
    "motivo": "cerca real que el IGAC no capturó",
    "es_cerca": true,
    "fuente": "[owner] Cierre dictado por Manuel. No es una cerca física: cierra el POTRERO, que es lo que importa para el ganado."
   },
   "geometry": {
    "type": "LineString",
    "coordinates": [
     [
      -75.612991,
      5.797186
     ],
     [
      -75.612339,
      5.797021
     ]
    ]
   }
  },
  {
   "type": "Feature",
   "properties": {
    "tipo": "cierre",
    "nombre": "Cierre punto–punto",
    "longitud_m": 281,
    "motivo": "cerca conocida entre los dos puntos que marcó Manuel",
    "es_cerca": true,
    "fuente": "[owner] Cierre dictado por Manuel. No es una cerca física: cierra el POTRERO, que es lo que importa para el ganado."
   },
   "geometry": {
    "type": "LineString",
    "coordinates": [
     [
      -75.612991,
      5.797186
     ],
     [
      -75.615493,
      5.797618
     ]
    ]
   }
  },
  {
   "type": "Feature",
   "properties": {
    "tipo": "cierre",
    "nombre": "Cierre 26–punto",
    "longitud_m": 19,
    "motivo": "se prolonga al norte hasta cruzar con la que sube desde 27",
    "es_cerca": true,
    "fuente": "[owner] Cierre dictado por Manuel. No es una cerca física: cierra el POTRERO, que es lo que importa para el ganado."
   },
   "geometry": {
    "type": "LineString",
    "coordinates": [
     [
      -75.608802,
      5.799532
     ],
     [
      -75.608776,
      5.799699
     ]
    ]
   }
  },
  {
   "type": "Feature",
   "properties": {
    "tipo": "cierre",
    "nombre": "Cierre 27–punto",
    "longitud_m": 62,
    "motivo": "se prolonga al noroeste hasta cruzar con la que sube desde 26",
    "es_cerca": true,
    "fuente": "[owner] Cierre dictado por Manuel. No es una cerca física: cierra el POTRERO, que es lo que importa para el ganado."
   },
   "geometry": {
    "type": "LineString",
    "coordinates": [
     [
      -75.608265,
      5.799467
     ],
     [
      -75.608776,
      5.799699
     ]
    ]
   }
  },
  {
   "type": "Feature",
   "properties": {
    "tipo": "cierre",
    "nombre": "Cierre punto–punto",
    "longitud_m": 187,
    "motivo": "cerca al oeste desde el cruce; termina sobre una cerca existente, no en un vértice",
    "es_cerca": true,
    "fuente": "[owner] Cierre dictado por Manuel. No es una cerca física: cierra el POTRERO, que es lo que importa para el ganado."
   },
   "geometry": {
    "type": "LineString",
    "coordinates": [
     [
      -75.608776,
      5.799699
     ],
     [
      -75.610425,
      5.800051
     ]
    ]
   }
  },
  {
   "type": "Feature",
   "properties": {
    "tipo": "cierre",
    "nombre": "Cierre punto–punto",
    "longitud_m": 193,
    "motivo": "lado oriente del potrero rectangular que marcó Manuel",
    "es_cerca": true,
    "fuente": "[owner] Cierre dictado por Manuel. No es una cerca física: cierra el POTRERO, que es lo que importa para el ganado."
   },
   "geometry": {
    "type": "LineString",
    "coordinates": [
     [
      -75.608776,
      5.799699
     ],
     [
      -75.60904,
      5.797977
     ]
    ]
   }
  },
  {
   "type": "Feature",
   "properties": {
    "tipo": "cierre",
    "nombre": "Cierre 24–→",
    "longitud_m": 25,
    "motivo": "se prolonga al sursuroeste hasta cortar el borde norte de Serengueti",
    "es_cerca": true,
    "fuente": "[owner] Cierre dictado por Manuel. No es una cerca física: cierra el POTRERO, que es lo que importa para el ganado."
   },
   "geometry": {
    "type": "LineString",
    "coordinates": [
     [
      -75.608978,
      5.799957
     ],
     [
      -75.60911,
      5.79977
     ]
    ]
   }
  },
  {
   "type": "Feature",
   "properties": {
    "tipo": "cierre",
    "nombre": "Cierre 37–punto",
    "longitud_m": 10,
    "motivo": "cerca real hasta un vértice de la represa — la represa hace de lindero del potrero",
    "es_cerca": true,
    "fuente": "[owner] Cierre dictado por Manuel. No es una cerca física: cierra el POTRERO, que es lo que importa para el ganado."
   },
   "geometry": {
    "type": "LineString",
    "coordinates": [
     [
      -75.605119,
      5.797174
     ],
     [
      -75.605116,
      5.79708
     ]
    ]
   }
  },
  {
   "type": "Feature",
   "properties": {
    "tipo": "cierre",
    "nombre": "Cierre punto–punto",
    "longitud_m": 26,
    "motivo": "cerca real entre un vértice de la represa y un vértice del lindero — la represa y el lindero hacen de bordes del potrero",
    "es_cerca": true,
    "fuente": "[owner] Cierre dictado por Manuel. No es una cerca física: cierra el POTRERO, que es lo que importa para el ganado."
   },
   "geometry": {
    "type": "LineString",
    "coordinates": [
     [
      -75.605179,
      5.795883
     ],
     [
      -75.605306,
      5.795682
     ]
    ]
   }
  },
  {
   "type": "Feature",
   "properties": {
    "tipo": "cierre",
    "nombre": "Cierre 39–punto",
    "longitud_m": 20,
    "motivo": "cerca real hasta la esquina NOROCCIDENTAL del corral",
    "es_cerca": true,
    "fuente": "[owner] Cierre dictado por Manuel. No es una cerca física: cierra el POTRERO, que es lo que importa para el ganado."
   },
   "geometry": {
    "type": "LineString",
    "coordinates": [
     [
      -75.615696,
      5.796693
     ],
     [
      -75.615541,
      5.796607
     ]
    ]
   }
  },
  {
   "type": "Feature",
   "properties": {
    "tipo": "cierre",
    "nombre": "Cierre 41–punto",
    "longitud_m": 24,
    "motivo": "cerca real hasta la esquina SUROCCIDENTAL del corral",
    "es_cerca": true,
    "fuente": "[owner] Cierre dictado por Manuel. No es una cerca física: cierra el POTRERO, que es lo que importa para el ganado."
   },
   "geometry": {
    "type": "LineString",
    "coordinates": [
     [
      -75.615718,
      5.796307
     ],
     [
      -75.615555,
      5.796451
     ]
    ]
   }
  }
 ]
}