{
 "type": "FeatureCollection",
 "features": [
  {
   "type": "Feature",
   "properties": {
    "tipo": "cerca_abierta",
    "nombre": "Cerca abierta 45",
    "n": 45,
    "fuente": "[derived] Extremo de cerca que no conecta con nada. El número es estable entre corridas: sirve para dictar cierres."
   },
   "geometry": {
    "type": "Point",
    "coordinates": [
     -75.602009,
     5.795603
    ]
   }
  },
  {
   "type": "Feature",
   "properties": {
    "tipo": "cerca_abierta",
    "nombre": "Cerca abierta 58",
    "n": 58,
    "fuente": "[derived] Extremo de cerca que no conecta con nada. El número es estable entre corridas: sirve para dictar cierres."
   },
   "geometry": {
    "type": "Point",
    "coordinates": [
     -75.607015,
     5.792114
    ]
   }
  },
  {
   "type": "Feature",
   "properties": {
    "tipo": "cerca_abierta",
    "nombre": "Cerca abierta 72",
    "n": 72,
    "fuente": "[derived] Extremo de cerca que no conecta con nada. El número es estable entre corridas: sirve para dictar cierres."
   },
   "geometry": {
    "type": "Point",
    "coordinates": [
     -75.618743,
     5.806856
    ]
   }
  },
  {
   "type": "Feature",
   "properties": {
    "tipo": "cerca_abierta",
    "nombre": "Cerca abierta 73",
    "n": 73,
    "fuente": "[derived] Extremo de cerca que no conecta con nada. El número es estable entre corridas: sirve para dictar cierres."
   },
   "geometry": {
    "type": "Point",
    "coordinates": [
     -75.619512,
     5.804304
    ]
   }
  },
  {
   "type": "Feature",
   "properties": {
    "tipo": "cerca_abierta",
    "nombre": "Cerca abierta 74",
    "n": 74,
    "fuente": "[derived] Extremo de cerca que no conecta con nada. El número es estable entre corridas: sirve para dictar cierres."
   },
   "geometry": {
    "type": "Point",
    "coordinates": [
     -75.617486,
     5.807009
    ]
   }
  },
  {
   "type": "Feature",
   "properties": {
    "tipo": "cerca_abierta",
    "nombre": "Cerca abierta 76",
    "n": 76,
    "fuente": "[derived] Extremo de cerca que no conecta con nada. El número es estable entre corridas: sirve para dictar cierres."
   },
   "geometry": {
    "type": "Point",
    "coordinates": [
     -75.617401,
     5.803243
    ]
   }
  },
  {
   "type": "Feature",
   "properties": {
    "tipo": "cerca_abierta",
    "nombre": "Cerca abierta 77",
    "n": 77,
    "fuente": "[derived] Extremo de cerca que no conecta con nada. El número es estable entre corridas: sirve para dictar cierres."
   },
   "geometry": {
    "type": "Point",
    "coordinates": [
     -75.618791,
     5.802689
    ]
   }
  }
 ]
}