{
 "type": "FeatureCollection",
 "features": [
  {
   "type": "Feature",
   "id": 1801,
   "geometry": {
    "type": "LineString",
    "coordinates": [
     [
      -75.6137298,
      5.8055398
     ],
     [
      -75.6134386,
      5.8061148
     ],
     [
      -75.6141077,
      5.807143
     ]
    ]
   },
   "properties": {
    "OBJECTID": 1801,
    "CeIdentif": "05390200244",
    "CeTipo": 2,
    "RuleID": 2
   }
  },
  {
   "type": "Feature",
   "id": 1813,
   "geometry": {
    "type": "LineString",
    "coordinates": [
     [
      -75.6115039,
      5.8040177
     ],
     [
      -75.6136941,
      5.8045445
     ],
     [
      -75.6136172,
      5.8054825
     ],
     [
      -75.6137298,
      5.8055398
     ],
     [
      -75.6153259,
      5.8063513
     ]
    ]
   },
   "properties": {
    "OBJECTID": 1813,
    "CeIdentif": "05390200256",
    "CeTipo": 2,
    "RuleID": 2
   }
  },
  {
   "type": "Feature",
   "id": 1824,
   "geometry": {
    "type": "LineString",
    "coordinates": [
     [
      -75.6121337,
      5.8058479
     ],
     [
      -75.6134386,
      5.8061148
     ]
    ]
   },
   "properties": {
    "OBJECTID": 1824,
    "CeIdentif": "05390200267",
    "CeTipo": 2,
    "RuleID": 2
   }
  },
  {
   "type": "Feature",
   "id": 1825,
   "geometry": {
    "type": "LineString",
    "coordinates": [
     [
      -75.6035285,
      5.7948293
     ],
     [
      -75.6033725,
      5.7951996
     ],
     [
      -75.6032324,
      5.7958196
     ]
    ]
   },
   "properties": {
    "OBJECTID": 1825,
    "CeIdentif": "05390200268",
    "CeTipo": 2,
    "RuleID": 2
   }
  },
  {
   "type": "Feature",
   "id": 1843,
   "geometry": {
    "type": "LineString",
    "coordinates": [
     [
      -75.609228,
      5.8025405
     ],
     [
      -75.6092698,
      5.8025811
     ],
     [
      -75.609691,
      5.8030193
     ],
     [
      -75.6102105,
      5.8035597
     ],
     [
      -75.6102381,
      5.8035884
     ],
     [
      -75.6109119,
      5.8043067
     ]
    ]
   },
   "properties": {
    "OBJECTID": 1843,
    "CeIdentif": "05390200286",
    "CeTipo": 2,
    "RuleID": 2
   }
  },
  {
   "type": "Feature",
   "id": 1844,
   "geometry": {
    "type": "LineString",
    "coordinates": [
     [
      -75.6074053,
      5.8007802
     ],
     [
      -75.6080427,
      5.8014027
     ],
     [
      -75.6085208,
      5.8018583
     ]
    ]
   },
   "properties": {
    "OBJECTID": 1844,
    "CeIdentif": "05390200287",
    "CeTipo": 2,
    "RuleID": 2
   }
  },
  {
   "type": "Feature",
   "id": 1845,
   "geometry": {
    "type": "LineString",
    "coordinates": [
     [
      -75.6071732,
      5.8005534
     ],
     [
      -75.6071967,
      5.8005764
     ]
    ]
   },
   "properties": {
    "OBJECTID": 1845,
    "CeIdentif": "05390200288",
    "CeTipo": 2,
    "RuleID": 2
   }
  },
  {
   "type": "Feature",
   "id": 1902,
   "geometry": {
    "type": "LineString",
    "coordinates": [
     [
      -75.6048557,
      5.7983539
     ],
     [
      -75.6042655,
      5.8006027
     ]
    ]
   },
   "properties": {
    "OBJECTID": 1902,
    "CeIdentif": "053902002145",
    "CeTipo": 2,
    "RuleID": 2
   }
  },
  {
   "type": "Feature",
   "id": 1917,
   "geometry": {
    "type": "LineString",
    "coordinates": [
     [
      -75.6156955,
      5.7966928
     ],
     [
      -75.6154934,
      5.797618
     ],
     [
      -75.6153438,
      5.7978122
     ],
     [
      -75.6151149,
      5.7978814
     ],
     [
      -75.6138763,
      5.7980917
     ],
     [
      -75.612183,
      5.7983722
     ],
     [
      -75.6115888,
      5.7984862
     ],
     [
      -75.611084,
      5.7985178
     ]
    ]
   },
   "properties": {
    "OBJECTID": 1917,
    "CeIdentif": "053902002160",
    "CeTipo": 2,
    "RuleID": 2
   }
  },
  {
   "type": "Feature",
   "id": 1938,
   "geometry": {
    "type": "LineString",
    "coordinates": [
     [
      -75.6158107,
      5.8004945
     ],
     [
      -75.6163977,
      5.8006701
     ],
     [
      -75.6164528,
      5.8006108
     ],
     [
      -75.6169662,
      5.799688
     ]
    ]
   },
   "properties": {
    "OBJECTID": 1938,
    "CeIdentif": "053902002181",
    "CeTipo": 2,
    "RuleID": 2
   }
  },
  {
   "type": "Feature",
   "id": 1939,
   "geometry": {
    "type": "LineString",
    "coordinates": [
     [
      -75.6169954,
      5.7995541
     ],
     [
      -75.6170032,
      5.7995092
     ],
     [
      -75.6166476,
      5.798542
     ],
     [
      -75.6160508,
      5.7980784
     ]
    ]
   },
   "properties": {
    "OBJECTID": 1939,
    "CeIdentif": "053902002182",
    "CeTipo": 2,
    "RuleID": 2
   }
  },
  {
   "type": "Feature",
   "id": 1963,
   "geometry": {
    "type": "LineString",
    "coordinates": [
     [
      -75.6020087,
      5.795603
     ],
     [
      -75.6028281,
      5.7963963
     ],
     [
      -75.6030944,
      5.7966559
     ],
     [
      -75.6035028,
      5.797054
     ],
     [
      -75.6045974,
      5.7981015
     ],
     [
      -75.6048557,
      5.7983539
     ],
     [
      -75.605572,
      5.7990538
     ],
     [
      -75.6071732,
      5.8005534
     ]
    ]
   },
   "properties": {
    "OBJECTID": 1963,
    "CeIdentif": "053902002206",
    "CeTipo": 2,
    "RuleID": 2
   }
  },
  {
   "type": "Feature",
   "id": 1970,
   "geometry": {
    "type": "LineString",
    "coordinates": [
     [
      -75.6163977,
      5.8006701
     ],
     [
      -75.6156685,
      5.801454
     ],
     [
      -75.6148021,
      5.8023622
     ],
     [
      -75.6144484,
      5.8025426
     ],
     [
      -75.6127219,
      5.8034231
     ],
     [
      -75.6115039,
      5.8040177
     ],
     [
      -75.6109119,
      5.8043067
     ],
     [
      -75.6118829,
      5.8054188
     ],
     [
      -75.6121337,
      5.8058479
     ],
     [
      -75.6126651,
      5.8067573
     ]
    ]
   },
   "properties": {
    "OBJECTID": 1970,
    "CeIdentif": "053902002213",
    "CeTipo": 2,
    "RuleID": 2
   }
  },
  {
   "type": "Feature",
   "id": 1985,
   "geometry": {
    "type": "LineString",
    "coordinates": [
     [
      -75.6075772,
      5.7966241
     ],
     [
      -75.6079233,
      5.79668
     ],
     [
      -75.6081458,
      5.7967073
     ],
     [
      -75.6089413,
      5.7968045
     ],
     [
      -75.6092102,
      5.7968267
     ],
     [
      -75.6106724,
      5.7969472
     ],
     [
      -75.6116972,
      5.7969999
     ],
     [
      -75.612197,
      5.7958279
     ],
     [
      -75.6129056,
      5.7941131
     ],
     [
      -75.6129305,
      5.7940664
     ]
    ]
   },
   "properties": {
    "OBJECTID": 1985,
    "CeIdentif": "053902002228",
    "CeTipo": 2,
    "RuleID": 2
   }
  },
  {
   "type": "Feature",
   "id": 1986,
   "geometry": {
    "type": "LineString",
    "coordinates": [
     [
      -75.6063242,
      5.7964213
     ],
     [
      -75.6073839,
      5.7965928
     ]
    ]
   },
   "properties": {
    "OBJECTID": 1986,
    "CeIdentif": "053902002229",
    "CeTipo": 2,
    "RuleID": 2
   }
  },
  {
   "type": "Feature",
   "id": 2034,
   "geometry": {
    "type": "LineString",
    "coordinates": [
     [
      -75.6051186,
      5.7971744
     ],
     [
      -75.6060416,
      5.7979386
     ]
    ]
   },
   "properties": {
    "OBJECTID": 2034,
    "CeIdentif": "053902002277",
    "CeTipo": 2,
    "RuleID": 2
   }
  },
  {
   "type": "Feature",
   "id": 2059,
   "geometry": {
    "type": "LineString",
    "coordinates": [
     [
      -75.6140957,
      5.7934269
     ],
     [
      -75.6142465,
      5.7940194
     ],
     [
      -75.6157758,
      5.7951831
     ],
     [
      -75.6159035,
      5.7952803
     ]
    ]
   },
   "properties": {
    "OBJECTID": 2059,
    "CeIdentif": "053902002302",
    "CeTipo": 2,
    "RuleID": 2
   }
  },
  {
   "type": "Feature",
   "id": 2091,
   "geometry": {
    "type": "LineString",
    "coordinates": [
     [
      -75.6032324,
      5.7958196
     ],
     [
      -75.6032215,
      5.7958677
     ]
    ]
   },
   "properties": {
    "OBJECTID": 2091,
    "CeIdentif": "053902002334",
    "CeTipo": 1,
    "RuleID": 1
   }
  },
  {
   "type": "Feature",
   "id": 2092,
   "geometry": {
    "type": "LineString",
    "coordinates": [
     [
      -75.6073839,
      5.7965928
     ],
     [
      -75.6075772,
      5.7966241
     ]
    ]
   },
   "properties": {
    "OBJECTID": 2092,
    "CeIdentif": "053902002335",
    "CeTipo": 1,
    "RuleID": 1
   }
  },
  {
   "type": "Feature",
   "id": 2093,
   "geometry": {
    "type": "LineString",
    "coordinates": [
     [
      -75.6159035,
      5.7952803
     ],
     [
      -75.6166337,
      5.7958359
     ]
    ]
   },
   "properties": {
    "OBJECTID": 2093,
    "CeIdentif": "053902002336",
    "CeTipo": 1,
    "RuleID": 1
   }
  },
  {
   "type": "Feature",
   "id": 2094,
   "geometry": {
    "type": "LineString",
    "coordinates": [
     [
      -75.6085208,
      5.8018583
     ],
     [
      -75.6087659,
      5.8020918
     ],
     [
      -75.609228,
      5.8025405
     ]
    ]
   },
   "properties": {
    "OBJECTID": 2094,
    "CeIdentif": "053902002337",
    "CeTipo": 1,
    "RuleID": 1
   }
  },
  {
   "type": "Feature",
   "id": 2095,
   "geometry": {
    "type": "LineString",
    "coordinates": [
     [
      -75.6071967,
      5.8005764
     ],
     [
      -75.6074053,
      5.8007802
     ]
    ]
   },
   "properties": {
    "OBJECTID": 2095,
    "CeIdentif": "053902002338",
    "CeTipo": 1,
    "RuleID": 1
   }
  },
  {
   "type": "Feature",
   "id": 2096,
   "geometry": {
    "type": "LineString",
    "coordinates": [
     [
      -75.6169662,
      5.799688
     ],
     [
      -75.6169751,
      5.7996719
     ],
     [
      -75.6169954,
      5.7995541
     ]
    ]
   },
   "properties": {
    "OBJECTID": 2096,
    "CeIdentif": "053902002339",
    "CeTipo": 1,
    "RuleID": 1
   }
  },
  {
   "type": "Feature",
   "id": 2097,
   "geometry": {
    "type": "LineString",
    "coordinates": [
     [
      -75.6153259,
      5.8063513
     ],
     [
      -75.6153277,
      5.8063522
     ]
    ]
   },
   "properties": {
    "OBJECTID": 2097,
    "CeIdentif": "053902002340",
    "CeTipo": 1,
    "RuleID": 1
   }
  },
  {
   "type": "Feature",
   "id": 2100,
   "geometry": {
    "type": "LineString",
    "coordinates": [
     [
      -75.6141077,
      5.807143
     ],
     [
      -75.6141121,
      5.8071498
     ]
    ]
   },
   "properties": {
    "OBJECTID": 2100,
    "CeIdentif": "053902002343",
    "CeTipo": 1,
    "RuleID": 1
   }
  },
  {
   "type": "Feature",
   "id": 2101,
   "geometry": {
    "type": "LineString",
    "coordinates": [
     [
      -75.6126651,
      5.8067573
     ],
     [
      -75.6131106,
      5.8075195
     ]
    ]
   },
   "properties": {
    "OBJECTID": 2101,
    "CeIdentif": "053902002344",
    "CeTipo": 1,
    "RuleID": 1
   }
  },
  {
   "type": "Feature",
   "id": 2416,
   "geometry": {
    "type": "LineString",
    "coordinates": [
     [
      -75.6030944,
      5.7966559
     ],
     [
      -75.6033207,
      5.7964018
     ],
     [
      -75.6031336,
      5.7962269
     ],
     [
      -75.6031969,
      5.7959539
     ]
    ]
   },
   "properties": {
    "OBJECTID": 2416,
    "CeIdentif": "053902002658",
    "CeTipo": 2,
    "RuleID": 2
   }
  },
  {
   "type": "Feature",
   "id": 2417,
   "geometry": {
    "type": "LineString",
    "coordinates": [
     [
      -75.6033084,
      5.7944966
     ],
     [
      -75.6035285,
      5.7948293
     ],
     [
      -75.6043937,
      5.79522
     ],
     [
      -75.6053058,
      5.7956823
     ],
     [
      -75.6056933,
      5.795824
     ],
     [
      -75.6064253,
      5.796061
     ]
    ]
   },
   "properties": {
    "OBJECTID": 2417,
    "CeIdentif": "053902002659",
    "CeTipo": 2,
    "RuleID": 2
   }
  },
  {
   "type": "Feature",
   "id": 2418,
   "geometry": {
    "type": "LineString",
    "coordinates": [
     [
      -75.6060777,
      5.7980042
     ],
     [
      -75.6069048,
      5.7986671
     ],
     [
      -75.6073005,
      5.7990152
     ],
     [
      -75.607649,
      5.7991817
     ],
     [
      -75.6079079,
      5.7993054
     ],
     [
      -75.6082645,
      5.7994669
     ]
    ]
   },
   "properties": {
    "OBJECTID": 2418,
    "CeIdentif": "053902002660",
    "CeTipo": 2,
    "RuleID": 2
   }
  },
  {
   "type": "Feature",
   "id": 2419,
   "geometry": {
    "type": "LineString",
    "coordinates": [
     [
      -75.606957,
      5.794439
     ],
     [
      -75.6064253,
      5.796061
     ],
     [
      -75.6063242,
      5.7964213
     ]
    ]
   },
   "properties": {
    "OBJECTID": 2419,
    "CeIdentif": "053902002661",
    "CeTipo": 2,
    "RuleID": 2
   }
  },
  {
   "type": "Feature",
   "id": 2425,
   "geometry": {
    "type": "LineString",
    "coordinates": [
     [
      -75.6171313,
      5.7941094
     ],
     [
      -75.6172857,
      5.7944685
     ],
     [
      -75.6171332,
      5.7945342
     ],
     [
      -75.6172719,
      5.795211
     ],
     [
      -75.6173525,
      5.7957101
     ],
     [
      -75.6173456,
      5.796288
     ],
     [
      -75.6167633,
      5.796373
     ]
    ]
   },
   "properties": {
    "OBJECTID": 2425,
    "CeIdentif": "053902002667",
    "CeTipo": 2,
    "RuleID": 2
   }
  },
  {
   "type": "Feature",
   "id": 2426,
   "geometry": {
    "type": "LineString",
    "coordinates": [
     [
      -75.6166337,
      5.7958359
     ],
     [
      -75.6167297,
      5.7959407
     ],
     [
      -75.6167344,
      5.7960003
     ],
     [
      -75.6167633,
      5.796373
     ],
     [
      -75.6167265,
      5.7973137
     ]
    ]
   },
   "properties": {
    "OBJECTID": 2426,
    "CeIdentif": "053902002668",
    "CeTipo": 2,
    "RuleID": 2
   }
  },
  {
   "type": "Feature",
   "id": 2427,
   "geometry": {
    "type": "LineString",
    "coordinates": [
     [
      -75.6167344,
      5.7960003
     ],
     [
      -75.6165149,
      5.7959608
     ],
     [
      -75.6163192,
      5.7960024
     ],
     [
      -75.615926,
      5.7961836
     ],
     [
      -75.6157177,
      5.7963069
     ]
    ]
   },
   "properties": {
    "OBJECTID": 2427,
    "CeIdentif": "053902002669",
    "CeTipo": 2,
    "RuleID": 2
   }
  },
  {
   "type": "Feature",
   "id": 2428,
   "geometry": {
    "type": "LineString",
    "coordinates": [
     [
      -75.6157758,
      5.7951831
     ],
     [
      -75.6154066,
      5.7954301
     ],
     [
      -75.6144585,
      5.7955555
     ],
     [
      -75.614132,
      5.7955987
     ],
     [
      -75.6141118,
      5.7956059
     ],
     [
      -75.6138315,
      5.7957053
     ],
     [
      -75.6135859,
      5.795795
     ],
     [
      -75.6129338,
      5.7957597
     ],
     [
      -75.6130503,
      5.7951277
     ],
     [
      -75.6131436,
      5.7946393
     ],
     [
      -75.6133851,
      5.7941908
     ]
    ]
   },
   "properties": {
    "OBJECTID": 2428,
    "CeIdentif": "053902002670",
    "CeTipo": 2,
    "RuleID": 2
   }
  },
  {
   "type": "Feature",
   "id": 2429,
   "geometry": {
    "type": "LineString",
    "coordinates": [
     [
      -75.6144585,
      5.7955555
     ],
     [
      -75.6142764,
      5.794536
     ],
     [
      -75.6140786,
      5.7943874
     ]
    ]
   },
   "properties": {
    "OBJECTID": 2429,
    "CeIdentif": "053902002671",
    "CeTipo": 2,
    "RuleID": 2
   }
  },
  {
   "type": "Feature",
   "id": 2430,
   "geometry": {
    "type": "LineString",
    "coordinates": [
     [
      -75.6141118,
      5.7956059
     ],
     [
      -75.614244,
      5.7960613
     ],
     [
      -75.6140682,
      5.7960659
     ],
     [
      -75.6137261,
      5.7960503
     ],
     [
      -75.6136173,
      5.796068
     ],
     [
      -75.6134704,
      5.7961203
     ],
     [
      -75.6131864,
      5.7962766
     ],
     [
      -75.6130072,
      5.796354
     ],
     [
      -75.6127611,
      5.7964298
     ],
     [
      -75.6126027,
      5.7964803
     ],
     [
      -75.6122885,
      5.7967114
     ],
     [
      -75.6121076,
      5.7968423
     ],
     [
      -75.6120104,
      5.7969002
     ],
     [
      -75.6118215,
      5.796968
     ],
     [
      -75.6116972,
      5.7969999
     ]
    ]
   },
   "properties": {
    "OBJECTID": 2430,
    "CeIdentif": "053902002672",
    "CeTipo": 2,
    "RuleID": 2
   }
  },
  {
   "type": "Feature",
   "id": 2440,
   "geometry": {
    "type": "LineString",
    "coordinates": [
     [
      -75.6080427,
      5.8014027
     ],
     [
      -75.6084444,
      5.8007334
     ]
    ]
   },
   "properties": {
    "OBJECTID": 2440,
    "CeIdentif": "053902002682",
    "CeTipo": 2,
    "RuleID": 2
   }
  },
  {
   "type": "Feature",
   "id": 2441,
   "geometry": {
    "type": "LineString",
    "coordinates": [
     [
      -75.6089776,
      5.7999573
     ],
     [
      -75.6084977,
      5.8006363
     ]
    ]
   },
   "properties": {
    "OBJECTID": 2441,
    "CeIdentif": "053902002683",
    "CeTipo": 2,
    "RuleID": 2
   }
  },
  {
   "type": "Feature",
   "id": 2442,
   "geometry": {
    "type": "LineString",
    "coordinates": [
     [
      -75.6076283,
      5.7975844
     ],
     [
      -75.6080678,
      5.79777
     ],
     [
      -75.6088101,
      5.7979388
     ]
    ]
   },
   "properties": {
    "OBJECTID": 2442,
    "CeIdentif": "053902002684",
    "CeTipo": 2,
    "RuleID": 2
   }
  },
  {
   "type": "Feature",
   "id": 2443,
   "geometry": {
    "type": "LineString",
    "coordinates": [
     [
      -75.6107493,
      5.8013631
     ],
     [
      -75.6098273,
      5.8013673
     ]
    ]
   },
   "properties": {
    "OBJECTID": 2443,
    "CeIdentif": "053902002685",
    "CeTipo": 2,
    "RuleID": 2
   }
  },
  {
   "type": "Feature",
   "id": 2444,
   "geometry": {
    "type": "LineString",
    "coordinates": [
     [
      -75.6108104,
      5.801357
     ],
     [
      -75.6123179,
      5.8013405
     ],
     [
      -75.6129535,
      5.8013273
     ],
     [
      -75.6148021,
      5.8023622
     ]
    ]
   },
   "properties": {
    "OBJECTID": 2444,
    "CeIdentif": "053902002686",
    "CeTipo": 2,
    "RuleID": 2
   }
  },
  {
   "type": "Feature",
   "id": 2445,
   "geometry": {
    "type": "LineString",
    "coordinates": [
     [
      -75.6088713,
      5.7979479
     ],
     [
      -75.60904,
      5.7979768
     ],
     [
      -75.6088019,
      5.7995321
     ]
    ]
   },
   "properties": {
    "OBJECTID": 2445,
    "CeIdentif": "053902002687",
    "CeTipo": 2,
    "RuleID": 2
   }
  },
  {
   "type": "Feature",
   "id": 2446,
   "geometry": {
    "type": "LineString",
    "coordinates": [
     [
      -75.60904,
      5.7979768
     ],
     [
      -75.6092143,
      5.7979954
     ],
     [
      -75.6098746,
      5.7982411
     ],
     [
      -75.6102286,
      5.7983423
     ],
     [
      -75.6109923,
      5.7987383
     ],
     [
      -75.611084,
      5.7985178
     ],
     [
      -75.6116703,
      5.7971083
     ]
    ]
   },
   "properties": {
    "OBJECTID": 2446,
    "CeIdentif": "053902002688",
    "CeTipo": 2,
    "RuleID": 2
   }
  },
  {
   "type": "Feature",
   "id": 2447,
   "geometry": {
    "type": "LineString",
    "coordinates": [
     [
      -75.6103117,
      5.800313
     ],
     [
      -75.6098273,
      5.8013673
     ],
     [
      -75.6092698,
      5.8025811
     ]
    ]
   },
   "properties": {
    "OBJECTID": 2447,
    "CeIdentif": "053902002689",
    "CeTipo": 2,
    "RuleID": 2
   }
  },
  {
   "type": "Feature",
   "id": 2448,
   "geometry": {
    "type": "LineString",
    "coordinates": [
     [
      -75.6123908,
      5.7996022
     ],
     [
      -75.612627,
      5.8003223
     ]
    ]
   },
   "properties": {
    "OBJECTID": 2448,
    "CeIdentif": "053902002690",
    "CeTipo": 2,
    "RuleID": 2
   }
  },
  {
   "type": "Feature",
   "id": 2449,
   "geometry": {
    "type": "LineString",
    "coordinates": [
     [
      -75.6126741,
      5.800419
     ],
     [
      -75.6128449,
      5.8009742
     ],
     [
      -75.6129535,
      5.8013273
     ]
    ]
   },
   "properties": {
    "OBJECTID": 2449,
    "CeIdentif": "053902002691",
    "CeTipo": 2,
    "RuleID": 2
   }
  },
  {
   "type": "Feature",
   "id": 2450,
   "geometry": {
    "type": "LineString",
    "coordinates": [
     [
      -75.6128717,
      5.7989263
     ],
     [
      -75.6128342,
      5.7992135
     ],
     [
      -75.6132549,
      5.7998006
     ],
     [
      -75.6137494,
      5.8002259
     ],
     [
      -75.6138677,
      5.8006201
     ]
    ]
   },
   "properties": {
    "OBJECTID": 2450,
    "CeIdentif": "053902002692",
    "CeTipo": 2,
    "RuleID": 2
   }
  },
  {
   "type": "Feature",
   "id": 2451,
   "geometry": {
    "type": "LineString",
    "coordinates": [
     [
      -75.6128449,
      5.8009742
     ],
     [
      -75.6133377,
      5.8009365
     ],
     [
      -75.6138677,
      5.8006201
     ],
     [
      -75.6143423,
      5.800591
     ]
    ]
   },
   "properties": {
    "OBJECTID": 2451,
    "CeIdentif": "053902002693",
    "CeTipo": 2,
    "RuleID": 2
   }
  },
  {
   "type": "Feature",
   "id": 2452,
   "geometry": {
    "type": "LineString",
    "coordinates": [
     [
      -75.6145183,
      5.8005602
     ],
     [
      -75.6158107,
      5.8004945
     ],
     [
      -75.6158302,
      5.8001894
     ],
     [
      -75.6159662,
      5.7999077
     ],
     [
      -75.6152818,
      5.7987819
     ]
    ]
   },
   "properties": {
    "OBJECTID": 2452,
    "CeIdentif": "053902002694",
    "CeTipo": 2,
    "RuleID": 2
   }
  },
  {
   "type": "Feature",
   "id": 2453,
   "geometry": {
    "type": "LineString",
    "coordinates": [
     [
      -75.610794,
      5.8014085
     ],
     [
      -75.6110581,
      5.8023641
     ],
     [
      -75.6110109,
      5.8024839
     ]
    ]
   },
   "properties": {
    "OBJECTID": 2453,
    "CeIdentif": "053902002695",
    "CeTipo": 2,
    "RuleID": 2
   }
  },
  {
   "type": "Feature",
   "id": 2454,
   "geometry": {
    "type": "LineString",
    "coordinates": [
     [
      -75.6109547,
      5.8025948
     ],
     [
      -75.6106592,
      5.8032569
     ],
     [
      -75.6102105,
      5.8035597
     ]
    ]
   },
   "properties": {
    "OBJECTID": 2454,
    "CeIdentif": "053902002696",
    "CeTipo": 2,
    "RuleID": 2
   }
  },
  {
   "type": "Feature",
   "id": 2455,
   "geometry": {
    "type": "LineString",
    "coordinates": [
     [
      -75.6110581,
      5.8023641
     ],
     [
      -75.6114134,
      5.8023774
     ],
     [
      -75.6120295,
      5.8026048
     ],
     [
      -75.6127219,
      5.8034231
     ]
    ]
   },
   "properties": {
    "OBJECTID": 2455,
    "CeIdentif": "053902002697",
    "CeTipo": 2,
    "RuleID": 2
   }
  },
  {
   "type": "Feature",
   "id": 2464,
   "geometry": {
    "type": "LineString",
    "coordinates": [
     [
      -75.6123391,
      5.7970213
     ],
     [
      -75.6116703,
      5.7971083
     ],
     [
      -75.6109953,
      5.7971057
     ],
     [
      -75.6101395,
      5.7970451
     ],
     [
      -75.6092305,
      5.7969588
     ],
     [
      -75.6091964,
      5.7969541
     ],
     [
      -75.6080059,
      5.7967894
     ],
     [
      -75.6075707,
      5.7967415
     ],
     [
      -75.6076283,
      5.7975844
     ],
     [
      -75.6076454,
      5.7980657
     ],
     [
      -75.6079196,
      5.7986057
     ],
     [
      -75.607649,
      5.7991817
     ]
    ]
   },
   "properties": {
    "OBJECTID": 2464,
    "CeIdentif": "053902002706",
    "CeTipo": 2,
    "RuleID": 2
   }
  },
  {
   "type": "Feature",
   "id": 2465,
   "geometry": {
    "type": "LineString",
    "coordinates": [
     [
      -75.6091964,
      5.7969541
     ],
     [
      -75.60904,
      5.7979768
     ]
    ]
   },
   "properties": {
    "OBJECTID": 2465,
    "CeIdentif": "053902002707",
    "CeTipo": 2,
    "RuleID": 2
   }
  },
  {
   "type": "Feature",
   "id": 2467,
   "geometry": {
    "type": "LineString",
    "coordinates": [
     [
      -75.6144484,
      5.8025426
     ],
     [
      -75.6152282,
      5.8030141
     ],
     [
      -75.6157807,
      5.8036963
     ],
     [
      -75.6159577,
      5.8045374
     ]
    ]
   },
   "properties": {
    "OBJECTID": 2467,
    "CeIdentif": "053902002709",
    "CeTipo": 2,
    "RuleID": 2
   }
  },
  {
   "type": "Feature",
   "id": 2469,
   "geometry": {
    "type": "LineString",
    "coordinates": [
     [
      -75.6156685,
      5.801454
     ],
     [
      -75.6169135,
      5.8019724
     ]
    ]
   },
   "properties": {
    "OBJECTID": 2469,
    "CeIdentif": "053902002710",
    "CeTipo": 2,
    "RuleID": 2
   }
  },
  {
   "type": "Feature",
   "id": 2470,
   "geometry": {
    "type": "LineString",
    "coordinates": [
     [
      -75.6153873,
      5.7964958
     ],
     [
      -75.6152748,
      5.7964677
     ],
     [
      -75.6150127,
      5.7963866
     ],
     [
      -75.6147085,
      5.7963
     ],
     [
      -75.6143239,
      5.7961927
     ],
     [
      -75.614198,
      5.7962277
     ],
     [
      -75.6139815,
      5.7965101
     ],
     [
      -75.612991,
      5.7971863
     ]
    ]
   },
   "properties": {
    "OBJECTID": 2470,
    "CeIdentif": "053902002711",
    "CeTipo": 2,
    "RuleID": 2
   }
  },
  {
   "type": "Feature",
   "id": 2472,
   "geometry": {
    "type": "LineString",
    "coordinates": [
     [
      -75.6070146,
      5.7921138
     ],
     [
      -75.6066363,
      5.7925269
     ],
     [
      -75.6065412,
      5.792625
     ],
     [
      -75.6063565,
      5.7927674
     ],
     [
      -75.6060248,
      5.7929259
     ],
     [
      -75.6057617,
      5.7930591
     ],
     [
      -75.6054704,
      5.7932805
     ],
     [
      -75.6052013,
      5.7933506
     ],
     [
      -75.6050449,
      5.7934126
     ],
     [
      -75.6048107,
      5.7935802
     ],
     [
      -75.6045346,
      5.7937919
     ],
     [
      -75.6040415,
      5.7941731
     ],
     [
      -75.6037595,
      5.7943505
     ],
     [
      -75.6035323,
      5.7943955
     ],
     [
      -75.6033568,
      5.7944595
     ],
     [
      -75.6033084,
      5.7944966
     ],
     [
      -75.6030351,
      5.7947116
     ],
     [
      -75.6026794,
      5.7950673
     ],
     [
      -75.6025001,
      5.7951294
     ],
     [
      -75.6020953,
      5.7952001
     ]
    ]
   },
   "properties": {
    "OBJECTID": 2472,
    "CeIdentif": "053902002713",
    "CeTipo": 2,
    "RuleID": 2
   }
  }
 ]
}