{"type":"FeatureCollection","features":[{"type":"Feature","properties":{"elev":625},"geometry":{"type":"MultiLineString","coordinates":[[[-75.618582,5.791309],[-75.618783,5.791628],[-75.618894,5.791852],[-75.618926,5.792106],[-75.618927,5.79248],[-75.619036,5.792447],[-75.619089,5.792468],[-75.619222,5.792974],[-75.619405,5.793119],[-75.619419,5.793264],[-75.619446,5.7933],[-75.619578,5.79336],[-75.619614,5.79335],[-75.619749,5.793192],[-75.619831,5.792996],[-75.619978,5.792793],[-75.619988,5.792721],[-75.61992,5.792504],[-75.619976,5.792367],[-75.620012,5.792337],[-75.620048,5.79234],[-75.620193,5.792444],[-75.620265,5.79245],[-75.620564,5.792178],[-75.620586,5.792106],[-75.620568,5.791961],[-75.620594,5.791707],[-75.620584,5.791526],[-75.620699,5.791589]]]}},{"type":"Feature","properties":{"elev":650},"geometry":{"type":"MultiLineString","coordinates":[[[-75.616664,5.791309],[-75.616702,5.791526],[-75.616619,5.791888],[-75.61664,5.792069],[-75.616719,5.792214],[-75.616975,5.792437],[-75.617149,5.792685],[-75.617238,5.792938],[-75.617259,5.793192],[-75.617226,5.7933],[-75.617156,5.793359],[-75.616903,5.793355],[-75.616794,5.793402],[-75.616613,5.793627],[-75.616453,5.793771],[-75.61641,5.793843],[-75.616476,5.793916],[-75.616686,5.794032],[-75.61712,5.794142],[-75.617626,5.794004],[-75.617734,5.794002],[-75.617777,5.794024],[-75.617809,5.794097],[-75.617723,5.794387],[-75.617737,5.794459],[-75.617807,5.794515],[-75.617987,5.794582],[-75.618052,5.79464],[-75.618047,5.794712],[-75.61796,5.794893],[-75.617936,5.795147],[-75.617847,5.795364],[-75.617867,5.795509],[-75.617855,5.795726],[-75.617932,5.796088],[-75.617877,5.796378],[-75.618116,5.796993],[-75.618133,5.797102],[-75.618109,5.797392],[-75.618237,5.797718],[-75.618264,5.797862],[-75.618234,5.797971],[-75.618021,5.798188],[-75.618035,5.798224],[-75.618204,5.798303],[-75.618302,5.798442],[-75.618341,5.798768],[-75.618495,5.799057],[-75.61851,5.79913],[-75.618428,5.799311],[-75.618385,5.799517],[-75.618349,5.799583],[-75.61824,5.799653],[-75.618027,5.799709],[-75.618008,5.799745],[-75.618026,5.799854],[-75.618181,5.800216],[-75.618218,5.800361],[-75.618214,5.800542],[-75.618132,5.800806],[-75.617976,5.801012],[-75.61787,5.801266],[-75.617662,5.801392],[-75.617363,5.801628],[-75.617158,5.802026],[-75.616798,5.802497],[-75.616757,5.802605],[-75.616668,5.803221],[-75.616613,5.803315],[-75.616434,5.803511],[-75.616272,5.804162],[-75.616226,5.804271],[-75.616159,5.804343],[-75.615948,5.804488],[-75.615806,5.804742],[-75.615673,5.804893],[-75.615434,5.805031],[-75.61549,5.805502],[-75.615475,5.805936],[-75.615673,5.806354],[-75.61571,5.806317],[-75.615762,5.806045],[-75.615782,5.806007],[-75.615854,5.805966],[-75.615963,5.805986],[-75.616397,5.806306],[-75.616758,5.806308],[-75.616939,5.806191],[-75.617156,5.806137],[-75.617228,5.806087],[-75.617395,5.805755],[-75.617626,5.805412],[-75.617734,5.805079],[-75.617803,5.804742],[-75.617824,5.804488],[-75.617801,5.804054],[-75.617664,5.803438],[-75.617698,5.803164],[-75.617734,5.803153],[-75.617951,5.803266]]]}},{"type":"Feature","properties":{"elev":675},"geometry":{"type":"MultiLineString","coordinates":[[[-75.615715,5.791309],[-75.615759,5.791418],[-75.615902,5.791599],[-75.615934,5.791671],[-75.615888,5.791961],[-75.615988,5.792287],[-75.615964,5.792504],[-75.615979,5.792685],[-75.616015,5.792757],[-75.61618,5.792847],[-75.616247,5.792938],[-75.61628,5.793083],[-75.616262,5.793156],[-75.616216,5.793214],[-75.615999,5.79335],[-75.615854,5.793392],[-75.615808,5.793373],[-75.615762,5.7933],[-75.615746,5.793081],[-75.61571,5.792987],[-75.615384,5.792797],[-75.615131,5.79274],[-75.614806,5.792793],[-75.614697,5.792787],[-75.614408,5.792699],[-75.614083,5.792555],[-75.613757,5.792512],[-75.613627,5.79254],[-75.613605,5.792576],[-75.613703,5.792685],[-75.613734,5.792757],[-75.61368,5.792974],[-75.613693,5.793337],[-75.613724,5.793409],[-75.61383,5.793458],[-75.613974,5.793473],[-75.614155,5.793434],[-75.614191,5.793446],[-75.6143,5.793687],[-75.614625,5.793694],[-75.614784,5.793735],[-75.614842,5.793807],[-75.61489,5.794024],[-75.61495,5.794136],[-75.615276,5.794403],[-75.615637,5.794641],[-75.615827,5.794893],[-75.615902,5.795074],[-75.615963,5.795082],[-75.616035,5.795054],[-75.616324,5.794838],[-75.616722,5.79464],[-75.616867,5.7947],[-75.617071,5.79493],[-75.617096,5.795074],[-75.617011,5.795322],[-75.617001,5.795437],[-75.617091,5.795835],[-75.617182,5.796052],[-75.617244,5.796342],[-75.617258,5.79674],[-75.617239,5.797066],[-75.617384,5.797392],[-75.617434,5.797573],[-75.617432,5.797645],[-75.617369,5.797718],[-75.617192,5.797803],[-75.616758,5.797869],[-75.616324,5.797854],[-75.615854,5.797729],[-75.61571,5.797762],[-75.615667,5.79779],[-75.615703,5.797971],[-75.61567,5.798116],[-75.61542,5.798428],[-75.615247,5.798586],[-75.61518,5.798731],[-75.615214,5.798768],[-75.615384,5.798791],[-75.615818,5.798655],[-75.616146,5.798695],[-75.616216,5.79864],[-75.616286,5.798405],[-75.61636,5.798368],[-75.616541,5.79841],[-75.616811,5.79855],[-75.616975,5.798811],[-75.617192,5.799066],[-75.6173,5.799115],[-75.617481,5.799145],[-75.617537,5.799202],[-75.617505,5.7996],[-75.617296,5.799926],[-75.617259,5.800035],[-75.61743,5.800361],[-75.617428,5.800578],[-75.617348,5.800795],[-75.617264,5.800902],[-75.617192,5.800929],[-75.616939,5.800917],[-75.616826,5.800976],[-75.616753,5.801193],[-75.616705,5.801483],[-75.616613,5.801543],[-75.616469,5.801537],[-75.616397,5.801564],[-75.616345,5.801628],[-75.616249,5.801845],[-75.616077,5.802062],[-75.616051,5.802207],[-75.616134,5.802533],[-75.616126,5.802823],[-75.616107,5.802851],[-75.615818,5.802845],[-75.615552,5.803004],[-75.615539,5.803112],[-75.615667,5.803402],[-75.615727,5.803619],[-75.615724,5.803728],[-75.615673,5.803817],[-75.615601,5.803868],[-75.615493,5.803898],[-75.615276,5.803938],[-75.614599,5.803981],[-75.614336,5.804073],[-75.614227,5.804053],[-75.614046,5.803966],[-75.613994,5.803981],[-75.614092,5.804235],[-75.614057,5.804488],[-75.614083,5.804557],[-75.6143,5.804608],[-75.614516,5.804778],[-75.61452,5.804814],[-75.614464,5.804886],[-75.614226,5.804995],[-75.6142,5.805031],[-75.614204,5.805104],[-75.614273,5.805212],[-75.61439,5.805321],[-75.614733,5.805522],[-75.614806,5.805594],[-75.614853,5.805792],[-75.61486,5.806045],[-75.614841,5.806117],[-75.614723,5.80619],[-75.614624,5.806371],[-75.614589,5.806394],[-75.6143,5.806305],[-75.614191,5.806294],[-75.613974,5.806329],[-75.613793,5.806396],[-75.613531,5.806588],[-75.613106,5.807109],[-75.612986,5.807348],[-75.612889,5.807461],[-75.612781,5.80751],[-75.6126,5.807528],[-75.612456,5.807697],[-75.612203,5.807791],[-75.611722,5.80829],[-75.611624,5.808313],[-75.611299,5.808322],[-75.61117,5.808362],[-75.61099,5.808616],[-75.610957,5.808942],[-75.610928,5.809014],[-75.610798,5.809159],[-75.610585,5.80934]]]}},{"type":"Feature","properties":{"elev":700},"geometry":{"type":"MultiLineString","coordinates":[[[-75.614459,5.791309],[-75.614483,5.79149],[-75.614449,5.791526],[-75.614372,5.791523],[-75.614155,5.791449],[-75.61401,5.791449],[-75.613721,5.791629],[-75.613468,5.79168],[-75.613359,5.791729],[-75.613251,5.791834],[-75.613075,5.792142],[-75.612889,5.792281],[-75.612528,5.792317],[-75.612022,5.792177],[-75.6119,5.792178],[-75.611815,5.792214],[-75.611822,5.79225],[-75.611871,5.792287],[-75.612383,5.792529],[-75.612481,5.792612],[-75.61255,5.792721],[-75.612627,5.793192],[-75.612574,5.7933],[-75.612349,5.793554],[-75.612296,5.793662],[-75.612311,5.793709],[-75.612437,5.793771],[-75.612419,5.793991],[-75.612492,5.79407],[-75.6126,5.794093],[-75.612709,5.79405],[-75.612943,5.79388],[-75.613106,5.793814],[-75.613323,5.793807],[-75.613504,5.793863],[-75.613576,5.793922],[-75.613627,5.794024],[-75.613692,5.794459],[-75.613647,5.794821],[-75.613685,5.794931],[-75.613757,5.795034],[-75.613938,5.795145],[-75.614119,5.795142],[-75.614236,5.794821],[-75.6143,5.794753],[-75.614372,5.794735],[-75.614444,5.794759],[-75.614516,5.794819],[-75.614634,5.795002],[-75.61464,5.795111],[-75.614586,5.795183],[-75.614372,5.795286],[-75.614191,5.795298],[-75.614163,5.795328],[-75.614122,5.795509],[-75.614177,5.795581],[-75.614697,5.795873],[-75.615146,5.796016],[-75.615456,5.796072],[-75.615746,5.796202],[-75.615963,5.796178],[-75.616216,5.79602],[-75.616397,5.795945],[-75.616574,5.795943],[-75.61665,5.795994],[-75.616712,5.796088],[-75.616758,5.796201],[-75.616763,5.796305],[-75.616616,5.796523],[-75.61657,5.796849],[-75.616505,5.796925],[-75.616433,5.796914],[-75.616035,5.796687],[-75.61589,5.796636],[-75.615782,5.796651],[-75.615565,5.796742],[-75.615384,5.796777],[-75.614878,5.796804],[-75.614444,5.796746],[-75.614336,5.796761],[-75.614234,5.796812],[-75.614141,5.796885],[-75.614056,5.796993],[-75.613939,5.797355],[-75.613813,5.797573],[-75.613829,5.797609],[-75.613866,5.797612],[-75.614083,5.797585],[-75.61415,5.797645],[-75.614164,5.797826],[-75.614078,5.797971],[-75.613974,5.798036],[-75.613685,5.798046],[-75.613323,5.798192],[-75.612962,5.798397],[-75.612749,5.79855],[-75.612246,5.798768],[-75.612113,5.798876],[-75.611915,5.799093],[-75.611865,5.799166],[-75.611867,5.799202],[-75.611913,5.799231],[-75.611986,5.79923],[-75.612311,5.799019],[-75.612419,5.798986],[-75.612528,5.798999],[-75.612722,5.799166],[-75.613034,5.79965],[-75.613106,5.799726],[-75.613215,5.799769],[-75.613396,5.799758],[-75.613514,5.799781],[-75.613768,5.800035],[-75.614155,5.800312],[-75.6143,5.800378],[-75.614589,5.800443],[-75.614842,5.800426],[-75.615023,5.800331],[-75.615157,5.800216],[-75.615384,5.799944],[-75.61571,5.799698],[-75.615782,5.799683],[-75.61589,5.799721],[-75.61618,5.800013],[-75.616252,5.800054],[-75.616324,5.800061],[-75.616397,5.800033],[-75.616505,5.799928],[-75.616682,5.7996],[-75.616903,5.799317],[-75.616939,5.799319],[-75.617015,5.799383],[-75.617067,5.799492],[-75.617082,5.7996],[-75.616923,5.799962],[-75.616904,5.800216],[-75.616873,5.800288],[-75.616737,5.800433],[-75.616541,5.800567],[-75.616469,5.800647],[-75.616369,5.800795],[-75.616264,5.801049],[-75.615971,5.801193],[-75.615802,5.801411],[-75.615751,5.801555],[-75.615807,5.801664],[-75.61581,5.801736],[-75.615776,5.801809],[-75.615653,5.801917],[-75.615611,5.80199],[-75.615601,5.80229],[-75.615527,5.802388],[-75.615312,5.802582],[-75.615276,5.802575],[-75.615252,5.802533],[-75.615163,5.802171],[-75.615095,5.802082],[-75.614878,5.801907],[-75.614773,5.8017],[-75.614689,5.801374],[-75.614553,5.801197],[-75.614447,5.801121],[-75.614191,5.801047],[-75.613866,5.801052],[-75.613685,5.801121],[-75.613396,5.801317],[-75.613134,5.801338],[-75.613039,5.801374],[-75.613053,5.801447],[-75.613121,5.801519],[-75.613668,5.801917],[-75.613718,5.802026],[-75.613757,5.802326],[-75.613965,5.802605],[-75.614046,5.802657],[-75.614388,5.802714],[-75.614451,5.80275],[-75.614504,5.802823],[-75.614482,5.802895],[-75.614408,5.802922],[-75.614083,5.802918],[-75.613938,5.80295],[-75.613721,5.803107],[-75.613649,5.803135],[-75.61354,5.803104],[-75.613396,5.802944],[-75.613323,5.802919],[-75.613134,5.803112],[-75.61317,5.803402],[-75.613144,5.803619],[-75.61307,5.803728],[-75.612887,5.803873],[-75.612885,5.803909],[-75.612937,5.803981],[-75.613199,5.804126],[-75.613216,5.804162],[-75.613198,5.804198],[-75.61307,5.804234],[-75.612636,5.804223],[-75.612573,5.804235],[-75.612535,5.804271],[-75.612633,5.80438],[-75.612965,5.804524],[-75.613109,5.804633],[-75.613094,5.804705],[-75.612972,5.80485],[-75.612927,5.804959],[-75.61295,5.805321],[-75.612998,5.805379],[-75.613251,5.805395],[-75.613396,5.805466],[-75.613497,5.805611],[-75.613506,5.805683],[-75.61348,5.805755],[-75.613432,5.805805],[-75.613323,5.805846],[-75.612853,5.805854],[-75.612745,5.805879],[-75.612641,5.805936],[-75.612538,5.806081],[-75.612347,5.806576],[-75.612275,5.8067],[-75.612203,5.806742],[-75.612022,5.806705],[-75.611949,5.806728],[-75.611874,5.80695],[-75.611792,5.807095],[-75.611335,5.807649],[-75.611246,5.807711],[-75.61114,5.807747],[-75.610756,5.807756],[-75.610178,5.807908],[-75.609816,5.808288],[-75.609636,5.808526],[-75.609563,5.808537],[-75.609455,5.8085],[-75.609269,5.808326],[-75.60921,5.808217],[-75.609132,5.807855],[-75.609057,5.807746],[-75.608952,5.807674],[-75.608695,5.807573],[-75.608406,5.807289],[-75.608225,5.807254],[-75.608117,5.807304],[-75.607936,5.807562],[-75.6079,5.807561],[-75.607719,5.807437],[-75.607575,5.807392],[-75.607502,5.807429],[-75.607381,5.807566],[-75.607249,5.807624],[-75.607068,5.807639],[-75.606888,5.807563],[-75.606852,5.807568],[-75.606738,5.807783],[-75.606676,5.808036],[-75.606701,5.808181],[-75.606808,5.808471],[-75.606812,5.808616],[-75.606743,5.80876],[-75.606635,5.808835],[-75.606526,5.808845],[-75.606418,5.8088],[-75.605912,5.808471],[-75.605405,5.808067],[-75.605261,5.807977],[-75.604718,5.807819],[-75.60414,5.807789],[-75.604031,5.807849],[-75.603894,5.808073],[-75.603634,5.808103],[-75.603489,5.80814],[-75.603453,5.808177],[-75.603401,5.808398],[-75.603288,5.808579],[-75.603096,5.809014],[-75.603055,5.809159],[-75.603019,5.8092],[-75.602947,5.809224],[-75.602874,5.809214],[-75.602585,5.809052],[-75.60226,5.808906],[-75.602188,5.808901],[-75.601832,5.809123],[-75.601735,5.80934]]]}},{"type":"Feature","properties":{"elev":725},"geometry":{"type":"MultiLineString","coordinates":[[[-75.613376,5.791309],[-75.613215,5.791392],[-75.613106,5.791481],[-75.612873,5.791888],[-75.612817,5.791942],[-75.612745,5.791965],[-75.612606,5.791925],[-75.612557,5.791816],[-75.612597,5.791635],[-75.612726,5.791309]],[[-75.612398,5.791309],[-75.612311,5.791387],[-75.612094,5.791453],[-75.611949,5.791444],[-75.61166,5.791347],[-75.611479,5.791389],[-75.611082,5.791599],[-75.61025,5.792145],[-75.609997,5.792423],[-75.609634,5.792576],[-75.609538,5.792649],[-75.609591,5.792685],[-75.610178,5.792841],[-75.61025,5.792841],[-75.610539,5.792763],[-75.610865,5.792743],[-75.61119,5.792787],[-75.611479,5.792925],[-75.611588,5.792929],[-75.611841,5.792877],[-75.61198,5.792938],[-75.612025,5.793011],[-75.612018,5.793119],[-75.611939,5.793228],[-75.611805,5.793314],[-75.611696,5.793331],[-75.611588,5.793315],[-75.61119,5.793155],[-75.611009,5.793286],[-75.61097,5.793373],[-75.611013,5.793554],[-75.611004,5.793626],[-75.61091,5.793771],[-75.610795,5.794024],[-75.610773,5.794242],[-75.610718,5.794423],[-75.610756,5.794623],[-75.610792,5.794661],[-75.610986,5.794712],[-75.611226,5.794845],[-75.611364,5.794893],[-75.611397,5.79493],[-75.611394,5.795074],[-75.611443,5.795106],[-75.611877,5.795025],[-75.611906,5.795147],[-75.612058,5.795173],[-75.612166,5.795221],[-75.612226,5.795292],[-75.612275,5.795443],[-75.612311,5.795453],[-75.612564,5.795342],[-75.612998,5.795096],[-75.613034,5.795127],[-75.613051,5.795328],[-75.613002,5.795509],[-75.612912,5.79569],[-75.612912,5.795762],[-75.613034,5.795946],[-75.61333,5.796197],[-75.613469,5.796414],[-75.613434,5.796523],[-75.613323,5.796634],[-75.61307,5.796774],[-75.612863,5.796921],[-75.6127,5.796957],[-75.612655,5.796993],[-75.612637,5.797102],[-75.612663,5.797355],[-75.61263,5.797537],[-75.612594,5.797609],[-75.612383,5.797821],[-75.612276,5.798116],[-75.612206,5.798224],[-75.612058,5.798315],[-75.611733,5.798399],[-75.611588,5.798618],[-75.611407,5.798796],[-75.611118,5.798927],[-75.610937,5.799135],[-75.61072,5.799317],[-75.610612,5.799374],[-75.610395,5.799431],[-75.610299,5.799673],[-75.61025,5.799728],[-75.610142,5.799754],[-75.609852,5.79972],[-75.609722,5.799854],[-75.609745,5.799926],[-75.609925,5.800081],[-75.610105,5.800324],[-75.61029,5.800505],[-75.610359,5.800553],[-75.610503,5.800572],[-75.610756,5.800541],[-75.610937,5.800438],[-75.611109,5.800071],[-75.611335,5.799731],[-75.611407,5.799662],[-75.611479,5.799645],[-75.611552,5.799663],[-75.611624,5.799714],[-75.611696,5.799827],[-75.611856,5.800433],[-75.611966,5.800614],[-75.611952,5.800723],[-75.611913,5.800767],[-75.611733,5.800799],[-75.611552,5.800901],[-75.61116,5.801266],[-75.611262,5.801393],[-75.611386,5.801628],[-75.611479,5.801747],[-75.611769,5.801851],[-75.61213,5.802032],[-75.612209,5.802099],[-75.612257,5.802207],[-75.612251,5.802497],[-75.612368,5.802823],[-75.612378,5.803004],[-75.612347,5.803045],[-75.612239,5.80308],[-75.611805,5.803076],[-75.611624,5.803118],[-75.611545,5.803257],[-75.611515,5.803547],[-75.611371,5.803793],[-75.611353,5.803873],[-75.611447,5.804198],[-75.611655,5.804524],[-75.612216,5.804814],[-75.612218,5.80485],[-75.612166,5.804861],[-75.612022,5.804831],[-75.611913,5.804842],[-75.611835,5.804923],[-75.61188,5.805067],[-75.612078,5.805357],[-75.612077,5.80543],[-75.611805,5.805599],[-75.611479,5.805848],[-75.611118,5.806013],[-75.610937,5.806261],[-75.610812,5.806552],[-75.61072,5.806644],[-75.610612,5.806682],[-75.610359,5.806718],[-75.609997,5.806888],[-75.609455,5.806985],[-75.609238,5.806968],[-75.609165,5.806925],[-75.608985,5.806744],[-75.608886,5.806479],[-75.60884,5.806424],[-75.608442,5.806413],[-75.608369,5.806371],[-75.60831,5.806262],[-75.608305,5.806045],[-75.60821,5.805719],[-75.60821,5.805574],[-75.60835,5.80514],[-75.608515,5.804859],[-75.608659,5.80442],[-75.608659,5.804336],[-75.608623,5.804278],[-75.608587,5.804265],[-75.608542,5.804524],[-75.608453,5.804705],[-75.607972,5.805279],[-75.607755,5.805602],[-75.607744,5.805792],[-75.607816,5.806045],[-75.607775,5.806226],[-75.607719,5.80631],[-75.607611,5.806349],[-75.607358,5.806276],[-75.606888,5.806238],[-75.606779,5.806172],[-75.606562,5.805954],[-75.606526,5.805949],[-75.606453,5.806009],[-75.606375,5.806154],[-75.606335,5.806443],[-75.606184,5.807131],[-75.60602,5.807407],[-75.605897,5.807819],[-75.605839,5.807912],[-75.605731,5.80789],[-75.605225,5.80751],[-75.604885,5.807312],[-75.604758,5.807204],[-75.60467,5.807059],[-75.604584,5.806842],[-75.604501,5.806456],[-75.604176,5.806362],[-75.603742,5.806327],[-75.603055,5.806487],[-75.602947,5.806552],[-75.602889,5.806624],[-75.602855,5.806733],[-75.602843,5.806986],[-75.602759,5.807348],[-75.602694,5.808073],[-75.602585,5.808345],[-75.602513,5.80843],[-75.602404,5.808438],[-75.602188,5.808338],[-75.601862,5.808238],[-75.601759,5.808181],[-75.601645,5.808074],[-75.601573,5.808068],[-75.601428,5.808141],[-75.601368,5.808217],[-75.601366,5.80829],[-75.60145,5.808616],[-75.601404,5.808797],[-75.60132,5.808927],[-75.601247,5.808945],[-75.600994,5.808819],[-75.600452,5.808723]],[[-75.608352,5.803655],[-75.608262,5.803621],[-75.608238,5.803655],[-75.608243,5.803728],[-75.608364,5.804017],[-75.608491,5.804126],[-75.608512,5.80409],[-75.608462,5.803909],[-75.608447,5.803728],[-75.608352,5.803655]]]}},{"type":"Feature","properties":{"elev":750},"geometry":{"type":"MultiLineString","coordinates":[[[-75.608247,5.791309],[-75.608412,5.791418],[-75.608477,5.79149],[-75.608633,5.791852],[-75.608621,5.791961],[-75.608551,5.792003],[-75.608298,5.792005],[-75.608242,5.792033],[-75.608163,5.792323],[-75.60806,5.792504],[-75.607972,5.792582],[-75.607864,5.792562],[-75.607647,5.7924],[-75.607467,5.792323],[-75.607285,5.792198],[-75.607213,5.79217],[-75.607141,5.792183],[-75.60712,5.79225],[-75.607147,5.792323],[-75.607357,5.792576],[-75.607393,5.792685],[-75.607338,5.79283],[-75.607092,5.793119],[-75.607062,5.793192],[-75.607068,5.793254],[-75.607315,5.7933],[-75.607496,5.793481],[-75.607755,5.793623],[-75.608298,5.793733],[-75.608472,5.793807],[-75.608798,5.794133],[-75.60893,5.794206],[-75.609129,5.794269],[-75.609278,5.794387],[-75.609415,5.794568],[-75.609572,5.79493],[-75.609744,5.795125],[-75.609852,5.795182],[-75.610106,5.795214],[-75.610214,5.795256],[-75.610276,5.795328],[-75.610359,5.795512],[-75.610395,5.795687],[-75.610397,5.795835],[-75.610322,5.795882],[-75.610033,5.795836],[-75.609983,5.795871],[-75.610269,5.796161],[-75.610431,5.796409],[-75.610539,5.796504],[-75.610684,5.796558],[-75.610829,5.796568],[-75.611443,5.796515],[-75.611769,5.796432],[-75.612094,5.796264],[-75.612166,5.796247],[-75.612203,5.796266],[-75.612211,5.796305],[-75.612155,5.796487],[-75.612039,5.796668],[-75.61188,5.796776],[-75.611315,5.79703],[-75.611009,5.797094],[-75.610905,5.797138],[-75.610827,5.797211],[-75.610684,5.797455],[-75.610576,5.797544],[-75.610421,5.797573],[-75.610178,5.797423],[-75.610069,5.797407],[-75.609979,5.797428],[-75.609936,5.797464],[-75.609941,5.7975],[-75.61001,5.797645],[-75.610025,5.797754],[-75.609975,5.797899],[-75.609852,5.797971],[-75.609527,5.798005],[-75.609419,5.798068],[-75.609162,5.798442],[-75.609077,5.798659],[-75.609016,5.798731],[-75.608695,5.798977],[-75.608587,5.799032],[-75.608479,5.798999],[-75.608406,5.798895],[-75.608334,5.798846],[-75.608009,5.79878],[-75.607972,5.798818],[-75.607747,5.799347],[-75.607573,5.799455],[-75.607466,5.79956],[-75.607325,5.7996],[-75.607406,5.79989],[-75.607483,5.800071],[-75.607501,5.800469],[-75.607561,5.80065],[-75.607683,5.800725],[-75.608153,5.800743],[-75.608262,5.800787],[-75.608484,5.800976],[-75.608543,5.80123],[-75.608691,5.801411],[-75.608665,5.801519],[-75.608298,5.801974],[-75.608117,5.802066],[-75.607972,5.802068],[-75.607864,5.802042],[-75.607833,5.80199],[-75.607852,5.801809],[-75.607838,5.8017],[-75.607792,5.801571],[-75.607719,5.801458],[-75.607322,5.801217],[-75.606996,5.801153],[-75.606874,5.801012],[-75.606671,5.800673],[-75.606526,5.800588],[-75.606454,5.800597],[-75.606423,5.80065],[-75.606363,5.800976],[-75.606268,5.801121],[-75.606092,5.801235],[-75.605839,5.801312],[-75.60577,5.801374],[-75.605755,5.801411],[-75.605815,5.801555],[-75.605795,5.801736],[-75.605815,5.801809],[-75.605912,5.801876],[-75.606237,5.802027],[-75.606382,5.80216],[-75.606435,5.802243],[-75.606418,5.802355],[-75.606236,5.802569],[-75.606242,5.802642],[-75.606273,5.802686],[-75.606345,5.802757],[-75.60649,5.80284],[-75.606815,5.80295],[-75.60696,5.80304],[-75.607141,5.803203],[-75.607358,5.803239],[-75.607394,5.803266],[-75.607433,5.803366],[-75.60743,5.803479],[-75.607365,5.803583],[-75.60711,5.803836],[-75.607082,5.803909],[-75.607092,5.804054],[-75.607139,5.804198],[-75.607249,5.80439],[-75.607322,5.804419],[-75.607502,5.804413],[-75.607575,5.804443],[-75.607663,5.804561],[-75.607678,5.804705],[-75.607614,5.804995],[-75.607539,5.80508],[-75.607466,5.805065],[-75.607177,5.804867],[-75.607105,5.80486],[-75.606924,5.804913],[-75.606815,5.804911],[-75.60649,5.80474],[-75.606418,5.804752],[-75.606345,5.804811],[-75.606221,5.805321],[-75.606165,5.805425],[-75.60602,5.805579],[-75.605948,5.805732],[-75.60593,5.805864],[-75.605956,5.806226],[-75.605914,5.806479],[-75.605777,5.806697],[-75.605567,5.806914],[-75.605574,5.807059],[-75.60555,5.80712],[-75.605478,5.80712],[-75.605333,5.807033],[-75.605225,5.806915],[-75.605169,5.806805],[-75.605141,5.806552],[-75.605228,5.806298],[-75.605239,5.806154],[-75.605142,5.805755],[-75.605044,5.805609],[-75.604935,5.80557],[-75.604827,5.805563],[-75.604501,5.805751],[-75.60414,5.805708],[-75.603826,5.805828],[-75.603598,5.805887],[-75.603453,5.805881],[-75.603308,5.80583],[-75.603236,5.805829],[-75.603055,5.805928],[-75.60273,5.805994],[-75.602368,5.806193],[-75.60226,5.806296],[-75.602079,5.806566],[-75.601862,5.806757],[-75.601826,5.806759],[-75.601609,5.806658],[-75.601211,5.806602],[-75.60115,5.806624],[-75.601094,5.806842],[-75.600933,5.807023],[-75.600876,5.807131],[-75.600845,5.807348],[-75.600863,5.807602],[-75.600837,5.807711],[-75.600674,5.807964],[-75.60059,5.808145],[-75.600524,5.8082],[-75.600452,5.808222]],[[-75.607467,5.791309],[-75.607443,5.791381],[-75.6073,5.791562],[-75.607243,5.791707],[-75.60725,5.79178],[-75.607285,5.791835],[-75.607394,5.791896],[-75.607575,5.791881],[-75.607792,5.79168],[-75.607828,5.791515],[-75.60773,5.791381],[-75.607714,5.791309]],[[-75.606427,5.791309],[-75.60641,5.79149],[-75.60644,5.791562],[-75.606511,5.791599],[-75.606707,5.791614],[-75.606779,5.791584],[-75.606924,5.791446],[-75.607213,5.791379],[-75.607285,5.791309]],[[-75.60931,5.79172],[-75.609363,5.79178],[-75.609356,5.791888],[-75.609274,5.792011],[-75.609165,5.792113],[-75.609093,5.792154],[-75.609021,5.792149],[-75.608884,5.792033],[-75.608859,5.791925],[-75.608931,5.791816],[-75.609129,5.791726],[-75.60931,5.79172]],[[-75.609925,5.801401],[-75.60998,5.801447],[-75.609989,5.801483],[-75.609925,5.801565],[-75.60978,5.801606],[-75.609685,5.801555],[-75.609666,5.801483],[-75.609708,5.801403],[-75.609816,5.801375],[-75.609925,5.801401]],[[-75.609889,5.804266],[-75.609994,5.804307],[-75.610075,5.80438],[-75.610293,5.804633],[-75.610337,5.804742],[-75.610297,5.804814],[-75.610106,5.804995],[-75.610014,5.805321],[-75.609961,5.805433],[-75.609771,5.805683],[-75.609672,5.805714],[-75.609551,5.805611],[-75.609211,5.805176],[-75.609046,5.804814],[-75.609034,5.804669],[-75.609064,5.804597],[-75.609165,5.804518],[-75.609419,5.804477],[-75.609708,5.804298],[-75.609889,5.804266]]]}},{"type":"Feature","properties":{"elev":775},"geometry":{"type":"MultiLineString","coordinates":[[[-75.604114,5.791309],[-75.604076,5.79149],[-75.603906,5.791707],[-75.603859,5.791852],[-75.603874,5.791925],[-75.60391,5.791961],[-75.604146,5.792069],[-75.604185,5.792142],[-75.604186,5.79225],[-75.603901,5.792938],[-75.603768,5.793192],[-75.603742,5.793301],[-75.603815,5.793315],[-75.604068,5.793227],[-75.604357,5.793267],[-75.60461,5.793231],[-75.604971,5.793465],[-75.605478,5.793489],[-75.605767,5.793426],[-75.605984,5.793441],[-75.606128,5.793422],[-75.606454,5.793274],[-75.606504,5.793337],[-75.606521,5.793807],[-75.60649,5.79396],[-75.606056,5.794406],[-75.605803,5.794617],[-75.605697,5.794893],[-75.605476,5.795183],[-75.605405,5.79537],[-75.605353,5.795437],[-75.605246,5.795509],[-75.605228,5.795618],[-75.605261,5.795712],[-75.605297,5.795726],[-75.605369,5.795704],[-75.605622,5.795564],[-75.605767,5.795324],[-75.60602,5.795187],[-75.606165,5.794907],[-75.606239,5.794821],[-75.606345,5.794774],[-75.606598,5.794784],[-75.606888,5.794513],[-75.607032,5.794426],[-75.607141,5.794391],[-75.607249,5.794395],[-75.60743,5.79453],[-75.607709,5.794676],[-75.607936,5.794972],[-75.608025,5.795183],[-75.608023,5.795328],[-75.608065,5.795473],[-75.608075,5.795618],[-75.608011,5.795799],[-75.607873,5.796052],[-75.607836,5.796197],[-75.60785,5.796269],[-75.6079,5.796349],[-75.608045,5.79647],[-75.608045,5.796548],[-75.607776,5.79674],[-75.607719,5.796819],[-75.607213,5.796877],[-75.607104,5.796921],[-75.607035,5.79703],[-75.60693,5.797319],[-75.60696,5.797429],[-75.607052,5.7975],[-75.607032,5.797699],[-75.606743,5.797853],[-75.606586,5.798043],[-75.606593,5.798116],[-75.606635,5.798135],[-75.60696,5.798109],[-75.607088,5.798152],[-75.607108,5.798188],[-75.607105,5.798282],[-75.607068,5.798436],[-75.607026,5.798514],[-75.606924,5.798585],[-75.606852,5.798585],[-75.606779,5.798524],[-75.606671,5.798342],[-75.606598,5.79831],[-75.606428,5.798514],[-75.606308,5.798514],[-75.606206,5.798442],[-75.606154,5.798369],[-75.606135,5.798297],[-75.606147,5.798116],[-75.606092,5.798067],[-75.605586,5.798156],[-75.605482,5.798224],[-75.605384,5.798369],[-75.605225,5.798789],[-75.605174,5.799347],[-75.605125,5.799564],[-75.605047,5.799673],[-75.604899,5.799736],[-75.604863,5.79978],[-75.604785,5.800071],[-75.604842,5.80018],[-75.605335,5.800542],[-75.605452,5.80065],[-75.605481,5.800723],[-75.605441,5.800763],[-75.605225,5.800807],[-75.605008,5.800912],[-75.604487,5.801085],[-75.604472,5.801121],[-75.604489,5.801157],[-75.60463,5.801338],[-75.60461,5.801391],[-75.604501,5.801432],[-75.604471,5.801483],[-75.604501,5.801658],[-75.604574,5.801867],[-75.604682,5.80194],[-75.604935,5.801914],[-75.605044,5.801994],[-75.605067,5.802099],[-75.604971,5.802194],[-75.604774,5.80228],[-75.60461,5.802436],[-75.604429,5.802502],[-75.604193,5.802642],[-75.604108,5.802714],[-75.604073,5.802786],[-75.604321,5.802801],[-75.604477,5.802895],[-75.604581,5.80304],[-75.604656,5.803293],[-75.604718,5.803418],[-75.604953,5.803655],[-75.605037,5.8038],[-75.605155,5.803909],[-75.605261,5.803964],[-75.605622,5.804072],[-75.606092,5.804111],[-75.60618,5.804162],[-75.606204,5.804271],[-75.606128,5.80439],[-75.605875,5.804567],[-75.60585,5.804669],[-75.605895,5.804886],[-75.605883,5.804995],[-75.605803,5.805084],[-75.605622,5.805195],[-75.60555,5.805196],[-75.605478,5.805166],[-75.605261,5.804983],[-75.605188,5.804957],[-75.604935,5.805033],[-75.604682,5.805018],[-75.604603,5.804959],[-75.604465,5.804765],[-75.604285,5.804661],[-75.603995,5.80469],[-75.603706,5.804767],[-75.603634,5.804743],[-75.603489,5.804642],[-75.603236,5.804655],[-75.602874,5.804566],[-75.602795,5.804597],[-75.602585,5.804832],[-75.602296,5.804988],[-75.602151,5.805127],[-75.601889,5.805321],[-75.601837,5.805466],[-75.601902,5.805828],[-75.601884,5.8059],[-75.601826,5.80596],[-75.601645,5.805987],[-75.601501,5.805951],[-75.601139,5.805626],[-75.60085,5.805426],[-75.600777,5.805402],[-75.600669,5.805422],[-75.6006,5.805466],[-75.600606,5.805828],[-75.600561,5.805911],[-75.600452,5.806005]]]}},{"type":"Feature","properties":{"elev":800},"geometry":{"type":"MultiLineString","coordinates":[[[-75.602481,5.791309],[-75.602454,5.79149],[-75.602295,5.79178],[-75.602309,5.791997],[-75.602203,5.792106],[-75.602172,5.792178],[-75.602211,5.792504],[-75.602146,5.792757],[-75.602188,5.792811],[-75.602296,5.792826],[-75.602576,5.792685],[-75.602627,5.792612],[-75.602633,5.792431],[-75.602676,5.792323],[-75.602766,5.792238],[-75.602874,5.792226],[-75.602939,5.792287],[-75.602957,5.792359],[-75.602887,5.792649],[-75.602932,5.792721],[-75.603144,5.792866],[-75.603165,5.792938],[-75.603158,5.793047],[-75.603086,5.793192],[-75.602766,5.793525],[-75.602198,5.793662],[-75.601934,5.793845],[-75.60188,5.793916],[-75.602078,5.794133],[-75.602249,5.794495],[-75.602332,5.794572],[-75.602441,5.794624],[-75.602621,5.794679],[-75.60273,5.794682],[-75.602849,5.794604],[-75.602951,5.794423],[-75.603035,5.79435],[-75.603128,5.794331],[-75.603453,5.794354],[-75.603561,5.794385],[-75.603978,5.794604],[-75.604044,5.794676],[-75.604067,5.794749],[-75.604051,5.794893],[-75.603979,5.795111],[-75.6039,5.795255],[-75.603748,5.795437],[-75.603676,5.79569],[-75.603696,5.795726],[-75.603887,5.795822],[-75.60399,5.79598],[-75.604009,5.796269],[-75.603904,5.796849],[-75.603903,5.796957],[-75.603956,5.79703],[-75.604176,5.797211],[-75.60423,5.797319],[-75.604235,5.797428],[-75.604191,5.797573],[-75.60403,5.797862],[-75.603851,5.798405],[-75.603778,5.798507],[-75.603605,5.798623],[-75.603588,5.798659],[-75.603678,5.798731],[-75.603851,5.798779],[-75.604176,5.798752],[-75.604321,5.798874],[-75.604351,5.799021],[-75.604185,5.799311],[-75.60414,5.799585],[-75.604089,5.799709],[-75.603871,5.799962],[-75.603683,5.800107],[-75.603405,5.800542],[-75.603397,5.800614],[-75.603451,5.800759],[-75.603456,5.800867],[-75.603381,5.801234],[-75.603272,5.801325],[-75.602911,5.801391],[-75.602781,5.801483],[-75.602738,5.801555],[-75.602856,5.801845],[-75.602911,5.801912],[-75.602983,5.801933],[-75.603091,5.801871],[-75.603148,5.801881],[-75.603174,5.801954],[-75.603164,5.802086],[-75.603128,5.80211],[-75.603091,5.802103],[-75.602911,5.802004],[-75.602694,5.801962],[-75.602549,5.801961],[-75.602477,5.802023],[-75.602444,5.802171],[-75.602467,5.80228],[-75.602528,5.802352],[-75.602839,5.802461],[-75.602885,5.802533],[-75.602937,5.802714],[-75.603092,5.802823],[-75.603321,5.803185],[-75.603648,5.803474],[-75.603688,5.803547],[-75.603688,5.803692],[-75.603641,5.803764],[-75.603453,5.803796],[-75.6032,5.803914],[-75.60235,5.803981],[-75.602292,5.804054],[-75.60227,5.804343],[-75.602206,5.804416],[-75.602115,5.804448],[-75.601826,5.804455],[-75.601645,5.804496],[-75.601501,5.804398],[-75.601284,5.804417],[-75.601175,5.804325],[-75.600922,5.803944],[-75.600886,5.803938],[-75.600452,5.804401]]]}},{"type":"Feature","properties":{"elev":825},"geometry":{"type":"MultiLineString","coordinates":[[[-75.600695,5.791309],[-75.60067,5.791454],[-75.600682,5.791526],[-75.600917,5.791888],[-75.60097,5.792069],[-75.601003,5.792323],[-75.601059,5.792431],[-75.601191,5.792576],[-75.601254,5.792902],[-75.601222,5.793011],[-75.601052,5.793119],[-75.601085,5.793409],[-75.601067,5.793528],[-75.601016,5.793662],[-75.600865,5.793807],[-75.600901,5.794061],[-75.60072,5.794242],[-75.600732,5.794278],[-75.600814,5.794307],[-75.601211,5.794311],[-75.601464,5.794381],[-75.601571,5.794495],[-75.601609,5.794676],[-75.601501,5.795256],[-75.601403,5.795473],[-75.60138,5.795581],[-75.601392,5.795766],[-75.601522,5.796016],[-75.601418,5.796378],[-75.601437,5.796776],[-75.60142,5.796885],[-75.601356,5.796973],[-75.601247,5.797032],[-75.600958,5.797052],[-75.600597,5.79715],[-75.600452,5.797145]],[[-75.600452,5.798754],[-75.600705,5.798866],[-75.600855,5.799021],[-75.600943,5.799202],[-75.601018,5.799492],[-75.601175,5.799809],[-75.601248,5.800035],[-75.601243,5.800252],[-75.601156,5.800469],[-75.601067,5.800534],[-75.600804,5.80065],[-75.600621,5.800795],[-75.600669,5.800828],[-75.600814,5.800844],[-75.600912,5.800904],[-75.601135,5.801266],[-75.601139,5.801359],[-75.601076,5.801519],[-75.601029,5.801736],[-75.601024,5.801845],[-75.60105,5.801954],[-75.601103,5.802044],[-75.601139,5.802065],[-75.60132,5.802019],[-75.601392,5.802027],[-75.601445,5.802062],[-75.601488,5.802135],[-75.601537,5.802387],[-75.601573,5.802461],[-75.601645,5.80252],[-75.601826,5.8026],[-75.601898,5.802665],[-75.601995,5.802823],[-75.602031,5.803004],[-75.602008,5.803112],[-75.601971,5.803165],[-75.601718,5.803327],[-75.601428,5.803615],[-75.601377,5.803619],[-75.601335,5.803547],[-75.601292,5.803185],[-75.601247,5.803136],[-75.601175,5.803117],[-75.601067,5.80313],[-75.600994,5.803167],[-75.600633,5.803479],[-75.600452,5.803567]],[[-75.602766,5.800017],[-75.602874,5.800124],[-75.602922,5.800252],[-75.602904,5.800397],[-75.602834,5.800542],[-75.60273,5.800645],[-75.602621,5.800704],[-75.602296,5.800745],[-75.602233,5.800723],[-75.602205,5.80065],[-75.60223,5.800542],[-75.602442,5.800216],[-75.602621,5.800052],[-75.602766,5.800017]]]}}]}