{
 "type": "FeatureCollection",
 "features": [
  {
   "type": "Feature",
   "properties": {
    "_id": "tierra:playon",
    "nombre": "Playón",
    "name": "Playón",
    "sub2": "18.79 ha · pastoreo marginal, fuera de la carga",
    "tipo_tierra": "playon",
    "area_ha": 18.79,
    "propiedad": "Estado (cauce y playón del Río Poblanco)",
    "en_area_de_pastoreo": false,
    "pastoreo_marginal": true,
    "en_area_del_predio": false,
    "marcado": "2026-08-22",
    "estilo": "discontinuo",
    "fuente": "[owner, 2026-08-22] Contorno marcado punto a punto por Manuel sobre los dos levantamientos, que ambos lo dibujan. NO es potrero: es tierra del Estado que usamos. No suma al predio (170,73 ha catastrales) ni al área de pastoreo. Ver operations/land/playon.md."
   },
   "geometry": {
    "type": "Polygon",
    "coordinates": [
     [
      [
       -75.62197,
       5.806787
      ],
      [
       -75.622141,
       5.806824
      ],
      [
       -75.622507,
       5.806649
      ],
      [
       -75.622296,
       5.806237
      ],
      [
       -75.622105,
       5.805903
      ],
      [
       -75.622096,
       5.805822
      ],
      [
       -75.622064,
       5.805716
      ],
      [
       -75.621486,
       5.804758
      ],
      [
       -75.621425,
       5.804546
      ],
      [
       -75.621027,
       5.804143
      ],
      [
       -75.620722,
       5.803756
      ],
      [
       -75.620563,
       5.803157
      ],
      [
       -75.620551,
       5.802831
      ],
      [
       -75.620494,
       5.80253
      ],
      [
       -75.620006,
       5.801637
      ],
      [
       -75.619676,
       5.801373
      ],
      [
       -75.619623,
       5.801006
      ],
      [
       -75.619729,
       5.80037
      ],
      [
       -75.619705,
       5.799975
      ],
      [
       -75.619599,
       5.799731
      ],
      [
       -75.61953,
       5.79945
      ],
      [
       -75.619558,
       5.798814
      ],
      [
       -75.619839,
       5.798325
      ],
      [
       -75.619863,
       5.798081
      ],
      [
       -75.619753,
       5.79806
      ],
      [
       -75.619757,
       5.797486
      ],
      [
       -75.619928,
       5.796581
      ],
      [
       -75.619945,
       5.796141
      ],
      [
       -75.619855,
       5.795946
      ],
      [
       -75.61979,
       5.794679
      ],
      [
       -75.61966,
       5.794239
      ],
      [
       -75.619408,
       5.793424
      ],
      [
       -75.618431,
       5.793061
      ],
      [
       -75.618421,
       5.793126
      ],
      [
       -75.618397,
       5.793278
      ],
      [
       -75.618392,
       5.793413
      ],
      [
       -75.6184,
       5.793542
      ],
      [
       -75.618425,
       5.793696
      ],
      [
       -75.6185,
       5.793905
      ],
      [
       -75.618586,
       5.794085
      ],
      [
       -75.618631,
       5.79418
      ],
      [
       -75.618627,
       5.794184
      ],
      [
       -75.618585,
       5.794273
      ],
      [
       -75.618575,
       5.794335
      ],
      [
       -75.618566,
       5.794421
      ],
      [
       -75.618574,
       5.7945
      ],
      [
       -75.618591,
       5.794579
      ],
      [
       -75.618615,
       5.794636
      ],
      [
       -75.618637,
       5.794686
      ],
      [
       -75.618675,
       5.79476
      ],
      [
       -75.618723,
       5.794829
      ],
      [
       -75.618769,
       5.794899
      ],
      [
       -75.618839,
       5.79497
      ],
      [
       -75.618911,
       5.795063
      ],
      [
       -75.618968,
       5.795144
      ],
      [
       -75.619012,
       5.795208
      ],
      [
       -75.619062,
       5.795287
      ],
      [
       -75.619085,
       5.79538
      ],
      [
       -75.619099,
       5.795435
      ],
      [
       -75.619096,
       5.795517
      ],
      [
       -75.619085,
       5.795672
      ],
      [
       -75.619066,
       5.79578
      ],
      [
       -75.619038,
       5.795889
      ],
      [
       -75.619013,
       5.796077
      ],
      [
       -75.619,
       5.796189
      ],
      [
       -75.618997,
       5.796311
      ],
      [
       -75.618997,
       5.796547
      ],
      [
       -75.618997,
       5.796627
      ],
      [
       -75.618995,
       5.796712
      ],
      [
       -75.618976,
       5.796765
      ],
      [
       -75.618946,
       5.79692
      ],
      [
       -75.618928,
       5.797055
      ],
      [
       -75.618938,
       5.797168
      ],
      [
       -75.618967,
       5.797375
      ],
      [
       -75.618975,
       5.797512
      ],
      [
       -75.618988,
       5.797627
      ],
      [
       -75.618941,
       5.797747
      ],
      [
       -75.618863,
       5.797982
      ],
      [
       -75.61885,
       5.798021
      ],
      [
       -75.618798,
       5.798372
      ],
      [
       -75.6188,
       5.79838
      ],
      [
       -75.618806,
       5.798412
      ],
      [
       -75.618821,
       5.798467
      ],
      [
       -75.618816,
       5.798636
      ],
      [
       -75.618803,
       5.798807
      ],
      [
       -75.618806,
       5.79885
      ],
      [
       -75.618821,
       5.799033
      ],
      [
       -75.618832,
       5.799071
      ],
      [
       -75.618839,
       5.799135
      ],
      [
       -75.618806,
       5.799219
      ],
      [
       -75.618795,
       5.799248
      ],
      [
       -75.618636,
       5.79961
      ],
      [
       -75.618623,
       5.799649
      ],
      [
       -75.618598,
       5.7997
      ],
      [
       -75.618595,
       5.799708
      ],
      [
       -75.61859,
       5.799713
      ],
      [
       -75.618558,
       5.79978
      ],
      [
       -75.618501,
       5.79995
      ],
      [
       -75.618498,
       5.799962
      ],
      [
       -75.618437,
       5.800188
      ],
      [
       -75.618426,
       5.800276
      ],
      [
       -75.618405,
       5.800445
      ],
      [
       -75.618415,
       5.800624
      ],
      [
       -75.618423,
       5.80067
      ],
      [
       -75.61843,
       5.800706
      ],
      [
       -75.618432,
       5.800718
      ],
      [
       -75.618434,
       5.800726
      ],
      [
       -75.618502,
       5.800921
      ],
      [
       -75.618512,
       5.80094
      ],
      [
       -75.61865,
       5.801192
      ],
      [
       -75.618714,
       5.801285
      ],
      [
       -75.618775,
       5.801375
      ],
      [
       -75.618774,
       5.801392
      ],
      [
       -75.61873,
       5.801447
      ],
      [
       -75.618649,
       5.801539
      ],
      [
       -75.618552,
       5.801612
      ],
      [
       -75.618392,
       5.801676
      ],
      [
       -75.618175,
       5.801787
      ],
      [
       -75.618135,
       5.801838
      ],
      [
       -75.618059,
       5.801897
      ],
      [
       -75.617949,
       5.801941
      ],
      [
       -75.61801,
       5.802007
      ],
      [
       -75.618047,
       5.801996
      ],
      [
       -75.61812,
       5.801979
      ],
      [
       -75.618137,
       5.801975
      ],
      [
       -75.618164,
       5.801976
      ],
      [
       -75.61828,
       5.801934
      ],
      [
       -75.618325,
       5.801918
      ],
      [
       -75.618355,
       5.802006
      ],
      [
       -75.618376,
       5.802053
      ],
      [
       -75.618481,
       5.802295
      ],
      [
       -75.618571,
       5.802442
      ],
      [
       -75.618644,
       5.802563
      ],
      [
       -75.618705,
       5.802615
      ],
      [
       -75.618791,
       5.802688
      ],
      [
       -75.618751,
       5.8028
      ],
      [
       -75.618737,
       5.802849
      ],
      [
       -75.6187,
       5.80298
      ],
      [
       -75.618697,
       5.803044
      ],
      [
       -75.618696,
       5.803083
      ],
      [
       -75.618724,
       5.803227
      ],
      [
       -75.618794,
       5.803395
      ],
      [
       -75.618819,
       5.803426
      ],
      [
       -75.618888,
       5.803512
      ],
      [
       -75.619077,
       5.803721
      ],
      [
       -75.619139,
       5.803795
      ],
      [
       -75.61919,
       5.803856
      ],
      [
       -75.619274,
       5.804006
      ],
      [
       -75.619324,
       5.804096
      ],
      [
       -75.619362,
       5.804158
      ],
      [
       -75.61945,
       5.80426
      ],
      [
       -75.619469,
       5.804273
      ],
      [
       -75.619496,
       5.804293
      ],
      [
       -75.619629,
       5.804386
      ],
      [
       -75.619834,
       5.80452
      ],
      [
       -75.61984,
       5.804523
      ],
      [
       -75.620026,
       5.80462
      ],
      [
       -75.620131,
       5.804777
      ],
      [
       -75.620193,
       5.804855
      ],
      [
       -75.620272,
       5.804924
      ],
      [
       -75.62046,
       5.805059
      ],
      [
       -75.620648,
       5.805233
      ],
      [
       -75.620805,
       5.805349
      ],
      [
       -75.620951,
       5.805448
      ],
      [
       -75.621288,
       5.805714
      ],
      [
       -75.621454,
       5.805871
      ],
      [
       -75.621519,
       5.805971
      ],
      [
       -75.62155,
       5.806036
      ],
      [
       -75.621569,
       5.806094
      ],
      [
       -75.621595,
       5.806163
      ],
      [
       -75.6218,
       5.806428
      ],
      [
       -75.621927,
       5.806644
      ],
      [
       -75.621974,
       5.806716
      ],
      [
       -75.621966,
       5.806779
      ],
      [
       -75.62197,
       5.806787
      ]
     ]
    ]
   }
  }
 ]
}