{
 "type": "FeatureCollection",
 "features": [
  {
   "type": "Feature",
   "properties": {
    "tipo": "potrero",
    "nombre": "Potrero 1",
    "n": 1,
    "nombrado": false,
    "area_ha": 20.77,
    "area_m2": 207716,
    "agua": [
     {
      "id": null,
      "nombre": "drenaje",
      "tipo": "natural",
      "confianza": "IGAC"
     }
    ],
    "sal": [],
    "sin_agua": false,
    "solo_natural": true,
    "agua_por_confirmar": true,
    "agua_nota": "[por confirmar] No hay bebedero mapeado en este potrero. Puede que el ganado tome de la quebrada, o puede que haya un bebedero que todavía no ubicamos. No asumir lo uno ni lo otro.",
    "fuente": "[derived 2.0 m] Cara cerrada del grafo Cerca IGAC + linderos. Geometría heredada del catastro; el NOMBRE real lo da Manuel.",
    "confianza": "geometría: media (catastro 1:5000) · nombre: pendiente"
   },
   "geometry": {
    "type": "Polygon",
    "coordinates": [
     [
      [
       -75.616398,
       5.80067
      ],
      [
       -75.615668,
       5.801454
      ],
      [
       -75.616913,
       5.801972
      ],
      [
       -75.617273,
       5.802206
      ],
      [
       -75.617318,
       5.802186
      ],
      [
       -75.617441,
       5.802133
      ],
      [
       -75.61764,
       5.802044
      ],
      [
       -75.617669,
       5.802032
      ],
      [
       -75.617729,
       5.802007
      ],
      [
       -75.617949,
       5.801941
      ],
      [
       -75.618059,
       5.801897
      ],
      [
       -75.618135,
       5.801838
      ],
      [
       -75.618175,
       5.801787
      ],
      [
       -75.618392,
       5.801676
      ],
      [
       -75.618552,
       5.801612
      ],
      [
       -75.618649,
       5.801539
      ],
      [
       -75.61873,
       5.801447
      ],
      [
       -75.618774,
       5.801392
      ],
      [
       -75.618714,
       5.801285
      ],
      [
       -75.61865,
       5.801192
      ],
      [
       -75.618512,
       5.80094
      ],
      [
       -75.618502,
       5.800921
      ],
      [
       -75.618434,
       5.800726
      ],
      [
       -75.618423,
       5.80067
      ],
      [
       -75.618415,
       5.800624
      ],
      [
       -75.618405,
       5.800445
      ],
      [
       -75.618426,
       5.800276
      ],
      [
       -75.618437,
       5.800188
      ],
      [
       -75.618498,
       5.799962
      ],
      [
       -75.618558,
       5.79978
      ],
      [
       -75.61859,
       5.799713
      ],
      [
       -75.618623,
       5.799649
      ],
      [
       -75.618635,
       5.799612
      ],
      [
       -75.618795,
       5.799248
      ],
      [
       -75.618806,
       5.799219
      ],
      [
       -75.618839,
       5.799135
      ],
      [
       -75.618832,
       5.799074
      ],
      [
       -75.618821,
       5.799033
      ],
      [
       -75.618806,
       5.79885
      ],
      [
       -75.618803,
       5.798807
      ],
      [
       -75.618816,
       5.798636
      ],
      [
       -75.618821,
       5.798467
      ],
      [
       -75.618806,
       5.798412
      ],
      [
       -75.6188,
       5.79838
      ],
      [
       -75.61885,
       5.798021
      ],
      [
       -75.618863,
       5.797982
      ],
      [
       -75.618941,
       5.797747
      ],
      [
       -75.618988,
       5.797627
      ],
      [
       -75.618975,
       5.797512
      ],
      [
       -75.618967,
       5.797375
      ],
      [
       -75.618938,
       5.797168
      ],
      [
       -75.618928,
       5.797055
      ],
      [
       -75.618946,
       5.79692
      ],
      [
       -75.618976,
       5.796765
      ],
      [
       -75.618995,
       5.796712
      ],
      [
       -75.618997,
       5.796627
      ],
      [
       -75.618997,
       5.796547
      ],
      [
       -75.618997,
       5.796311
      ],
      [
       -75.619,
       5.796189
      ],
      [
       -75.619013,
       5.796077
      ],
      [
       -75.619038,
       5.795889
      ],
      [
       -75.619066,
       5.79578
      ],
      [
       -75.619085,
       5.795672
      ],
      [
       -75.619096,
       5.795517
      ],
      [
       -75.619099,
       5.795435
      ],
      [
       -75.619085,
       5.79538
      ],
      [
       -75.619062,
       5.795287
      ],
      [
       -75.619012,
       5.795208
      ],
      [
       -75.618968,
       5.795144
      ],
      [
       -75.618911,
       5.795063
      ],
      [
       -75.618839,
       5.79497
      ],
      [
       -75.618769,
       5.794899
      ],
      [
       -75.618723,
       5.794829
      ],
      [
       -75.618675,
       5.79476
      ],
      [
       -75.618637,
       5.794686
      ],
      [
       -75.618615,
       5.794636
      ],
      [
       -75.618591,
       5.794579
      ],
      [
       -75.618574,
       5.7945
      ],
      [
       -75.618566,
       5.794421
      ],
      [
       -75.618575,
       5.794335
      ],
      [
       -75.618585,
       5.794273
      ],
      [
       -75.618627,
       5.794184
      ],
      [
       -75.618586,
       5.794085
      ],
      [
       -75.6185,
       5.793905
      ],
      [
       -75.618425,
       5.793696
      ],
      [
       -75.6184,
       5.793542
      ],
      [
       -75.618392,
       5.793413
      ],
      [
       -75.618397,
       5.793278
      ],
      [
       -75.618421,
       5.793126
      ],
      [
       -75.618433,
       5.79306
      ],
      [
       -75.618357,
       5.793041
      ],
      [
       -75.618305,
       5.793026
      ],
      [
       -75.618265,
       5.793027
      ],
      [
       -75.61821,
       5.793045
      ],
      [
       -75.618159,
       5.793067
      ],
      [
       -75.618114,
       5.793091
      ],
      [
       -75.618056,
       5.793132
      ],
      [
       -75.617985,
       5.793182
      ],
      [
       -75.617895,
       5.793273
      ],
      [
       -75.61784,
       5.79334
      ],
      [
       -75.617755,
       5.793429
      ],
      [
       -75.617686,
       5.793468
      ],
      [
       -75.617624,
       5.793493
      ],
      [
       -75.617572,
       5.793508
      ],
      [
       -75.617523,
       5.79352
      ],
      [
       -75.617456,
       5.793549
      ],
      [
       -75.617367,
       5.793604
      ],
      [
       -75.61724,
       5.793689
      ],
      [
       -75.617176,
       5.793736
      ],
      [
       -75.617132,
       5.793778
      ],
      [
       -75.617086,
       5.793828
      ],
      [
       -75.617047,
       5.793853
      ],
      [
       -75.617131,
       5.794109
      ],
      [
       -75.617286,
       5.794468
      ],
      [
       -75.617133,
       5.794534
      ],
      [
       -75.617272,
       5.795211
      ],
      [
       -75.617352,
       5.79571
      ],
      [
       -75.617346,
       5.796288
      ],
      [
       -75.616763,
       5.796373
      ],
      [
       -75.616726,
       5.797314
      ],
      [
       -75.616051,
       5.798078
      ],
      [
       -75.616648,
       5.798542
      ],
      [
       -75.617003,
       5.799509
      ],
      [
       -75.616995,
       5.799554
      ],
      [
       -75.616975,
       5.799672
      ],
      [
       -75.616966,
       5.799688
      ],
      [
       -75.616453,
       5.800611
      ],
      [
       -75.616398,
       5.80067
      ]
     ]
    ]
   }
  },
  {
   "type": "Feature",
   "properties": {
    "tipo": "potrero",
    "nombre": "Potrero 2",
    "n": 2,
    "nombrado": false,
    "area_ha": 14.08,
    "area_m2": 140754,
    "agua": [
     {
      "id": "agua:beb-1",
      "nombre": "Bebedero 1",
      "tipo": "bebedero",
      "confianza": "alta"
     },
     {
      "id": null,
      "nombre": "drenaje",
      "tipo": "natural",
      "confianza": "IGAC"
     }
    ],
    "sal": [],
    "sin_agua": false,
    "solo_natural": false,
    "agua_por_confirmar": false,
    "agua_nota": "",
    "fuente": "[derived 2.0 m] Cara cerrada del grafo Cerca IGAC + linderos. Geometría heredada del catastro; el NOMBRE real lo da Manuel.",
    "confianza": "geometría: media (catastro 1:5000) · nombre: pendiente"
   },
   "geometry": {
    "type": "Polygon",
    "coordinates": [
     [
      [
       -75.611697,
       5.797
      ],
      [
       -75.612197,
       5.795828
      ],
      [
       -75.612906,
       5.794113
      ],
      [
       -75.612931,
       5.794066
      ],
      [
       -75.612906,
       5.794113
      ],
      [
       -75.612197,
       5.795828
      ],
      [
       -75.611697,
       5.797
      ],
      [
       -75.611822,
       5.796968
      ],
      [
       -75.61201,
       5.7969
      ],
      [
       -75.612108,
       5.796842
      ],
      [
       -75.612289,
       5.796711
      ],
      [
       -75.612603,
       5.79648
      ],
      [
       -75.612761,
       5.79643
      ],
      [
       -75.613007,
       5.796354
      ],
      [
       -75.613186,
       5.796277
      ],
      [
       -75.61347,
       5.79612
      ],
      [
       -75.613617,
       5.796068
      ],
      [
       -75.613726,
       5.79605
      ],
      [
       -75.614068,
       5.796066
      ],
      [
       -75.614244,
       5.796061
      ],
      [
       -75.614112,
       5.795606
      ],
      [
       -75.613832,
       5.795705
      ],
      [
       -75.613586,
       5.795795
      ],
      [
       -75.612934,
       5.79576
      ],
      [
       -75.61305,
       5.795128
      ],
      [
       -75.613144,
       5.794639
      ],
      [
       -75.613385,
       5.794191
      ],
      [
       -75.613144,
       5.794639
      ],
      [
       -75.61305,
       5.795128
      ],
      [
       -75.612934,
       5.79576
      ],
      [
       -75.613586,
       5.795795
      ],
      [
       -75.613832,
       5.795705
      ],
      [
       -75.614112,
       5.795606
      ],
      [
       -75.614132,
       5.795599
      ],
      [
       -75.614458,
       5.795555
      ],
      [
       -75.614276,
       5.794536
      ],
      [
       -75.614079,
       5.794387
      ],
      [
       -75.614276,
       5.794536
      ],
      [
       -75.614458,
       5.795555
      ],
      [
       -75.615407,
       5.79543
      ],
      [
       -75.615776,
       5.795183
      ],
      [
       -75.614246,
       5.794019
      ],
      [
       -75.614096,
       5.793427
      ],
      [
       -75.614246,
       5.794019
      ],
      [
       -75.615776,
       5.795183
      ],
      [
       -75.615904,
       5.79528
      ],
      [
       -75.616634,
       5.795836
      ],
      [
       -75.61673,
       5.795941
      ],
      [
       -75.616734,
       5.796
      ],
      [
       -75.616763,
       5.796373
      ],
      [
       -75.617346,
       5.796288
      ],
      [
       -75.617352,
       5.79571
      ],
      [
       -75.617272,
       5.795211
      ],
      [
       -75.617133,
       5.794534
      ],
      [
       -75.617286,
       5.794468
      ],
      [
       -75.617131,
       5.794109
      ],
      [
       -75.617047,
       5.793853
      ],
      [
       -75.617006,
       5.793862
      ],
      [
       -75.616925,
       5.793859
      ],
      [
       -75.616875,
       5.79385
      ],
      [
       -75.616797,
       5.793838
      ],
      [
       -75.616715,
       5.793833
      ],
      [
       -75.61666,
       5.793842
      ],
      [
       -75.616579,
       5.793876
      ],
      [
       -75.616522,
       5.793899
      ],
      [
       -75.616451,
       5.793922
      ],
      [
       -75.616366,
       5.79394
      ],
      [
       -75.616297,
       5.793946
      ],
      [
       -75.616218,
       5.793952
      ],
      [
       -75.616127,
       5.793961
      ],
      [
       -75.616068,
       5.79397
      ],
      [
       -75.615982,
       5.793975
      ],
      [
       -75.615894,
       5.793963
      ],
      [
       -75.615796,
       5.793911
      ],
      [
       -75.615727,
       5.793861
      ],
      [
       -75.615659,
       5.793809
      ],
      [
       -75.615599,
       5.793746
      ],
      [
       -75.615548,
       5.79369
      ],
      [
       -75.615494,
       5.793628
      ],
      [
       -75.61543,
       5.793547
      ],
      [
       -75.61536,
       5.793444
      ],
      [
       -75.615307,
       5.793359
      ],
      [
       -75.615253,
       5.793239
      ],
      [
       -75.615233,
       5.793174
      ],
      [
       -75.615196,
       5.793117
      ],
      [
       -75.615125,
       5.793051
      ],
      [
       -75.615029,
       5.793003
      ],
      [
       -75.614915,
       5.792964
      ],
      [
       -75.614808,
       5.79294
      ],
      [
       -75.614686,
       5.792926
      ],
      [
       -75.61459,
       5.792916
      ],
      [
       -75.614468,
       5.792909
      ],
      [
       -75.614384,
       5.792911
      ],
      [
       -75.6143,
       5.792921
      ],
      [
       -75.614214,
       5.792933
      ],
      [
       -75.614118,
       5.792953
      ],
      [
       -75.614028,
       5.792985
      ],
      [
       -75.613959,
       5.793029
      ],
      [
       -75.613858,
       5.793113
      ],
      [
       -75.613763,
       5.7932
      ],
      [
       -75.613687,
       5.793282
      ],
      [
       -75.613605,
       5.79336
      ],
      [
       -75.613536,
       5.793415
      ],
      [
       -75.613474,
       5.793443
      ],
      [
       -75.613409,
       5.79346
      ],
      [
       -75.613338,
       5.793474
      ],
      [
       -75.613272,
       5.793487
      ],
      [
       -75.613212,
       5.793494
      ],
      [
       -75.613151,
       5.793491
      ],
      [
       -75.613093,
       5.793473
      ],
      [
       -75.613046,
       5.793466
      ],
      [
       -75.613015,
       5.793466
      ],
      [
       -75.612974,
       5.793856
      ],
      [
       -75.612506,
       5.79503
      ],
      [
       -75.611999,
       5.796247
      ],
      [
       -75.611697,
       5.797
      ]
     ]
    ]
   }
  },
  {
   "type": "Feature",
   "properties": {
    "tipo": "potrero",
    "nombre": "Potrero 3",
    "n": 3,
    "nombrado": false,
    "area_ha": 5.71,
    "area_m2": 57143,
    "agua": [
     {
      "id": "agua:beb-3",
      "nombre": "Bebedero 3",
      "tipo": "bebedero",
      "confianza": "alta"
     },
     {
      "id": "agua:beb-5",
      "nombre": "Bebedero 5 (aprox.)",
      "tipo": "bebedero",
      "confianza": "baja"
     },
     {
      "id": null,
      "nombre": "drenaje",
      "tipo": "natural",
      "confianza": "IGAC"
     }
    ],
    "sal": [],
    "sin_agua": false,
    "solo_natural": false,
    "agua_por_confirmar": false,
    "agua_nota": "",
    "fuente": "[derived 2.0 m] Cara cerrada del grafo Cerca IGAC + linderos. Geometría heredada del catastro; el NOMBRE real lo da Manuel.",
    "confianza": "geometría: media (catastro 1:5000) · nombre: pendiente"
   },
   "geometry": {
    "type": "Polygon",
    "coordinates": [
     [
      [
       -75.614802,
       5.802362
      ],
      [
       -75.612954,
       5.801327
      ],
      [
       -75.612318,
       5.801341
      ],
      [
       -75.61081,
       5.801357
      ],
      [
       -75.610781,
       5.801364
      ],
      [
       -75.610794,
       5.801408
      ],
      [
       -75.611058,
       5.802364
      ],
      [
       -75.611413,
       5.802377
      ],
      [
       -75.61203,
       5.802605
      ],
      [
       -75.612722,
       5.803423
      ],
      [
       -75.614448,
       5.802543
      ],
      [
       -75.614802,
       5.802362
      ]
     ]
    ]
   }
  },
  {
   "type": "Feature",
   "properties": {
    "tipo": "potrero",
    "nombre": "Potrero 4",
    "n": 4,
    "nombrado": false,
    "area_ha": 5.12,
    "area_m2": 51162,
    "agua": [
     {
      "id": "agua:beb-4",
      "nombre": "Bebedero 4",
      "tipo": "bebedero",
      "confianza": "alta"
     },
     {
      "id": null,
      "nombre": "drenaje",
      "tipo": "natural",
      "confianza": "IGAC"
     }
    ],
    "sal": [],
    "sin_agua": false,
    "solo_natural": false,
    "agua_por_confirmar": false,
    "agua_nota": "",
    "fuente": "[derived 2.0 m] Cara cerrada del grafo Cerca IGAC + linderos. Geometría heredada del catastro; el NOMBRE real lo da Manuel.",
    "confianza": "geometría: media (catastro 1:5000) · nombre: pendiente"
   },
   "geometry": {
    "type": "Polygon",
    "coordinates": [
     [
      [
       -75.615811,
       5.800495
      ],
      [
       -75.61583,
       5.800189
      ],
      [
       -75.615966,
       5.799908
      ],
      [
       -75.615282,
       5.798782
      ],
      [
       -75.612872,
       5.798926
      ],
      [
       -75.612834,
       5.799213
      ],
      [
       -75.613255,
       5.799801
      ],
      [
       -75.613749,
       5.800226
      ],
      [
       -75.613868,
       5.80062
      ],
      [
       -75.614342,
       5.800591
      ],
      [
       -75.614518,
       5.80056
      ],
      [
       -75.615811,
       5.800495
      ]
     ]
    ]
   }
  },
  {
   "type": "Feature",
   "properties": {
    "tipo": "potrero",
    "nombre": "Portugal",
    "n": 5,
    "nombrado": true,
    "area_ha": 4.49,
    "area_m2": 44912,
    "agua": [
     {
      "id": "agua:beb-4",
      "nombre": "Bebedero 4",
      "tipo": "bebedero",
      "confianza": "alta"
     },
     {
      "id": null,
      "nombre": "drenaje",
      "tipo": "natural",
      "confianza": "IGAC"
     }
    ],
    "sal": [],
    "sin_agua": false,
    "solo_natural": false,
    "agua_por_confirmar": false,
    "agua_nota": "",
    "fuente": "[derived 2.0 m] Cara cerrada del grafo Cerca IGAC + linderos. Geometría heredada del catastro; el NOMBRE real lo da Manuel.",
    "confianza": "geometría: media (catastro 1:5000) · nombre: pendiente"
   },
   "geometry": {
    "type": "Polygon",
    "coordinates": [
     [
      [
       -75.615811,
       5.800495
      ],
      [
       -75.614518,
       5.80056
      ],
      [
       -75.614342,
       5.800591
      ],
      [
       -75.613868,
       5.80062
      ],
      [
       -75.613338,
       5.800936
      ],
      [
       -75.612845,
       5.800974
      ],
      [
       -75.612954,
       5.801327
      ],
      [
       -75.614802,
       5.802362
      ],
      [
       -75.615668,
       5.801454
      ],
      [
       -75.616398,
       5.80067
      ],
      [
       -75.615811,
       5.800495
      ]
     ]
    ]
   }
  },
  {
   "type": "Feature",
   "properties": {
    "tipo": "potrero",
    "nombre": "Potrero 6",
    "n": 6,
    "nombrado": false,
    "area_ha": 4.36,
    "area_m2": 43609,
    "agua": [
     {
      "id": null,
      "nombre": "drenaje",
      "tipo": "natural",
      "confianza": "IGAC"
     }
    ],
    "sal": [],
    "sin_agua": false,
    "solo_natural": true,
    "agua_por_confirmar": true,
    "agua_nota": "[por confirmar] No hay bebedero mapeado en este potrero. Puede que el ganado tome de la quebrada, o puede que haya un bebedero que todavía no ubicamos. No asumir lo uno ni lo otro.",
    "fuente": "[derived 2.0 m] Cara cerrada del grafo Cerca IGAC + linderos. Geometría heredada del catastro; el NOMBRE real lo da Manuel.",
    "confianza": "geometría: media (catastro 1:5000) · nombre: pendiente"
   },
   "geometry": {
    "type": "Polygon",
    "coordinates": [
     [
      [
       -75.61373,
       5.80554
      ],
      [
       -75.613617,
       5.805483
      ],
      [
       -75.613694,
       5.804545
      ],
      [
       -75.611504,
       5.804018
      ],
      [
       -75.610912,
       5.804307
      ],
      [
       -75.611799,
       5.805322
      ],
      [
       -75.611883,
       5.805419
      ],
      [
       -75.612134,
       5.805848
      ],
      [
       -75.613439,
       5.806115
      ],
      [
       -75.61373,
       5.80554
      ]
     ]
    ]
   }
  },
  {
   "type": "Feature",
   "properties": {
    "tipo": "potrero",
    "nombre": "Potrero 7",
    "n": 7,
    "nombrado": false,
    "area_ha": 3.62,
    "area_m2": 36247,
    "agua": [
     {
      "id": "agua:tanques-intermedios",
      "nombre": "Tanques intermedios",
      "tipo": "tanque",
      "confianza": "alta"
     },
     {
      "id": "agua:beb-9",
      "nombre": "Bebedero 9",
      "tipo": "bebedero",
      "confianza": "alta"
     },
     {
      "id": null,
      "nombre": "drenaje",
      "tipo": "natural",
      "confianza": "IGAC"
     }
    ],
    "sal": [],
    "sin_agua": false,
    "solo_natural": false,
    "agua_por_confirmar": false,
    "agua_nota": "",
    "fuente": "[derived 2.0 m] Cara cerrada del grafo Cerca IGAC + linderos. Geometría heredada del catastro; el NOMBRE real lo da Manuel.",
    "confianza": "geometría: media (catastro 1:5000) · nombre: pendiente"
   },
   "geometry": {
    "type": "Polygon",
    "coordinates": [
     [
      [
       -75.611084,
       5.798518
      ],
      [
       -75.61167,
       5.797108
      ],
      [
       -75.610995,
       5.797106
      ],
      [
       -75.61014,
       5.797045
      ],
      [
       -75.60923,
       5.796959
      ],
      [
       -75.609196,
       5.796954
      ],
      [
       -75.60904,
       5.797977
      ],
      [
       -75.609214,
       5.797995
      ],
      [
       -75.609875,
       5.798241
      ],
      [
       -75.610229,
       5.798342
      ],
      [
       -75.610992,
       5.798738
      ],
      [
       -75.611084,
       5.798518
      ]
     ]
    ]
   }
  },
  {
   "type": "Feature",
   "properties": {
    "tipo": "potrero",
    "nombre": "Potrero 8",
    "n": 8,
    "nombrado": false,
    "area_ha": 3.23,
    "area_m2": 32318,
    "agua": [
     {
      "id": null,
      "nombre": "drenaje",
      "tipo": "natural",
      "confianza": "IGAC"
     }
    ],
    "sal": [
     {
      "id": "ganado:saladero-1",
      "nombre": "Saladero 1",
      "donde": "dentro",
      "confianza": "alta"
     }
    ],
    "sin_agua": false,
    "solo_natural": true,
    "agua_por_confirmar": true,
    "agua_nota": "[por confirmar] No hay bebedero mapeado en este potrero. Puede que el ganado tome de la quebrada, o puede que haya un bebedero que todavía no ubicamos. No asumir lo uno ni lo otro.",
    "fuente": "[derived 2.0 m] Cara cerrada del grafo Cerca IGAC + linderos. Geometría heredada del catastro; el NOMBRE real lo da Manuel.",
    "confianza": "geometría: media (catastro 1:5000) · nombre: pendiente"
   },
   "geometry": {
    "type": "Polygon",
    "coordinates": [
     [
      [
       -75.611504,
       5.804018
      ],
      [
       -75.612722,
       5.803423
      ],
      [
       -75.61203,
       5.802605
      ],
      [
       -75.611413,
       5.802377
      ],
      [
       -75.611058,
       5.802364
      ],
      [
       -75.611011,
       5.802484
      ],
      [
       -75.610955,
       5.802595
      ],
      [
       -75.610659,
       5.803257
      ],
      [
       -75.61021,
       5.80356
      ],
      [
       -75.610238,
       5.803588
      ],
      [
       -75.610912,
       5.804307
      ],
      [
       -75.611504,
       5.804018
      ]
     ]
    ]
   }
  },
  {
   "type": "Feature",
   "properties": {
    "tipo": "potrero",
    "nombre": "Lajas",
    "n": 9,
    "nombrado": true,
    "area_ha": 3.21,
    "area_m2": 32092,
    "agua": [
     {
      "id": "agua:beb-3",
      "nombre": "Bebedero 3",
      "tipo": "bebedero",
      "confianza": "alta"
     }
    ],
    "sal": [
     {
      "id": "ganado:saladero-1",
      "nombre": "Saladero 1",
      "donde": "en el lindero",
      "confianza": "alta"
     }
    ],
    "sin_agua": false,
    "solo_natural": false,
    "agua_por_confirmar": false,
    "agua_nota": "",
    "fuente": "[derived 2.0 m] Cara cerrada del grafo Cerca IGAC + linderos. Geometría heredada del catastro; el NOMBRE real lo da Manuel.",
    "confianza": "geometría: media (catastro 1:5000) · nombre: pendiente"
   },
   "geometry": {
    "type": "Polygon",
    "coordinates": [
     [
      [
       -75.60927,
       5.802581
      ],
      [
       -75.609691,
       5.803019
      ],
      [
       -75.609735,
       5.803065
      ],
      [
       -75.61021,
       5.80356
      ],
      [
       -75.610659,
       5.803257
      ],
      [
       -75.610955,
       5.802595
      ],
      [
       -75.611011,
       5.802484
      ],
      [
       -75.611058,
       5.802364
      ],
      [
       -75.610794,
       5.801408
      ],
      [
       -75.610781,
       5.801364
      ],
      [
       -75.610749,
       5.801363
      ],
      [
       -75.609827,
       5.801367
      ],
      [
       -75.60927,
       5.802581
      ]
     ]
    ]
   }
  },
  {
   "type": "Feature",
   "properties": {
    "tipo": "potrero",
    "nombre": "Paraíso",
    "n": 10,
    "nombrado": true,
    "area_ha": 3.11,
    "area_m2": 31105,
    "agua": [
     {
      "id": null,
      "nombre": "drenaje",
      "tipo": "natural",
      "confianza": "IGAC"
     }
    ],
    "sal": [],
    "sin_agua": false,
    "solo_natural": true,
    "agua_por_confirmar": true,
    "agua_nota": "[por confirmar] No hay bebedero mapeado en este potrero. Puede que el ganado tome de la quebrada, o puede que haya un bebedero que todavía no ubicamos. No asumir lo uno ni lo otro.",
    "fuente": "[derived 2.0 m] Cara cerrada del grafo Cerca IGAC + linderos. Geometría heredada del catastro; el NOMBRE real lo da Manuel.",
    "confianza": "geometría: media (catastro 1:5000) · nombre: pendiente"
   },
   "geometry": {
    "type": "Polygon",
    "coordinates": [
     [
      [
       -75.615811,
       5.800495
      ],
      [
       -75.616398,
       5.80067
      ],
      [
       -75.616453,
       5.800611
      ],
      [
       -75.616966,
       5.799688
      ],
      [
       -75.616975,
       5.799672
      ],
      [
       -75.616995,
       5.799554
      ],
      [
       -75.617003,
       5.799509
      ],
      [
       -75.616648,
       5.798542
      ],
      [
       -75.616051,
       5.798078
      ],
      [
       -75.615282,
       5.798782
      ],
      [
       -75.615966,
       5.799908
      ],
      [
       -75.61583,
       5.800189
      ],
      [
       -75.615811,
       5.800495
      ]
     ]
    ]
   }
  },
  {
   "type": "Feature",
   "properties": {
    "tipo": "potrero",
    "nombre": "Potrero 11",
    "n": 11,
    "nombrado": false,
    "area_ha": 1.82,
    "area_m2": 18233,
    "agua": [
     {
      "id": null,
      "nombre": "drenaje",
      "tipo": "natural",
      "confianza": "IGAC"
     }
    ],
    "sal": [],
    "sin_agua": false,
    "solo_natural": true,
    "agua_por_confirmar": true,
    "agua_nota": "[por confirmar] No hay bebedero mapeado en este potrero. Puede que el ganado tome de la quebrada, o puede que haya un bebedero que todavía no ubicamos. No asumir lo uno ni lo otro.",
    "fuente": "[derived 2.0 m] Cara cerrada del grafo Cerca IGAC + linderos. Geometría heredada del catastro; el NOMBRE real lo da Manuel.",
    "confianza": "geometría: media (catastro 1:5000) · nombre: pendiente"
   },
   "geometry": {
    "type": "Polygon",
    "coordinates": [
     [
      [
       -75.607628,
       5.797584
      ],
      [
       -75.608068,
       5.79777
      ],
      [
       -75.60881,
       5.797939
      ],
      [
       -75.608871,
       5.797948
      ],
      [
       -75.60904,
       5.797977
      ],
      [
       -75.609196,
       5.796954
      ],
      [
       -75.608006,
       5.796789
      ],
      [
       -75.607571,
       5.796742
      ],
      [
       -75.607628,
       5.797584
      ]
     ]
    ]
   }
  }
 ]
}