{
 "type": "FeatureCollection",
 "features": [
  {
   "type": "Feature",
   "properties": {
    "tipo": "casa",
    "nombre": "Casa de la entrada",
    "altura_m": 813,
    "fuente": "[owner, corroborated by IGAC 1:5000] Manuel describió dos sitios construidos en el predio; el catastro 1:5000 muestra exactamente dos (entrada y suroeste). Construcción 14x10 m.",
    "confianza": "alta"
   },
   "geometry": {
    "type": "Point",
    "coordinates": [
     -75.60241,
     5.79529
    ]
   }
  },
  {
   "type": "Feature",
   "properties": {
    "tipo": "tanque",
    "nombre": "Tanque principal 1 (~50.000 L)",
    "altura_m": 813,
    "capacidad_l": 50000,
    "confianza": "posición: media · capacidad: baja",
    "fuente": "[owner, unverified] capacidad y conteo de memoria. Posición aproximada: junto a la casa de la entrada."
   },
   "geometry": {
    "type": "Point",
    "coordinates": [
     -75.60239,
     5.79529
    ]
   }
  },
  {
   "type": "Feature",
   "properties": {
    "tipo": "tanque",
    "nombre": "Tanque principal 2 (~20.000 L)",
    "altura_m": 813,
    "capacidad_l": 20000,
    "confianza": "posición: media · capacidad: baja",
    "fuente": "[owner, unverified] capacidad y conteo de memoria. Posición aproximada: junto a la casa de la entrada."
   },
   "geometry": {
    "type": "Point",
    "coordinates": [
     -75.6025,
     5.79534
    ]
   }
  },
  {
   "type": "Feature",
   "properties": {
    "tipo": "casa",
    "nombre": "Casa principal",
    "altura_m": 705,
    "fuente": "[owner, corroborated by IGAC 1:5000] Manuel describió dos sitios construidos en el predio; el catastro 1:5000 muestra exactamente dos (entrada y suroeste). Construcción 60x30 m, la mayor del predio.",
    "confianza": "alta",
    "nota": "[owner, 2026-08-21] NO hay tanques junto a esta casa. Los tanques intermedios están a ~694 m, 57 m más arriba."
   },
   "geometry": {
    "type": "Point",
    "coordinates": [
     -75.61623,
     5.79648
    ]
   }
  },
  {
   "type": "Feature",
   "properties": {
    "tipo": "tanque",
    "nombre": "Tanques intermedios (3 × ~20.000 L)",
    "altura_m": 762,
    "n_tanques": 3,
    "capacidad_l_total": 60000,
    "alimentado_por": "tanques principales de la entrada (813 m) — 51 m de caída, ~860 m",
    "abastece": "casa principal (recreativa, incl. jardín — carga prescindible) + ~la mitad de los bebederos de esa zona",
    "fuente": "[owner] coordenada exacta dada por Manuel 2026-08-21 desde el visor. Los tres tanques se representan como un solo punto porque no conocemos sus posiciones individuales. Capacidades ~20.000 L c/u = estimación de memoria.",
    "confianza": "posición del grupo: alta · capacidades: baja"
   },
   "geometry": {
    "type": "Point",
    "coordinates": [
     -75.609996,
     5.797095
    ]
   }
  },
  {
   "type": "Feature",
   "properties": {
    "tipo": "tuberia",
    "nombre": "Aducción: tanques altos → tanques intermedios (INDICATIVA)",
    "desnivel_m": 51,
    "confianza": "solo extremos; ruta pendiente del levantamiento",
    "fuente": "Esquemática entre dos puntos conocidos."
   },
   "geometry": {
    "type": "LineString",
    "coordinates": [
     [
      -75.60244,
      5.79531
     ],
     [
      -75.609996,
      5.797095
     ]
    ]
   }
  },
  {
   "type": "Feature",
   "properties": {
    "tipo": "tuberia",
    "nombre": "Distribución: tanques intermedios → casa principal (INDICATIVA)",
    "desnivel_m": 57,
    "confianza": "solo extremos; ruta pendiente del levantamiento",
    "fuente": "Esquemática entre dos puntos conocidos."
   },
   "geometry": {
    "type": "LineString",
    "coordinates": [
     [
      -75.609996,
      5.797095
     ],
     [
      -75.61623,
      5.79648
     ]
    ]
   }
  }
 ]
}